"network","station","name","state","county","lat","lon","area.km2"
"CANOPEX","'05OH007'","'SEINE RIVER NEAR STE. ANNE'","MB","Canada",49.64363861,-96.60903168,702.093
"CANOPEX","'09AA013'","'TUTSHI RIVER AT OUTLET OF TUTSHI LAKE'","BC","Canada",59.94778061,-134.3325043,895.434
"CANOPEX","'09AE003'","'SWIFT RIVER NEAR SWIFT RIVER'","BC","Canada",59.93056107,-131.7677765,3119.59
"CANOPEX","'07NB008'","'DOG RIVER NEAR FITZGERALD'","AB","Canada",59.87638855,-111.5208282,2002.02
"CANOPEX","'09AA014'","'FANTAIL RIVER AT OUTLET OF FANTAIL LAKE'","YT","Canada",59.59444046,-134.390564,753.443
"CANOPEX","'09AE004'","'GLADYS RIVER AT OUTLET OF GLADYS LAKE'","YT","Canada",59.90555954,-132.9138947,1699.95
"CANOPEX","'07LC002'","'CHIPMAN RIVER ABOVE BLACK LAKE'","SK","Canada",59.31943893,-105.3027802,1008.25
"CANOPEX","'10AC004'","'BLUE RIVER NEAR THE MOUTH'","BC","Canada",59.7583313,-129.1277771,1542.13
"CANOPEX","'03HA009'","'HAMELIN (RIVIERE) PRES DE LA RIVIERE ARNAUD (PAYNE)-1'","QC","Canada",60,-71.75,3820.53
"CANOPEX","'10AC005'","'COTTONWOOD RIVER ABOVE BASS CREEK'","BC","Canada",59.11888885,-129.8230591,1046.51
"CANOPEX","'10BE007'","'TROUT RIVER AT KILOMETRE 783.7 ALASKA HIGHWAY'","BC","Canada",59.33597183,-125.9402466,1164.85
"CANOPEX","'10AC003'","'DEASE RIVER AT OUTLET OF DEASE LAKE'","BC","Canada",58.81388855,-130.0833282,1516.86
"CANOPEX","'10BE004'","'TOAD RIVER ABOVE NONDA CREEK'","BC","Canada",58.85496902,-125.3826065,2442.8
"CANOPEX","'08CD001'","'TUYA RIVER NEAR TELEGRAPH CREEK'","BC","Canada",58.07221985,-130.824173,3413.03
"CANOPEX","'07MA003'","'DOUGLAS RIVER NEAR CLUFF LAKE'","SK","Canada",58.32221985,-109.7861099,1678.11
"CANOPEX","'07LB002'","'WATERFOUND RIVER BELOW THERIAU LAKE'","SK","Canada",58.3861084,-104.6083298,2935.46
"CANOPEX","'08CG003'","'ISKUT RIVER AT OUTLET OF KINASKAN LAKE'","BC","Canada",57.53055954,-130.1791687,1291.04
"CANOPEX","'07EA002'","'KWADACHA RIVER NEAR WARE'","BC","Canada",57.45000076,-125.6374969,2322.33
"CANOPEX","'06FD002'","'DEER RIVER NORTH OF BELCHER'","MB","Canada",58.01353073,-94.19805908,1848.56
"CANOPEX","'07CD006'","'CLEARWATER RIVER AT OUTLET OF LLOYD LAKE'","SK","Canada",57.33055878,-108.7638931,4163.15
"CANOPEX","'06FB002'","'LITTLE BEAVER RIVER NEAR THE MOUTH'","MB","Canada",57.65327835,-95.66385651,4086.57
"CANOPEX","'07EA007'","'AKIE RIVER NEAR THE 760 M CONTOUR'","BC","Canada",57.1911087,-124.8988876,1619.2
"CANOPEX","'08CC001'","'KLAPPAN RIVER NEAR TELEGRAPH CREEK'","BC","Canada",57.90000153,-129.7038879,3366.9
"CANOPEX","'06DA005'","'WHEELER RIVER BELOW RUSSELL LAKE'","SK","Canada",57.47777939,-104.9972229,2725.36
"CANOPEX","'08CG005'","'MORE CREEK NEAR THE MOUTH'","BC","Canada",57.0408287,-130.4013824,856.518
"CANOPEX","'07DA008'","'MUSKEG RIVER NEAR FORT MACKAY'","AB","Canada",57.19120026,-111.570137,1397.15
"CANOPEX","'10CB001'","'SIKANNI CHIEF RIVER NEAR FORT NELSON'","BC","Canada",57.23416901,-122.6941681,2125.09
"CANOPEX","'03MB001'","'FALSE (RIVIERE)'","QC","Canada",57.67082977,-68.26999664,2180.75
"CANOPEX","'05UH002'","'WEIR RIVER ABOVE THE MOUTH'","MB","Canada",57.02305984,-93.45305634,2179.03
"CANOPEX","'07EA004'","'INGENIKA RIVER ABOVE SWANNELL RIVER'","BC","Canada",56.72999954,-125.1029968,3964.69
"CANOPEX","'07FC003'","'BLUEBERRY RIVER BELOW AITKEN CREEK'","BC","Canada",56.67721939,-121.2208328,1701.86
"CANOPEX","'07EB002'","'OSPIKA RIVER ABOVE ALEY CREEK'","BC","Canada",56.52833176,-123.9333267,2058.21
"CANOPEX","'05UG001'","'LIMESTONE RIVER NEAR BIRD'","MB","Canada",56.51258087,-94.21617126,3146.5
"CANOPEX","'07FA005'","'GRAHAM RIVER ABOVE COLT CREEK'","BC","Canada",56.45861053,-122.3561096,2226.27
"CANOPEX","'06BD001'","'HAULTAIN RIVER ABOVE NORBERT RIVER'","SK","Canada",56.24443817,-106.5611115,3697.8
"CANOPEX","'08DD001'","'UNUK RIVER NEAR STEWART'","BC","Canada",56.35139084,-130.6916656,1425.79
"CANOPEX","'07CD004'","'HANGINGSTONE RIVER AT FORT MCMURRAY'","AB","Canada",56.70896912,-111.3563766,870.927
"CANOPEX","'07EC003'","'MESILINKA RIVER ABOVE GOPHERHOLE CREEK'","BC","Canada",56.24388885,-124.6433334,2852.1
"CANOPEX","'06EA007'","'PAGATO RIVER AT OUTLET OF PAGATO LAKE'","SK","Canada",56.11193848,-102.5097198,904.763
"CANOPEX","'07FD008'","'HINES CREEK NEAR FAIRVIEW'","AB","Canada",56.06806183,-118.6597214,1165.2
"CANOPEX","'05UH001'","'ANGLING RIVER NEAR BIRD'","MB","Canada",56.67694092,-93.64111328,1511.8
"CANOPEX","'05UF004'","'KETTLE RIVER NEAR GILLAM'","MB","Canada",56.34156036,-94.69664764,1092.77
"CANOPEX","'07EC004'","'OSILINKA RIVER NEAR END LAKE'","BC","Canada",56.12667084,-124.8013916,1856.24
"CANOPEX","'05TF002'","'FOOTPRINT RIVER ABOVE FOOTPRINT LAKE'","MB","Canada",55.93111038,-98.88639069,616.578
"CANOPEX","'06CE001'","'FOSTER RIVER ABOVE CHURCHILL RIVER'","SK","Canada",55.82500076,-105.7555618,4329.75
"CANOPEX","'07FB008'","'MOBERLY RIVER NEAR FORT ST. JOHN'","BC","Canada",56.09305954,-121.3469391,1439.86
"CANOPEX","'07JA003'","'WILLOW RIVER NEAR WABASCA'","AB","Canada",55.91667175,-113.9213028,1059.86
"CANOPEX","'07FD006'","'SADDLE RIVER NEAR WOKING'","AB","Canada",55.64434814,-118.7002335,486.586
"CANOPEX","'08EB004'","'KISPIOX RIVER NEAR HAZELTON'","BC","Canada",55.43360901,-127.7141724,1836.81
"CANOPEX","'06BA002'","'DILLON RIVER BELOW DILLON LAKE'","SK","Canada",55.70972061,-109.3855591,2317.48
"CANOPEX","'07FD007'","'POUCE COUPE RIVER BELOW HENDERSON CREEK'","BC","Canada",55.86471939,-120.0294418,2975.59
"CANOPEX","'05TG002'","'TAYLOR RIVER NEAR THOMPSON'","MB","Canada",55.48984909,-98.19207764,860.003
"CANOPEX","'07GD002'","'BEAVERTAIL CREEK NEAR HYTHE'","AB","Canada",55.31616974,-119.6425476,663.846
"CANOPEX","'07ED001'","'NATION RIVER NEAR FORT ST. JAMES'","BC","Canada",55.20000076,-124.2333298,4130.88
"CANOPEX","'07FD001'","'KISKATINAW RIVER NEAR FARMINGTON'","BC","Canada",55.9569397,-120.5625,3459.38
"CANOPEX","'07FB003'","'SUKUNKA RIVER NEAR THE MOUTH'","BC","Canada",55.54278183,-121.6244431,2591.62
"CANOPEX","'06BB004'","'KEELEY RIVER AT OUTLET OF KEELEY LAKE'","SK","Canada",54.91833115,-108.0536118,948.943
"CANOPEX","'08EG006'","'KITSUMKALUM RIVER NEAR TERRACE'","BC","Canada",54.5819397,-128.6602783,2267.08
"CANOPEX","'03EC001'","'DENYS (RIVIERE) PRES DE LA GRANDE RIVIERE DE LA BALEINE'","QC","Canada",55.0083313,-77.06388855,4389.08
"CANOPEX","'07FB006'","'MURRAY RIVER ABOVE WOLVERINE RIVER'","BC","Canada",55.06528091,-121.0124969,2323.32
"CANOPEX","'05TB002'","'GRASS RIVER AT WEKUSKO FALLS'","MB","Canada",54.78889084,-99.96943665,3115.2
"CANOPEX","'07EE007'","'PARSNIP RIVER ABOVE MISINCHINKA RIVER'","BC","Canada",55.07806015,-122.9047165,4691.29
"CANOPEX","'06AG002'","'DORE RIVER NEAR THE MOUTH'","SK","Canada",54.93027878,-107.7436066,2919.4
"CANOPEX","'07BC006'","'DAPP CREEK AT HIGHWAY NO. 44'","AB","Canada",54.30820084,-113.8488998,585.521
"CANOPEX","'07GG001'","'WASKAHIGAN RIVER NEAR THE MOUTH'","AB","Canada",54.75201035,-117.2057037,1003.85
"CANOPEX","'05KF001'","'BALLANTYNE RIVER ABOVE BALLANTYNE BAY'","SK","Canada",54.56111145,-103.9416733,1838.22
"CANOPEX","'07EE010'","'PACK RIVER AT OUTLET OF MCLEOD LAKE'","BC","Canada",54.99583054,-123.0355606,3576.42
"CANOPEX","'07GG003'","'IOSEGUN RIVER NEAR LITTLE SMOKY'","AB","Canada",54.74517822,-117.1521606,1909.96
"CANOPEX","'08EE013'","'BUCK CREEK AT THE MOUTH'","BC","Canada",54.39778137,-126.6511078,571.748
"CANOPEX","'08KC001'","'SALMON RIVER NEAR PRINCE GEORGE'","BC","Canada",54.0961113,-122.6780624,4250.59
"CANOPEX","'08EF005'","'ZYMOETZ RIVER ABOVE O.K. CREEK'","BC","Canada",54.48332977,-128.3305664,2879.41
"CANOPEX","'05EC004'","'NAMEPI CREEK NEAR THE MOUTH'","AB","Canada",54.02972031,-112.8455582,737.663
"CANOPEX","'08FF001'","'KITIMAT RIVER BELOW HIRSCH CREEK'","BC","Canada",54.04858017,-128.6903534,1944.58
"CANOPEX","'03PB002'","'NASKAUPI RIVER BELOW NASKAUPI LAKE'","NL","Canada",54.13191986,-61.42681122,4624.17
"CANOPEX","'05KE010'","'WHITE GULL CREEK AT HIGHWAY NO. 106'","SK","Canada",53.86497116,-104.6196365,626.095
"CANOPEX","'08JB002'","'STELLAKO RIVER AT GLENANNAN'","BC","Canada",54.00753021,-125.0088882,3883.62
"CANOPEX","'08KB003'","'MCGREGOR RIVER AT LOWER CANYON'","BC","Canada",54.23117065,-121.6687469,4609.31
"CANOPEX","'08ED001'","'NANIKA RIVER AT OUTLET OF KIDPRICE LAKE'","BC","Canada",53.93056107,-127.4527817,703.828
"CANOPEX","'08FE003'","'KEMANO RIVER ABOVE POWERHOUSE TAILRACE'","BC","Canada",53.56943893,-127.9444427,536.577
"CANOPEX","'05EF004'","'MONNERY RIVER NEAR PARADISE HILL'","SK","Canada",53.54111099,-109.5272217,891.78
"CANOPEX","'06AD010'","'MEADOW RIVER BELOW MEADOW LAKE'","SK","Canada",54.1361084,-108.3944397,3278.45
"CANOPEX","'08JA005'","'TAHTSA RIVER NEAR OOTSA LAKE'","BC","Canada",53.75556183,-126.6999969,1389.08
"CANOPEX","'07BB003'","'LOBSTICK RIVER NEAR STYAL'","AB","Canada",53.61249924,-115.1055603,1520.39
"CANOPEX","'05KE006'","'BISSET CREEK NEAR CHOICELAND'","SK","Canada",53.45306015,-104.5686111,589.902
"CANOPEX","'05DE003'","'WABAMUN CREEK NEAR DUFFIELD'","AB","Canada",53.46166992,-114.3666687,525.588
"CANOPEX","'04DC002'","'SHAMATTAWA RIVER AT OUTLET OF SHAMATTAWA LAKE'","ON","Canada",54.28974915,-85.6515274,4634.5
"CANOPEX","'05GG010'","'GARDEN RIVER NEAR HENRIBOURG'","SK","Canada",53.39389038,-105.6108322,860.607
"CANOPEX","'08JA003'","'WHITESAIL RIVER NEAR OOTSA LAKE'","BC","Canada",53.63888931,-126.7488937,991.507
"CANOPEX","'05UA003'","'GUNISAO RIVER AT JAM RAPIDS'","MB","Canada",53.82221985,-97.77500153,4606.52
"CANOPEX","'04CD002'","'SACHIGO RIVER BELOW OUTLET OF SACHIGO LAKE'","ON","Canada",53.99443817,-92.1472168,3890.98
"CANOPEX","'05DF003'","'BLACKMUD CREEK NEAR ELLERSLIE'","AB","Canada",53.41455078,-113.51651,619.913
"CANOPEX","'04CE002'","'FAWN RIVER BELOW BIG TROUT LAKE'","ON","Canada",53.76667023,-89.55000305,4379.03
"CANOPEX","'07AG003'","'WOLF CREEK AT HIGHWAY NO. 16A'","AB","Canada",53.59835052,-116.271843,839.561
"CANOPEX","'05EF005'","'BIG GULLY CREEK NEAR MAIDSTONE'","SK","Canada",53.24417114,-109.2958298,1528.15
"CANOPEX","'07AB002'","'SNAKE INDIAN RIVER NEAR THE MOUTH'","AB","Canada",53.15777969,-118.0327835,1549.86
"CANOPEX","'05DF004'","'STRAWBERRY CREEK NEAR THE MOUTH'","AB","Canada",53.31148911,-114.0520706,567.186
"CANOPEX","'08KD006'","'WILLOW RIVER ABOVE HAY CREEK'","BC","Canada",54.04555893,-122.3730621,2768.81
"CANOPEX","'05GF001'","'SHELL BROOK NEAR SHELLBROOK'","SK","Canada",53.25278091,-106.3858337,2637.74
"CANOPEX","'05EE009'","'VERMILION RIVER AT VEGREVILLE'","AB","Canada",53.49118042,-112.0398026,1569.55
"CANOPEX","'08JA004'","'TETACHUCK RIVER NEAR OOTSA LAKE'","BC","Canada",53.3533287,-125.5694427,3264.93
"CANOPEX","'05EG004'","'CRYSTAL CREEK NEAR IFFLEY'","SK","Canada",52.97972107,-108.1563873,345.006
"CANOPEX","'08KD007'","'BOWRON RIVER BELOW BOX CANYON'","BC","Canada",54.01694107,-122.1028595,3270.02
"CANOPEX","'05LD001'","'OVERFLOWING RIVER AT OVERFLOWING RIVER'","MB","Canada",53.14294052,-101.1025009,3269.72
"CANOPEX","'08KG003'","'BAEZAEKO RIVER AT LOT 10262'","BC","Canada",52.98611069,-123.8027802,1017.98
"CANOPEX","'08KE009'","'COTTONWOOD RIVER NEAR CINEMA'","BC","Canada",53.15528107,-122.4761124,1850.61
"CANOPEX","'05GE001'","'RADOUGA CREEK NEAR BLAINE LAKE'","SK","Canada",52.69361115,-106.8744431,880.122
"CANOPEX","'05FA018'","'DRIEDMEAT CREEK NEAR THE MOUTH'","AB","Canada",52.88138962,-112.6388931,1168.78
"CANOPEX","'08KE016'","'BAKER CREEK AT QUESNEL'","BC","Canada",52.97306061,-122.519722,1539.47
"CANOPEX","'05DE007'","'ROSE CREEK NEAR ALDER FLATS'","AB","Canada",52.92990875,-115.0110168,527.491
"CANOPEX","'08KH003'","'CARIBOO RIVER BELOW KANGAROO CREEK'","BC","Canada",52.66667175,-121.6708298,3182.39
"CANOPEX","'08KA007'","'FRASER RIVER AT RED PASS'","BC","Canada",52.98627853,-119.0066681,1661.48
"CANOPEX","'07AA004'","'MALIGNE RIVER NEAR JASPER'","AB","Canada",52.93082809,-118.0261078,879.741
"CANOPEX","'05LB006'","'SHAND CREEK NEAR DILLABOUGH'","SK","Canada",52.61832809,-102.7513885,609.697
"CANOPEX","'05KB003'","'CARROT RIVER NEAR ARMLEY'","SK","Canada",53.13639069,-104.0208282,4420.58
"CANOPEX","'08LA013'","'CLEARWATER RIVER AT OUTLET OF HOBSON LAKE'","BC","Canada",52.42166901,-120.3238907,863.839
"CANOPEX","'07AA009'","'WHIRLPOOL RIVER NEAR THE MOUTH'","AB","Canada",52.72472,-117.9247208,581.298
"CANOPEX","'03CE001'","'GIPOULOUX (RIVIERE)'","QC","Canada",52.65222168,-76.18611145,3359.4
"CANOPEX","'03QC002'","'ALEXIS RIVER NEAR PORT HOPE SIMPSON'","NL","Canada",52.64860916,-56.87121964,2246.79
"CANOPEX","'03OE003'","'MINIPI RIVER BELOW MINIPI LAKE'","NL","Canada",52.61257935,-61.18544006,1911.17
"CANOPEX","'08KF001'","'NAZKO RIVER ABOVE MICHELLE CREEK'","BC","Canada",52.9291687,-123.5472183,3068.35
"CANOPEX","'02XA003'","'LITTLE MECATINA RIVER ABOVE LAC FOURMONT'","NL","Canada",52.22980881,-61.31694031,4376.49
"CANOPEX","'08FC003'","'DEAN RIVER BELOW TANSWANKET CREEK'","BC","Canada",52.88972092,-125.7713928,3691.49
"CANOPEX","'08KH010'","'HORSEFLY RIVER ABOVE MCKINLEY CREEK'","BC","Canada",52.28971863,-121.0602798,773.318
"CANOPEX","'08KH019'","'MOFFAT CREEK NEAR HORSEFLY'","BC","Canada",52.31528091,-121.4055634,513.877
"CANOPEX","'05FD005'","'RIBSTONE CREEK NEAR CZAR'","AB","Canada",52.48806,-110.7375031,1565.18
"CANOPEX","'05LE008'","'SWAN RIVER NEAR NORQUAY'","SK","Canada",51.99777985,-102.0738907,1920.43
"CANOPEX","'05LE004'","'WOODY RIVER NEAR BOWSMAN'","MB","Canada",52.25968933,-101.1416092,2219.31
"CANOPEX","'05RD007'","'BERENS RIVER AT OUTLET OF LONG LAKE'","MB","Canada",52.20278168,-96.1027832,3479.27
"CANOPEX","'08LA004'","'MURTLE RIVER ABOVE DAWSON FALLS'","BC","Canada",51.97943878,-120.1036072,1326.93
"CANOPEX","'08FB006'","'ATNARKO RIVER NEAR THE MOUTH'","BC","Canada",52.3608284,-126.0055084,2519.1
"CANOPEX","'04FA003'","'PINEIMUTA RIVER AT EYES LAKE'","ON","Canada",52.30828094,-88.7603302,4778.15
"CANOPEX","'05MC001'","'ASSINIBOINE RIVER AT STURGIS'","SK","Canada",51.93972015,-102.5469437,1912.58
"CANOPEX","'05LE005'","'ROARING RIVER NEAR MINITONAS'","MB","Canada",52.15089035,-101.0602493,925.711
"CANOPEX","'05DA006'","'NORTH SASKATCHEWAN RIVER AT SASKATCHEWAN CROSSING'","AB","Canada",51.96667099,-116.7249985,1241.58
"CANOPEX","'05DA002'","'SIFFLEUR RIVER NEAR THE MOUTH'","AB","Canada",52.04417038,-116.3838882,505.641
"CANOPEX","'05DB003'","'CLEARWATER RIVER ABOVE LIMESTONE CREEK'","AB","Canada",51.9916687,-115.4333267,1318.73
"CANOPEX","'08LB047'","'NORTH THOMPSON RIVER AT BIRCH ISLAND'","BC","Canada",51.60277939,-119.9152832,4418.81
"CANOPEX","'08ND012'","'GOLDSTREAM RIVER BELOW OLD CAMP CREEK'","BC","Canada",51.66833115,-118.5969391,926.086
"CANOPEX","'08LA008'","'MAHOOD RIVER AT OUTLET OF MAHOOD LAKE'","BC","Canada",51.93193817,-120.2413864,4654.18
"CANOPEX","'08NB012'","'BLAEBERRY RIVER ABOVE WILLOWBANK CREEK'","BC","Canada",51.48139191,-116.9683304,577.79
"CANOPEX","'05CA001'","'RED DEER RIVER NEAR SUNDRE'","AB","Canada",51.70000076,-114.8555603,2452.53
"CANOPEX","'08GD007'","'MOSLEY CREEK NEAR DUMBELL LAKE'","BC","Canada",51.4086113,-124.9316711,1501.85
"CANOPEX","'05MD007'","'SHELL RIVER NEAR ROBLIN'","MB","Canada",51.3619194,-101.256218,1248.76
"CANOPEX","'08ND009'","'DOWNIE CREEK NEAR REVELSTOKE'","BC","Canada",51.47694016,-118.42556,626.806
"CANOPEX","'05JH005'","'LEWIS CREEK NEAR IMPERIAL'","SK","Canada",51.30056,-105.3811111,576.811
"CANOPEX","'05JJ009'","'SALINE CREEK NEAR NOKOMIS'","SK","Canada",51.41611099,-105.1030579,557.748
"CANOPEX","'08LB069'","'BARRIERE RIVER BELOW SPRAGUE CREEK'","BC","Canada",51.24721909,-119.9305573,602.766
"CANOPEX","'08LE027'","'SEYMOUR RIVER NEAR SEYMOUR ARM'","BC","Canada",51.26250076,-118.9466705,780.845
"CANOPEX","'08GD005'","'HOMATHKO RIVER BELOW NUDE CREEK'","BC","Canada",51.37443924,-124.76194,1893.37
"CANOPEX","'04FA002'","'KAWINOGANS RIVER NEAR PICKLE CROW'","ON","Canada",51.64831161,-89.88691711,1374.52
"CANOPEX","'05BH003'","'NOSE CREEK AT CALGARY'","AB","Canada",51.12221909,-114.0458298,871.986
"CANOPEX","'08MB006'","'BIG CREEK ABOVE GROUNDHOG CREEK'","BC","Canada",51.52305984,-123.1144409,969.124
"CANOPEX","'08NB019'","'BEAVER RIVER NEAR THE MOUTH'","BC","Canada",51.50971985,-117.4616699,1140.71
"CANOPEX","'08NA006'","'KICKING HORSE RIVER AT GOLDEN'","BC","Canada",51.29999924,-116.9680634,1735.34
"CANOPEX","'05HF005'","'MACDONALD CREEK NEAR BOUNTY'","SK","Canada",51.53221893,-107.4122162,2284.16
"CANOPEX","'05SD003'","'FISHER RIVER NEAR DALLAS'","MB","Canada",51.35617065,-97.51222229,1537.12
"CANOPEX","'08ND013'","'ILLECILLEWAET RIVER AT GREELEY'","BC","Canada",51.01361084,-118.0824966,1153.97
"CANOPEX","'08LD001'","'ADAMS RIVER NEAR SQUILAX'","BC","Canada",50.9383316,-119.6544418,3139.95
"CANOPEX","'05BH009'","'JUMPINGPOUND CREEK NEAR THE MOUTH'","AB","Canada",51.15444183,-114.5283279,603.808
"CANOPEX","'08MA002'","'CHILKO RIVER AT OUTLET OF CHILKO LAKE'","BC","Canada",51.62527847,-124.1419373,2131.76
"CANOPEX","'05LJ045'","'WILSON RIVER NEAR ASHVILLE'","MB","Canada",51.15613937,-100.3324966,498.955
"CANOPEX","'08LE024'","'EAGLE RIVER NEAR MALAKWA'","BC","Canada",50.93638992,-118.7997208,917.773
"CANOPEX","'08MA003'","'TASEKO RIVER AT OUTLET OF TASEKO LAKES'","BC","Canada",51.37944031,-123.6305618,1735.81
"CANOPEX","'08ME025'","'YALAKOM RIVER ABOVE ORE CREEK'","BC","Canada",50.91249847,-122.2372208,579.952
"CANOPEX","'05HE001'","'SNAKEBITE CREEK NEAR BEECHY'","SK","Canada",50.80167007,-107.2752838,403.39
"CANOPEX","'08NE001'","'INCOMAPPLEUX RIVER NEAR BEATON'","BC","Canada",50.77360916,-117.6766663,1015.65
"CANOPEX","'05SC002'","'ICELANDIC RIVER NEAR RIVERTON'","MB","Canada",50.96472168,-97.03746796,1380.39
"CANOPEX","'05BJ005'","'ELBOW RIVER ABOVE GLENMORE DAM'","AB","Canada",51,-114.0999985,1168.82
"CANOPEX","'05RA001'","'MANIGOTAGAN RIVER NEAR MANIGOTAGAN'","MB","Canada",51.10128021,-96.28302765,1822.51
"CANOPEX","'05QE012'","'LONG-LEGGED RIVER BELOW LONG-LEGGED LAKE'","ON","Canada",50.67699814,-93.97019196,588.44
"CANOPEX","'08NH119'","'DUNCAN RIVER BELOW B.B. CREEK'","BC","Canada",50.63806152,-117.0472183,1315.89
"CANOPEX","'05LJ007'","'TURTLE RIVER NEAR LAURIER'","MB","Canada",50.94881058,-99.52674866,1028.55
"CANOPEX","'04KA001'","'KWATABOAHEGAN RIVER NEAR THE MOUTH'","ON","Canada",51.16083145,-80.86393738,4180.57
"CANOPEX","'05RA002'","'BLACK RIVER NEAR MANIGOTAGAN'","MB","Canada",50.86167145,-96.2527771,772.403
"CANOPEX","'05ME003'","'BIRDTAIL CREEK NEAR BIRTLE'","MB","Canada",50.534729,-100.9524918,1096.59
"CANOPEX","'02YC001'","'TORRENT RIVER AT BRISTOL''S POOL'","NL","Canada",50.60747147,-57.15161133,639.593
"CANOPEX","'08NH066'","'LARDEAU RIVER AT GERRARD'","BC","Canada",50.50999832,-117.2747192,812.401
"CANOPEX","'08NF006'","'PALLISER RIVER IN LOT SL49'","BC","Canada",50.52528,-115.6191711,681.098
"CANOPEX","'05MF008'","'ROLLING RIVER NEAR ERICKSON'","MB","Canada",50.52331161,-99.94613647,773.025
"CANOPEX","'05PJ001'","'BIRD RIVER AT OUTLET OF BIRD LAKE'","MB","Canada",50.46281052,-95.41425323,1148.23
"CANOPEX","'05LL015'","'BIG GRASS RIVER NEAR GLENELLA'","MB","Canada",50.50569153,-98.97028351,1043.52
"CANOPEX","'08LG032'","'GUICHON CREEK BELOW QUENVILLE CREEK'","BC","Canada",50.41527939,-120.8125,800.188
"CANOPEX","'08MG008'","'BIRKENHEAD RIVER AT MOUNT CURRIE'","BC","Canada",50.33889008,-122.7277832,639.134
"CANOPEX","'05QE009'","'STURGEON RIVER AT OUTLET OF SALVESEN LAKE'","ON","Canada",50.35224915,-94.46640778,1750.93
"CANOPEX","'08MG005'","'LILLOOET RIVER NEAR PEMBERTON'","BC","Canada",50.33555984,-122.7994385,2098.5
"CANOPEX","'05OJ008'","'NETLEY CREEK NEAR PETERSFIELD'","MB","Canada",50.32722092,-97.04416656,855.284
"CANOPEX","'02VA001'","'TONNERRE (RIVIERE AU)'","QC","Canada",50.28250122,-64.78278351,689.625
"CANOPEX","'05JG001'","'SANDY CREEK NEAR CARON'","SK","Canada",50.45249939,-106.0291672,430.631
"CANOPEX","'02WA001'","'NABISIPI (RIVIERE) A 2.4 KM DE L''EMBOUCHURE'","QC","Canada",50.25305939,-62.21221924,2121.59
"CANOPEX","'05JF011'","'COTTONWOOD CREEK NEAR LUMSDEN'","SK","Canada",50.59056091,-104.9086075,1017.99
"CANOPEX","'08NA012'","'TOBY CREEK NEAR ATHALMER'","BC","Canada",50.51082993,-116.0436096,666.279
"CANOPEX","'05JM010'","'EKAPO CREEK NEAR MARIEVAL'","SK","Canada",50.53017044,-102.7100601,1059.36
"CANOPEX","'08NA045'","'COLUMBIA RIVER NEAR FAIRMONT HOT SPRINGS'","BC","Canada",50.3236084,-115.8625031,899.3
"CANOPEX","'05MG001'","'ARROW RIVER NEAR ARROW RIVER'","MB","Canada",50.09267044,-100.9560394,641.51
"CANOPEX","'08GA071'","'ELAHO RIVER NEAR THE MOUTH'","BC","Canada",50.11943817,-123.4361115,1241.35
"CANOPEX","'05QE008'","'CEDAR RIVER BELOW WABASKANG LAKE'","ON","Canada",50.50756073,-93.25858307,1528.32
"CANOPEX","'08MG003'","'GREEN RIVER NEAR PEMBERTON'","BC","Canada",50.28194046,-122.851387,823.77
"CANOPEX","'08NH130'","'FRY CREEK BELOW CARNEY CREEK'","BC","Canada",50.08139038,-116.7847214,582.608
"CANOPEX","'08HF005'","'NIMPKISH RIVER ABOVE WOSS RIVER'","BC","Canada",50.21527863,-126.609169,852.174
"CANOPEX","'08NK018'","'FORDING RIVER AT THE MOUTH'","BC","Canada",49.89416885,-114.8647232,608.419
"CANOPEX","'05MH011'","'WILLOW CREEK NEAR CHATER'","MB","Canada",49.85889053,-99.82611084,577.247
"CANOPEX","'08MF065'","'NAHATLATCH RIVER BELOW TACHEWANA CREEK'","BC","Canada",49.95391846,-121.8627472,715.188
"CANOPEX","'05LL007'","'PINE CREEK NEAR PINE CREEK STATION'","MB","Canada",50.06111145,-98.94693756,618.628
"CANOPEX","'05OJ006'","'COOKS CREEK AT COOKS CREEK'","MB","Canada",50.02000046,-96.77306366,458.933
"CANOPEX","'08NG051'","'SKOOKUMCHUCK CREEK NEAR SKOOKUMCHUCK'","BC","Canada",49.91167068,-115.7675018,648.476
"CANOPEX","'05NE003'","'PIPESTONE CREEK ABOVE MOOSOMIN LAKE'","SK","Canada",50.15219116,-101.8370285,2916.1
"CANOPEX","'08LG008'","'SPIUS CREEK NEAR CANFORD'","BC","Canada",50.13528061,-121.0297165,745.472
"CANOPEX","'08NJ014'","'SLOCAN RIVER AT SLOCAN CITY'","BC","Canada",49.76889038,-117.4730606,1812.86
"CANOPEX","'02YG001'","'MAIN RIVER AT PARADISE POOL'","NL","Canada",49.81066895,-57.15942001,635.982
"CANOPEX","'05AH050'","'BOXELDER CREEK AT HARGRAVE''S RANCH'","SK","Canada",50.01197815,-109.9870071,1140.59
"CANOPEX","'05MH006'","'LITTLE SOURIS RIVER NEAR BRANDON'","MB","Canada",49.7321701,-99.84886169,618.245
"CANOPEX","'05JE002'","'MOOSE JAW RIVER NEAR LANG'","SK","Canada",49.93082809,-104.4824982,832.178
"CANOPEX","'05SA004'","'BROKENHEAD RIVER NEAR VIVIAN'","MB","Canada",49.88528061,-96.36582947,606.586
"CANOPEX","'05OF011'","'BOYNE RIVER NEAR ROSEISLE'","MB","Canada",49.54528046,-98.41443634,625.665
"CANOPEX","'05HD036'","'SWIFT CURRENT CREEK BELOW ROCK CREEK'","SK","Canada",49.84444046,-108.4794388,1423.23
"CANOPEX","'08NG046'","'ST. MARY RIVER NEAR MARYSVILLE'","BC","Canada",49.60805893,-116.1686096,1475.72
"CANOPEX","'08NK020'","'MICHEL CREEK BELOW NATAL'","BC","Canada",49.73028183,-114.8566666,631.305
"CANOPEX","'05NF013'","'GAINSBOROUGH CREEK NEAR STORTHOAKS'","SK","Canada",49.41416931,-101.5266724,718.619
"CANOPEX","'08NN022'","'WEST KETTLE RIVER BELOW CARMI CREEK'","BC","Canada",49.48416901,-119.1083298,1191.41
"CANOPEX","'11AB076'","'BATTLE CREEK ABOVE CYPRESS LAKE WEST INFLOW CANAL'","SK","Canada",49.42889023,-109.6838913,622.16
"CANOPEX","'05NG010'","'OAK CREEK NEAR STOCKTON'","MB","Canada",49.56193924,-99.51186371,302.374
"CANOPEX","'02YM001'","'INDIAN BROOK AT INDIAN FALLS'","NL","Canada",49.51194,-56.11249924,959.195
"CANOPEX","'08MF068'","'COQUIHALLA RIVER ABOVE ALEXANDER CREEK'","BC","Canada",49.36943817,-121.3888931,625.097
"CANOPEX","'08NL024'","'TULAMEEN RIVER AT PRINCETON'","BC","Canada",49.45750046,-120.5180588,1793.99
"CANOPEX","'05MH004'","'CYPRESS RIVER NEAR CYPRESS RIVER'","MB","Canada",49.59194183,-99.03333282,1414.92
"CANOPEX","'05NG012'","'ELGIN CREEK NEAR SOURIS'","MB","Canada",49.59024811,-100.2356873,374.308
"CANOPEX","'08NH034'","'MOYIE RIVER AT MOYIE'","BC","Canada",49.2583313,-115.8499985,723.518
"CANOPEX","'02YL001'","'UPPER HUMBER RIVER NEAR REIDVILLE'","NL","Canada",49.24291992,-57.36024857,2115.79
"CANOPEX","'05NF006'","'LIGHTNING CREEK NEAR CARNDUFF'","SK","Canada",49.22106171,-101.7189713,1021.31
"CANOPEX","'05NF008'","'GRAHAM CREEK NEAR MELITA'","MB","Canada",49.26261139,-100.9980774,591.773
"CANOPEX","'05OF014'","'SHANNON CREEK NEAR MORRIS'","MB","Canada",49.35483932,-97.42247009,692.87
"CANOPEX","'11AA026'","'SAGE CREEK AT Q RANCH NEAR WILDHORSE'","AB","Canada",49.10771942,-110.223671,486.978
"CANOPEX","'05OC016'","'DEADHORSE CREEK NEAR ROSENFELD'","MB","Canada",49.25080872,-97.54981232,943.829
"CANOPEX","'08NN002'","'GRANBY RIVER AT GRAND FORKS'","BC","Canada",49.04417038,-118.4386063,2032.83
"CANOPEX","'08PA001'","'SKAGIT RIVER NEAR HOPE'","BC","Canada",49.04721832,-121.0958328,946.462
"CANOPEX","'11AB006'","'LODGE CREEK AT INTERNATIONAL BOUNDARY'","SK","Canada",49.01667023,-109.75,1992.35
"CANOPEX","'08NP001'","'FLATHEAD RIVER AT FLATHEAD'","MT","Canada",49.00056076,-114.476387,1125.71
"CANOPEX","'02YR003'","'INDIAN BAY BROOK NEAR NORTHWEST ARM'","NL","Canada",49.04217148,-53.88566971,565.99
"CANOPEX","'11AE009'","'ROCK CREEK BELOW HORSE CREEK NEAR INTERNATIONAL BOUNDARY'","MT","Canada",48.96944046,-106.8388901,839.275
"CANOPEX","'01BH005'","'DARTMOUTH (RIVIERE) EN AMONT DU RUISSEAU DU PAS DE DAME'","QC","Canada",48.97972107,-64.6986084,629.436
"CANOPEX","'02QC001'","'MADELEINE (RIVIERE) A RIVIERE-LA-MADELEINE'","QC","Canada",49.20278168,-65.29556274,1222.93
"CANOPEX","'04JC003'","'SHEKAK RIVER AT HIGHWAY NO. 11'","ON","Canada",49.75556183,-84.40666962,3207.44
"CANOPEX","'02YK004'","'HINDS BROOK NEAR GRAND LAKE'","NL","Canada",49.07249832,-57.17943954,527.25
"CANOPEX","'02RC011'","'PERIBONCA (PETITE RIVIERE)'","QC","Canada",48.81417084,-72.0477829,982.626
"CANOPEX","'02RF006'","'CHAMOUCHOUANE (RIVIERE) EN AVAL DU PONT DE LA ROUTE NO 167'","QC","Canada",49.25667191,-73.70832825,4345.11
"CANOPEX","'02BA002'","'STEEL RIVER NEAR TERRACE BAY'","ON","Canada",48.77777863,-86.88443756,1240.29
"CANOPEX","'01BH002'","'YORK (RIVIERE) A SUNNY BANK'","QC","Canada",48.8341713,-64.625,1020.18
"CANOPEX","'02QB011'","'CAP CHAT (RIVIERE) A CAP-CHAT'","QC","Canada",49.05638885,-66.67221832,753.843
"CANOPEX","'02BB002'","'BLACK RIVER NEAR MARATHON'","ON","Canada",48.68888855,-86.21250153,2165.72
"CANOPEX","'02SC002'","'PORTNEUF (RIVIERE) EN AMONT DES CHUTES PHILIAS'","QC","Canada",48.66167068,-69.16693878,2425.42
"CANOPEX","'02YJ001'","'HARRYS RIVER BELOW HIGHWAY BRIDGE'","NL","Canada",48.57582855,-58.36264038,628.28
"CANOPEX","'08HA010'","'SAN JUAN RIVER NEAR PORT RENFREW'","BC","Canada",48.57611084,-124.3111115,584.995
"CANOPEX","'01BG005'","'CASCAPEDIA (RIVIERE) EN AVAL DU RUISSEAU BERRY'","QC","Canada",48.62833023,-66.1680603,1672.43
"CANOPEX","'01BH007'","'GRANDE-RIVIERE OUEST (LA)'","QC","Canada",48.47777939,-64.52861023,543.107
"CANOPEX","'04JA002'","'KABINAKAGAMI RIVER AT HIGHWAY NO. 11'","ON","Canada",49.74417114,-84.10360718,3033.31
"CANOPEX","'01BD008'","'MATAPEDIA (RIVIERE) PRES DE AMQUI'","QC","Canada",48.4916687,-67.44999695,557.344
"CANOPEX","'02YO008'","'GREAT RATTLING BROOK ABOVE TOTE RIVER CONFLUENCE'","NL","Canada",48.8266716,-55.52869034,785.406
"CANOPEX","'02RF009'","'SAUMONS (RIVIERE AUX) PRES DE L''EMBOUCHURE'","QC","Canada",48.68360901,-72.51389313,773.914
"CANOPEX","'02RH047'","'SAINTE-MARGUERITE NORD-EST(RIVIERE) PRES DE LA RIV. STE.MARGUERITE-1'","QC","Canada",48.26721954,-69.90778351,1123.35
"CANOPEX","'02YQ001'","'GANDER RIVER AT BIG CHUTE'","NL","Canada",49.01628113,-54.85066986,4458.64
"CANOPEX","'01BG008'","'CASCAPEDIA (PETITE RIVIERE) A SAINT-EGAR'","QC","Canada",48.23083115,-65.73500061,1363.37
"CANOPEX","'02YS001'","'TERRA NOVA RIVER AT EIGHT MILE BRIDGES'","NL","Canada",48.44166946,-54.37250137,1172.46
"CANOPEX","'01BG009'","'BONAVENTURE (RIVIERE) EN AMONT DU RUISSEAU CREUX'","QC","Canada",48.18611145,-65.55860901,1928.66
"CANOPEX","'01BF001'","'NOUVELLE (RIVIERE) AU PONT'","QC","Canada",48.15721893,-66.34944153,1159.47
"CANOPEX","'02JB004'","'KINOJEVIS (RIVIERE) EN AVAL DU LAC PREISSAC'","QC","Canada",48.40555954,-78.36416626,999.933
"CANOPEX","'02BD003'","'MAGPIE RIVER NEAR MICHIPICOTEN'","ON","Canada",47.93888855,-84.83055878,2030.82
"CANOPEX","'02ZE001'","'SALMON RIVER AT LONG POND'","NL","Canada",47.94443893,-55.91389084,2721.7
"CANOPEX","'02ZH001'","'PIPERS HOLE RIVER AT MOTHERS BROOK'","NL","Canada",47.94667053,-54.28432846,776.563
"CANOPEX","'02RH048'","'HA HA (RIVIERE)'","QC","Canada",48.27471924,-70.86778259,576.496
"CANOPEX","'02RH049'","'PETIT SAGUENAY (RIVIERE)'","QC","Canada",48.18611145,-70.05056,728.215
"CANOPEX","'03AC001'","'BELL (RIVIERE) A SENNETERRE-2'","QC","Canada",48.35139084,-77.27333069,2000.5
"CANOPEX","'02ZD002'","'GREY RIVER NEAR GREY RIVER'","NL","Canada",47.74330902,-56.93399811,1974.09
"CANOPEX","'02ZF001'","'BAY DU NORD RIVER AT BIG FALLS'","NL","Canada",47.74682999,-55.44021988,1221.33
"CANOPEX","'01BJ003'","'JACQUET RIVER NEAR DURHAM CENTRE'","NB","Canada",47.89381027,-66.02522278,508.261
"CANOPEX","'02RH035'","'ECORCES (RIVIERE AUX) EN AMONT DU PONT-ROUTE 169'","QC","Canada",48.18222046,-71.64527893,1125.75
"CANOPEX","'02NE007'","'CROCHE (RIVIERE) A LA CROCHE'","QC","Canada",47.5841713,-72.74305725,1871.16
"CANOPEX","'01BE001'","'UPSALQUITCH RIVER AT UPSALQUITCH'","NB","Canada",47.83246994,-66.88707733,2305.77
"CANOPEX","'02RG005'","'METABETCHOUANE (RIVIERE) EN AMONT DE LA CENTRALE S.R.P.C.'","QC","Canada",48.375,-71.99360657,2263.79
"CANOPEX","'02PE009'","'GOUFFRE (RIVIERE DU) A BAIE-SAINT-PAUL'","QC","Canada",47.44749832,-70.51055908,875.648
"CANOPEX","'01BC001'","'RESTIGOUCHE RIVER BELOW KEDGWICK RIVER'","NB","Canada",47.66707993,-67.483078,3324.92
"CANOPEX","'02PG004'","'LOUP (RIVIERE DU) A LA ROUTE NO. 289'","QC","Canada",47.58250046,-69.66972351,454.829
"CANOPEX","'01BQ001'","'NORTHWEST MIRAMICHI RIVER AT TROUT BROOK'","NB","Canada",47.09474945,-65.83650208,1014.18
"CANOPEX","'02PG022'","'OUELLE (RIVIERE) PRES DE SAINT-GABRIEL-DE-KAMOURASKA'","QC","Canada",47.38111115,-69.95806122,814.979
"CANOPEX","'02PB006'","'SAINTE-ANNE (RIVIERE) (BRAS DU NORD DE LA) EN AMONT'","QC","Canada",46.97166824,-71.85443878,674.875
"CANOPEX","'02DC012'","'STURGEON RIVER AT UPPER GOOSE FALLS'","ON","Canada",46.97142029,-80.46324921,986.635
"CANOPEX","'01BP001'","'LITTLE SOUTHWEST MIRAMICHI RIVER AT LYTTLETON'","NB","Canada",46.93597031,-65.90738678,1373.32
"CANOPEX","'02KJ007'","'KIPAWA (RIVIERE) AU LAC DUMOINE'","QC","Canada",46.97027969,-78.04250336,2310
"CANOPEX","'01BO002'","'RENOUS RIVER AT MCGRAW BROOK'","NB","Canada",46.82138824,-66.11472321,649.092
"CANOPEX","'02KJ003'","'DUMOINE (RIVIERE) AU LAC DUMOINE'","QC","Canada",46.82221985,-77.86833191,357.827
"CANOPEX","'02LH002'","'DESERT (RIVIERE) EN AMONT DE LA RIVIERE DE L''AIGLE'","QC","Canada",46.47360992,-76.0430603,2143.23
"CANOPEX","'02NF003'","'MATAWIN (RIVIERE) A SAINT-MICHEL-DES-SAINTS'","QC","Canada",46.68582916,-73.91416931,1451.11
"CANOPEX","'02PJ007'","'BEAURIVAGE (RIVIERE) A SAINTE-ETIENNE'","QC","Canada",46.65916824,-71.28861237,702.748
"CANOPEX","'02DD012'","'VEUVE RIVER NEAR VERNER'","ON","Canada",46.4082489,-80.12330627,938.486
"CANOPEX","'01AN002'","'SALMON RIVER AT CASTAWAY'","NB","Canada",46.29072189,-65.7227478,1057.74
"CANOPEX","'02PJ030'","'FAMINE (RIVIERE) A SAINT-GEORGES'","QC","Canada",46.16416931,-70.6397171,711.909
"CANOPEX","'01AL002'","'NASHWAAK RIVER AT DURHAM BRIDGE'","NB","Canada",46.12591934,-66.61131287,1527.34
"CANOPEX","'01AP002'","'CANAAN RIVER AT EAST CANAAN'","NB","Canada",46.07236099,-65.36638641,670.376
"CANOPEX","'02PL001'","'BECANCOUR (RIVIERE) A LYSTER'","QC","Canada",46.36888885,-71.62249756,1430.11
"CANOPEX","'02LD002'","'PETITE NATION (RIVIERE DE LA) PRES DE COTE-SAINT-PIERRE'","QC","Canada",45.82749939,-75.07167053,1259.07
"CANOPEX","'02LH004'","'PICANOC (RIVIERE) PRES DE WRIGHT'","QC","Canada",46.07749939,-76.06944275,1258.64
"CANOPEX","'02OB037'","'ACHIGAN (RIVIERE DE L'') A L''EPIPHANIE'","QC","Canada",45.84638977,-73.49305725,650.844
"CANOPEX","'01AP004'","'KENNEBECASIS RIVER AT APOHAQUI'","NB","Canada",45.70138931,-65.6016922,1144.48
"CANOPEX","'01AM001'","'NORTH BRANCH OROMOCTO RIVER AT TRACY'","NB","Canada",45.67377853,-66.68289185,589.28
"CANOPEX","'02OA035'","'MILLE ILES (RIVIERE DES) EN AVAL DU LAC DES DEUX MONTAGNES'","QC","Canada",45.54167175,-73.87306213,299.307
"CANOPEX","'01EO001'","'ST. MARYS RIVER AT STILLWATER'","NS","Canada",45.17438889,-61.97991943,1423.92
"CANOPEX","'01EF001'","'LAHAVE RIVER AT WEST NORTHFIELD'","NS","Canada",44.4474411,-64.59118652,1290.68
"CANOPEX","'01ED005'","'MERSEY RIVER BELOW GEORGE LAKE'","NS","Canada",44.33314133,-65.20507813,739.27
"CANOPEX","'02GG004'","'BEAR CREEK ABOVE WILKESPORT'","ON","Canada",42.76443863,-82.34166718,579.583
"CANOPEX","'07GD001'","'BEAVERLODGE RIVER NEAR BEAVERLODGE'","AB","Canada",55.18927002,-119.4372482,1579.06
"CANOPEX","'06BB005'","'CANOE RIVER NEAR BEAUVAL'","SK","Canada",55.39693832,-108.0188904,4606.28
"CANOPEX","'08EE003'","'BULKLEY RIVER NEAR HOUSTON'","BC","Canada",54.39582825,-126.7083282,2322.79
"CANOPEX","'08ED002'","'MORICE RIVER NEAR HOUSTON'","BC","Canada",54.11806107,-127.4238892,1846.77
"CANOPEX","'05KE005'","'WHITE FOX RIVER NEAR GARRICK'","SK","Canada",53.42221832,-104.3416672,1918.77
"CANOPEX","'08KD003'","'WILLOW RIVER NEAR WILLOW RIVER'","BC","Canada",54.06861115,-122.4638901,3058.21
"CANOPEX","'08KD004'","'BOWRON RIVER NEAR HANSARD'","BC","Canada",54.03610992,-121.8791733,3499.24
"CANOPEX","'05LB002'","'ETOMAMI RIVER NEAR BERTWELL'","SK","Canada",52.59222031,-102.5650024,1909.47
"CANOPEX","'08LA007'","'CLEARWATER RIVER AT OUTLET OF CLEARWATER LAKE'","BC","Canada",52.13888931,-120.1916733,3002.86
"CANOPEX","'08FB007'","'BELLA COOLA RIVER ABOVE BURNT BRIDGE CREEK'","BC","Canada",52.42221832,-126.1580582,3595.28
"CANOPEX","'05DB001'","'CLEARWATER RIVER NEAR ROCKY MOUNTAIN HOUSE'","AB","Canada",52.34444046,-114.9361115,3153.21
"CANOPEX","'05LE001'","'SWAN RIVER AT SWAN RIVER'","MB","Canada",52.12071991,-101.2516708,4078.47
"CANOPEX","'08LB020'","'BARRIERE RIVER AT THE MOUTH'","BC","Canada",51.18000031,-120.1305618,1146.79
"CANOPEX","'05MD005'","'SHELL RIVER NEAR INGLIS'","MB","Canada",50.96334076,-101.3187714,1875.38
"CANOPEX","'05LJ011'","'WILSON RIVER NEAR DAUPHIN'","MB","Canada",51.20832825,-100.1791687,937.34
"CANOPEX","'05MF001'","'LITTLE SASKATCHEWAN RIVER NEAR MINNEDOSA'","MB","Canada",50.35881042,-99.90751648,2621.66
"CANOPEX","'08NH001'","'DUNCAN RIVER NEAR HOWSER'","BC","Canada",50.28583145,-116.9455566,2115.35
"CANOPEX","'08NH007'","'LARDEAU RIVER AT MARBLEHEAD'","BC","Canada",50.26306152,-116.9672165,1693.85
"CANOPEX","'08NK016'","'ELK RIVER NEAR NATAL'","BC","Canada",49.86611176,-114.8683319,1820.4
"CANOPEX","'05OJ002'","'COOKS CREEK NEAR EAST SELKIRK'","MB","Canada",50.14028168,-96.83000183,534.514
"CANOPEX","'08NJ013'","'SLOCAN RIVER NEAR CRESCENT VALLEY'","BC","Canada",49.46055984,-117.5644379,3310.55
"CANOPEX","'08NG012'","'ST. MARY RIVER AT WYCLIFFE'","BC","Canada",49.60028076,-115.8627777,2378.99
"CANOPEX","'05OF020'","'MORRIS RIVER NEAR ROSENORT'","MB","Canada",49.49008179,-97.48166656,2296.02
"CANOPEX","'08MF003'","'COQUIHALLA RIVER NEAR HOPE'","BC","Canada",49.37527847,-121.4194412,756.962
"CANOPEX","'05PH003'","'WHITEMOUTH RIVER NEAR WHITEMOUTH'","MB","Canada",49.93878174,-95.95683289,3676.33
"CANOPEX","'01BH001'","'DARTMOUTH (RIVIERE) PRES DE CORTEREAL'","QC","Canada",48.93305969,-64.63555908,734.26
"CANOPEX","'01BG001'","'CASCAPEDIA (PETITE RIVIERE) EN AMONT DU PONT'","QC","Canada",48.18917084,-65.81194305,1430.16
"CANOPEX","'02YS005'","'TERRA NOVA RIVER AT GLOVERTOWN'","NL","Canada",48.66275024,-54.01525116,1891.17
"CANOPEX","'01BD002'","'MATAPEDIA (RIVIERE) EN AMONT DE LA RIVIERE ASSEMETQUAGAN'","QC","Canada",48.08666992,-67.10056305,2772.12
"CANOPEX","'02JB003'","'KINOJEVIS (RIVIERE) EN AVAL DE LA RIVIERE VILLEMONTEL'","QC","Canada",48.45582962,-78.36110687,1680.7
"CANOPEX","'02PG006'","'LOUP (RIVIERE DU) A SAINT-JOSEPH-DE-KAMOURASKA'","QC","Canada",47.61249924,-69.64582825,461.288
"CANOPEX","'02PL007'","'BECANCOUR (RIVIERE) PRES DE SAINT-SYLVERE'","QC","Canada",46.19472122,-72.28388977,2374.45
"CANOPEX","'02LD001'","'PETITE NATION (RIVIERE DE LA) A PORTAGE-DE-LA-NATION'","QC","Canada",45.67110825,-75.03556061,1974.58
"CANOPEX","'08JA002'","'OOTSA RIVER AT OOTSA LAKE'","BC","Canada",53.625,-125.7333298,4120.09
"CANOPEX","'08FB002'","'BELLA COOLA RIVER NEAR HAGENSBORG'","BC","Canada",52.44221878,-126.332222,4012.82
"CANOPEX","'05LE006'","'SWAN RIVER NEAR MINITONAS'","MB","Canada",52.19599915,-101.0608292,4193.76
"CANOPEX","'08GD006'","'HOMATHKO RIVER AT TRAGEDY CANYON'","BC","Canada",51.26610947,-124.88694,4038.64
"CANOPEX","'05SA002'","'BROKENHEAD RIVER NEAR BEAUSEJOUR'","MB","Canada",50.0901413,-96.42832947,1485.08
"CANOPEX","'08NK002'","'ELK RIVER AT FERNIE'","BC","Canada",49.50999832,-115.0713882,3064.78
"CANOPEX","'08NK012'","'ELK RIVER AT STANLEY PARK'","BC","Canada",49.3116684,-115.0511093,3454.92
"CANOPEX","'07LE004'","'OTHERSIDE RIVER AT OUTLET OF MERCREDI LAKE'","SK","Canada",58.93,-107.49,2761
"CANOPEX","'10CD004'","'BOUGIE CREEK AT KILOMETRE 368 ALASKA HIGHWAY'","BC","Canada",58.03,-122.72,336
"CANOPEX","'07MA004'","'WILLIAM RIVER ABOVE CARSWELL RIVER'","SK","Canada",58.81,-109,3985
"CANOPEX","'07JC001'","'LAFOND CREEK NEAR RED EARTH CREEK'","AB","Canada",57.07,-115.1,588
"CANOPEX","'08CG006'","'FORREST KERR CREEK ABOVE 460 M CONTOUR'","BC","Canada",56.92,-130.72,318
"CANOPEX","'07FD011'","'HINES CREEK ABOVE GERRY LAKE'","AB","Canada",56.33,-118.27,380
"CANOPEX","'08DC006'","'BEAR RIVER ABOVE BITTER CREEK'","BC","Canada",56.04,-129.93,311
"CANOPEX","'08JD006'","'DRIFTWOOD RIVER ABOVE KASTBERG CREEK'","BC","Canada",55.98,-126.68,357
"CANOPEX","'05TG006'","'SAPOCHI RIVER NEAR NELSON HOUSE'","MB","Canada",55.91,-98.49,406
"CANOPEX","'07BF009'","'SALT CREEK NEAR GROUARD'","AB","Canada",55.61,-116.1,447
"CANOPEX","'07CA012'","'LOGAN RIVER NEAR THE MOUTH'","AB","Canada",55.17,-111.72,368
"CANOPEX","'07FB009'","'FLATBED CREEK AT KILOMETRE 110 HERITAGE HIGHWAY'","BC","Canada",55.09,-120.94,472
"CANOPEX","'07GC002'","'PINTO CREEK NEAR GRANDE PRAIRIE'","AB","Canada",54.84,-119.39,496
"CANOPEX","'08JE004'","'TSILCOH RIVER NEAR THE MOUTH'","BC","Canada",54.61,-124.24,352
"CANOPEX","'08KC003'","'MUSKEG RIVER NORTH OF JOANNE LAKE'","BC","Canada",54.61,-123.24,303
"CANOPEX","'08EG011'","'ZYMAGOTITZ RIVER NEAR TERRACE'","BC","Canada",54.52,-128.73,378
"CANOPEX","'07EE009'","'CHUCHINKA CREEK NEAR THE MOUTH'","BC","Canada",54.53,-122.6,318
"CANOPEX","'08EE020'","'TELKWA RIVER BELOW TSAI CREEK'","BC","Canada",54.6,-127.5,357
"CANOPEX","'06AC001'","'JACKFISH CREEK NEAR LA COREY'","AB","Canada",54.44,-110.69,490
"CANOPEX","'08EG012'","'EXCHAMSIKS RIVER NEAR TERRACE'","BC","Canada",54.36,-129.31,370
"CANOPEX","'07AH002'","'CHRISTMAS CREEK NEAR BLUE RIDGE'","AB","Canada",54.23,-115.33,439
"CANOPEX","'05EC002'","'WASKATENAU CREEK NEAR WASKATENAU'","AB","Canada",54.12,-112.78,352
"CANOPEX","'07BC007'","'WABASH CREEK NEAR PIBROCH'","AB","Canada",54.22,-113.93,386
"CANOPEX","'08FF002'","'HIRSCH CREEK NEAR THE MOUTH'","BC","Canada",54.06,-128.6,358
"CANOPEX","'07BB005'","'LITTLE PADDLE RIVER NEAR MAYERTHORPE'","AB","Canada",53.95,-115.02,430
"CANOPEX","'05ED002'","'ATIMOSWE CREEK NEAR ELK POINT'","AB","Canada",53.89,-110.92,368
"CANOPEX","'07GB002'","'KAKWA RIVER NEAR GRANDE PRAIRIE'","AB","Canada",54.37,-118.59,3261
"CANOPEX","'06AD011'","'ALCOTT CREEK ABOVE MEADOW LAKE'","SK","Canada",53.95,-107.97,427
"CANOPEX","'05EF006'","'ENGLISHMAN RIVER NEAR SPRUCE LAKE'","SK","Canada",53.58,-109.16,427
"CANOPEX","'08OA002'","'YAKOUN RIVER NEAR PORT CLEMENTS'","BC","Canada",53.61,-132.21,491
"CANOPEX","'08KA001'","'DORE RIVER NEAR MCBRIDE'","BC","Canada",53.31,-120.25,404
"CANOPEX","'05DF006'","'WHITEMUD CREEK NEAR ELLERSLIE'","AB","Canada",53.41,-113.59,343
"CANOPEX","'07AF015'","'GREGG RIVER NEAR THE MOUTH'","AB","Canada",53.25,-117.36,390
"CANOPEX","'05EG006'","'BIRLING CREEK NEAR PAYNTON'","SK","Canada",53.08,-108.98,331
"CANOPEX","'08KD001'","'BOWRON RIVER NEAR WELLS'","BC","Canada",53.26,-121.41,470
"CANOPEX","'05EE003'","'VERMILION RIVER NEAR VEGREVILLE'","AB","Canada",53.47,-112.06,1591
"CANOPEX","'05LD003'","'OVERFLOWING RIVER NEAR HUDSON BAY'","SK","Canada",53.03,-102.32,363
"CANOPEX","'08KA008'","'MOOSE RIVER NEAR RED PASS'","BC","Canada",52.92,-118.8,460
"CANOPEX","'07AF013'","'MCLEOD RIVER NEAR CADOMIN'","AB","Canada",53.08,-117.2,329
"CANOPEX","'05DD008'","'CARDINAL RIVER NEAR THE MOUTH'","AB","Canada",52.87,-116.6,492
"CANOPEX","'05CC008'","'BLINDMAN RIVER NEAR BLUFFTON'","AB","Canada",52.76,-114.29,360
"CANOPEX","'08NC004'","'CANOE RIVER BELOW KIMMEL CREEK'","BC","Canada",52.73,-119.38,312
"CANOPEX","'05KB011'","'DOGHIDE RIVER NEAR RUNCIMAN'","SK","Canada",52.97,-104.08,428
"CANOPEX","'05FF003'","'CUT KNIFE CREEK NEAR CUT KNIFE'","SK","Canada",52.76,-108.78,408
"CANOPEX","'05HH003'","'KOHLESCHMIDT CREEK NEAR ROSTHERN'","SK","Canada",52.75,-106.37,345
"CANOPEX","'08FC002'","'NASCALL RIVER NEAR OCEAN FALLS'","BC","Canada",52.5,-127.28,375
"CANOPEX","'05DC011'","'NORTH RAM RIVER AT FORESTRY ROAD'","AB","Canada",52.28,-116,348
"CANOPEX","'04CA004'","'SEVERN RIVER AT OUTLET OF DEER LAKE'","ON","Canada",52.67,-93.99,3817
"CANOPEX","'05CC011'","'WASKASOO CREEK AT RED DEER'","AB","Canada",52.27,-113.8,318
"CANOPEX","'08GD008'","'HOMATHKO RIVER AT INLET TO TATLAYOKO LAKE'","BC","Canada",51.67,-124.41,485
"CANOPEX","'05LG006'","'GARLAND RIVER NEAR DUCK RIVER'","MB","Canada",51.85,-100.25,529
"CANOPEX","'08NB014'","'GOLD RIVER ABOVE PALMER CREEK'","BC","Canada",51.68,-117.72,424
"CANOPEX","'05CA012'","'FALLENTIMBER CREEK NEAR SUNDRE'","AB","Canada",51.74,-114.65,508
"CANOPEX","'05BA001'","'BOW RIVER AT LAKE LOUISE'","AB","Canada",51.43,-116.19,426
"CANOPEX","'05CB002'","'LITTLE RED DEER RIVER NEAR WATER VALLEY'","AB","Canada",51.51,-114.67,487
"CANOPEX","'05BG006'","'WAIPAROUS CREEK NEAR THE MOUTH'","AB","Canada",51.28,-114.84,317
"CANOPEX","'05BD005'","'CASCADE RIVER ABOVE LAKE MINNEWANKA'","AB","Canada",51.29,-115.53,466
"CANOPEX","'05MD010'","'STONY CREEK NEAR KAMSACK'","SK","Canada",51.39,-101.84,376
"CANOPEX","'05CK007'","'BLOOD INDIAN CREEK NEAR CABIN LAKE'","AB","Canada",51.1,-111.24,312
"CANOPEX","'02YA001'","'STE. GENEVIEVE RIVER NEAR FORRESTERS POINT'","NL","Canada",51.14,-56.79,315
"CANOPEX","'05SD004'","'EAST FISHER RIVER NEAR HODGSON'","MB","Canada",51.22,-97.53,537
"CANOPEX","'08NF001'","'KOOTENAY RIVER AT KOOTENAY CROSSING'","BC","Canada",50.89,-116.05,502
"CANOPEX","'05ME007'","'SMITH CREEK NEAR MARCHWELL'","SK","Canada",50.83,-101.58,523
"CANOPEX","'05LJ005'","'OCHRE RIVER AT OCHRE RIVER'","MB","Canada",51.05,-99.79,348
"CANOPEX","'05JG013'","'RIDGE CREEK NEAR BRIDGEFORD'","SK","Canada",50.95,-106.33,529
"CANOPEX","'05LN002'","'BURNT LAKE DRAIN NEAR DEERHORN'","MB","Canada",50.72,-98.08,680
"CANOPEX","'08NA001'","'BUGABOO CREEK NEAR SPILLIMACHEEN'","BC","Canada",50.88,-116.38,367
"CANOPEX","'05BJ006'","'ELBOW RIVER ABOVE ELBOW FALLS'","AB","Canada",50.86,-114.79,437
"CANOPEX","'05BL018'","'SHEEP RIVER AT BUCK RANCH'","AB","Canada",50.62,-114.43,466
"CANOPEX","'05LL026'","'BIG GRASS RIVER ANGLE DITCH NEAR GLENELLA'","MB","Canada",50.56,-99.16,511
"CANOPEX","'05OJ009'","'NETLEY CREEK NEAR MATLOCK'","MB","Canada",50.45,-97.17,502
"CANOPEX","'05JL002'","'INDIANHEAD CREEK NEAR INDIAN HEAD'","SK","Canada",50.65,-103.6,329
"CANOPEX","'02WC001'","'ETAMAMIOU (RIVIERE) PRES DE L''EMBOUCHURE'","QC","Canada",50.38,-59.99,2897
"CANOPEX","'05AC030'","'SNAKE CREEK NEAR VULCAN'","AB","Canada",50.47,-112.91,399
"CANOPEX","'08NE006'","'KUSKANAX CREEK NEAR NAKUSP'","BC","Canada",50.28,-117.75,331
"CANOPEX","'08HF004'","'TSITIKA RIVER BELOW CATHERINE CREEK'","BC","Canada",50.44,-126.58,321
"CANOPEX","'05JC004'","'RUSHLAKE CREEK ABOVE HIGHFIELD RESERVOIR'","SK","Canada",50.25,-107.47,306
"CANOPEX","'05AB005'","'TROUT CREEK NEAR GRANUM'","AB","Canada",49.98,-113.69,443
"CANOPEX","'05HA015'","'BRIDGE CREEK AT GULL LAKE'","SK","Canada",50.09,-108.49,375
"CANOPEX","'05MG003'","'GOPHER CREEK NEAR VIRDEN'","MB","Canada",49.78,-100.97,392
"CANOPEX","'08NH005'","'KASLO RIVER BELOW KEMP CREEK'","BC","Canada",49.91,-116.95,437
"CANOPEX","'05MH007'","'EPINETTE CREEK NEAR CARBERRY'","MB","Canada",49.74,-99.33,395
"CANOPEX","'08HD011'","'OYSTER RIVER BELOW WOODHUS CREEK'","BC","Canada",49.89,-125.24,307
"CANOPEX","'08LG048'","'COLDWATER RIVER NEAR BROOKMERE'","BC","Canada",49.86,-120.91,307
"CANOPEX","'08GA054'","'MAMQUAM RIVER ABOVE MASHITER CREEK'","BC","Canada",49.73,-123.11,322
"CANOPEX","'05NF010'","'ANTLER RIVER NEAR WAUCHOPE'","SK","Canada",49.58,-101.85,359
"CANOPEX","'02YL008'","'UPPER HUMBER RIVER ABOVE BLACK BROOK'","NL","Canada",49.62,-57.29,478
"CANOPEX","'05AA008'","'CROWSNEST RIVER AT FRANK'","AB","Canada",49.6,-114.41,396
"CANOPEX","'05AH041'","'PEIGAN CREEK NEAR PAKOWKI ROAD'","AB","Canada",49.58,-110.94,439
"CANOPEX","'05JB004'","'NOTUKEU CREEK ABOVE ADMIRAL RESERVOIR'","SK","Canada",49.71,-108.13,462
"CANOPEX","'05NG019'","'STONY CREEK NEAR BROOMHILL'","MB","Canada",49.4,-101.1,451
"CANOPEX","'08NL050'","'HEDLEY CREEK NEAR THE MOUTH'","BC","Canada",49.37,-120.07,386
"CANOPEX","'05OE006'","'MANNING CANAL NEAR ILE DES CHENES'","MB","Canada",49.64,-96.91,498
"CANOPEX","'02UA003'","'GODBOUT (RIVIERE) A 1,6 KM EN AMONT DU PONT-ROUTE 138'","QC","Canada",49.33055878,-67.65583038,1927
"CANOPEX","'05AF010'","'MANYBERRIES CREEK AT BRODIN''S FARM'","AB","Canada",49.32,-110.75,364
"CANOPEX","'11AC025'","'DENNIEL CREEK NEAR VAL MARIE'","SK","Canada",49.31,-107.7,497
"CANOPEX","'08MG001'","'CHEHALIS RIVER NEAR HARRISON MILLS'","BC","Canada",49.3,-121.94,384
"CANOPEX","'05OE007'","'JOUBERT CREEK AT ST. PIERRE-JOLYS'","MB","Canada",49.44,-96.99,349
"CANOPEX","'05OE010'","'MARSH RIVER NEAR OTTERBURNE'","MB","Canada",49.5,-97.16,421
"CANOPEX","'05AA028'","'CASTLE RIVER AT RANGER STATION'","AB","Canada",49.4,-114.34,387
"CANOPEX","'05OE004'","'RAT RIVER NEAR SUNDOWN'","MB","Canada",49.21,-96.29,426
"CANOPEX","'02YR002'","'RAGGED HARBOUR RIVER NEAR MUSGRAVE HARBOUR'","NL","Canada",49.39,-54.11,384
"CANOPEX","'08HB002'","'ENGLISHMAN RIVER NEAR PARKSVILLE'","BC","Canada",49.32,-124.28,320
"CANOPEX","'02YK005'","'SHEFFIELD BROOK NEAR TRANS CANADA HIGHWAY'","NL","Canada",49.34,-56.67,424
"CANOPEX","'05AE011'","'POTHOLE CREEK NEAR MAGRATH'","AB","Canada",49.38,-112.89,364
"CANOPEX","'05OA008'","'PEMBINA RIVER NEAR KILLARNEY'","MB","Canada",49.21,-99.74,355
"CANOPEX","'08NE039'","'BIG SHEEP CREEK NEAR ROSSLAND'","BC","Canada",49.02,-117.94,346
"CANOPEX","'08NG078'","'CAVEN CREEK BELOW BLOOM CREEK'","BC","Canada",49.19,-115.44,311
"CANOPEX","'05OD031'","'SPRAGUE CREEK NEAR SPRAGUE'","MN","Canada",48.99,-95.66,477
"CANOPEX","'11AE002'","'WEST FORK POPLAR RIVER AT INTERNATIONAL BOUNDARY'","SK","Canada",49,-106.37,382
"CANOPEX","'11AE007'","'MCEACHERN CREEK AT INTERNATIONAL BOUNDARY'","MT","Canada",48.99,-106.93,461
"CANOPEX","'08HA001'","'CHEMAINUS RIVER NEAR WESTHOLME'","BC","Canada",48.88,-123.7,380
"CANOPEX","'01BH010'","'YORK (RIVIERE) A 1,4 KM EN AVAL DU RUISSEAU DINNER ISLAND'","QC","Canada",48.80667114,-64.92111206,664
"CANOPEX","'02QC009'","'SAINTE-ANNE (RIVIERE) A 9,7 KM EN AMONT DU PONT-ROUTE 132'","QC","Canada",49.0588913,-66.48667145,793
"CANOPEX","'05PC011'","'PINEWOOD RIVER NEAR PINEWOOD'","ON","Canada",48.75,-94.23,468
"CANOPEX","'05PB018'","'ATIKOKAN RIVER AT ATIKOKAN'","ON","Canada",48.75,-91.58,352
"CANOPEX","'02AB021'","'CURRENT RIVER AT STEPSTONE'","ON","Canada",48.56,-89.24,409
"CANOPEX","'05PB015'","'PIPESTONE RIVER ABOVE RAINY LAKE'","ON","Canada",48.57,-92.52,428
"CANOPEX","'02YK002'","'LEWASEECHJEECH BROOK AT LITTLE GRAND LAKE'","NL","Canada",48.62,-57.93,469
"CANOPEX","'02RH045'","'VALIN (RIVIERE) A 3,5 KM DE L''EMBOUCHURE'","QC","Canada",48.4888916,-70.97416687,774
"CANOPEX","'04MD004'","'PORCUPINE RIVER AT HOYLE'","ON","Canada",48.55,-81.05,431
"CANOPEX","'02ZA001'","'LITTLE BARACHOIS BROOK NEAR ST. GEORGE''S'","NL","Canada",48.45,-58.4,340
"CANOPEX","'02QA017'","'NEIGETTE (RIVIERE)'","QC","Canada",48.52,-68.16,496
"CANOPEX","'02JB013'","'KINOJEVIS (RIVIERE) A 0,3 KM EN AMONT DU PONT-ROUTE A CLERICY'","QC","Canada",48.3666687,-78.85333252,2521
"CANOPEX","'02YN002'","'LLOYDS RIVER BELOW KING GEORGE IV LAKE'","NL","Canada",48.24,-57.83,490
"CANOPEX","'02QA002'","'RIMOUSKI (RIVIERE) A 3,7 KM EN AMONT DU PONT-ROUTE 132'","QC","Canada",48.41333008,-68.55610657,1609
"CANOPEX","'02NE011'","'CROCHE (RIVIERE) A 2,6 KM EN AVAL DU RUISSEAU CHANGY'","QC","Canada",47.76721954,-72.73667145,1551
"CANOPEX","'02RH027'","'PIKAUBA (RIVIERE) EN AMONT DE LA RIVIERE APICA'","QC","Canada",47.94,-71.38,414
"CANOPEX","'01BJ001'","'TETAGOUCHE RIVER NEAR WEST BATHURST'","NB","Canada",47.66,-65.69,381
"CANOPEX","'01BL003'","'BIG TRACADIE RIVER AT MURCHY BRIDGE CROSSING'","NB","Canada",47.44,-65.11,367
"CANOPEX","'01AF007'","'GRANDE RIVIERE AT VIOLETTE BRIDGE'","NB","Canada",47.25,-67.92,341
"CANOPEX","'02PD002'","'MONTMORENCY (RIVIERE) A 0,6 KM EN AVAL DU BARRAGE DES MARCHES NATURELLES'","QC","Canada",46.89416885,-71.15139008,1155
"CANOPEX","'02PC009'","'PORTNEUF (RIVIERE) PRES DE PORTNEUF'","QC","Canada",46.71,-71.87,341
"CANOPEX","'01BO003'","'BARNABY RIVER BELOW SEMIWAGAN RIVER'","NB","Canada",46.89,-65.6,514
"CANOPEX","'02PA007'","'BATISCAN (RIVIERE) A 3,4 KM EN AVAL DE LA RIVIERE DES ENVIES'","QC","Canada",46.58361053,-72.40471649,4448
"CANOPEX","'01FB001'","'NORTHEAST MARGAREE RIVER AT MARGAREE VALLEY'","NS","Canada",46.37,-60.98,371
"CANOPEX","'02PK005'","'CHENE (PETIT RIVIERE DU) A PARISVILLE'","QC","Canada",46.5,-72.11,353
"CANOPEX","'01AJ010'","'BECAGUIMEC STREAM AT COLDSTREAM'","NB","Canada",46.34,-67.47,345
"CANOPEX","'01FB003'","'SOUTHWEST MARGAREE RIVER NEAR UPPER MARGAREE'","NS","Canada",46.22,-61.14,356
"CANOPEX","'02PL005'","'BECANCOUR (RIVIERE) A 2,1 KM EN AMONT DE LA RIVIERE PALMER'","QC","Canada",46.30611038,-71.45139313,915
"CANOPEX","'01BU002'","'PETITCODIAC RIVER NEAR PETITCODIAC'","NB","Canada",45.95,-65.17,404
"CANOPEX","'02OG026'","'DAVID (RIVIERE) AU PONT-ROUTE A SAINT-DAVID'","QC","Canada",45.95,-72.86,312
"CANOPEX","'02LD005'","'PETITE NATION (RIVIERE DE LA) AU PONT A 1,6 KM EN AMONT DE RIPON'","QC","Canada",45.79167175,-75.09139252,1261
"CANOPEX","'02OD003'","'NICOLET (RIVIERE) A 5,8 KM EN AVAL DE LA RIVIERE BULSTRODE'","QC","Canada",46.05638886,-72.30638886,1556
"CANOPEX","'01AK008'","'EEL RIVER NEAR SCOTT SIDING'","NB","Canada",45.94,-67.55,551
"CANOPEX","'02EA005'","'NORTH MAGNETAWAN RIVER NEAR BURK''S FALLS'","ON","Canada",45.67,-79.38,319
"CANOPEX","'02OJ024'","'HURONS (RIVIERE DES) EN AVAL DU RUISSEAU SAINT-LOUIS-2'","QC","Canada",45.49,-73.19,323
"CANOPEX","'02LB008'","'BEAR BROOK NEAR BOURGET'","ON","Canada",45.43,-75.15,428
"CANOPEX","'02OE032'","'SAUMON (RIVIERE AU) A 1,9 KM EN AMONT DE LA MOFFAT'","QC","Canada",45.58055878,-71.38667297,769
"CANOPEX","'02MC001'","'RAISIN RIVER NEAR WILLIAMSTOWN'","ON","Canada",45.16,-74.64,372
"CANOPEX","'01EN002'","'LISCOMB RIVER AT LISCOMB MILLS'","NS","Canada",45.01,-62.1,390
"CANOPEX","'02OJ026'","'L''ACADIE (RIVIERE) PRES DE L''AUTOROUTE NO. 10'","QC","Canada",45.39,-73.37,411
"CANOPEX","'02KF016'","'MISSISSIPPI RIVER BELOW MARBLE LAKE'","ON","Canada",44.84,-77.12,380
"CANOPEX","'01DG006'","'SHUBENACADIE RIVER AT ENFIELD'","NS","Canada",44.93,-63.53,391
"CANOPEX","'01EG002'","'GOLD RIVER AT MOSHER''S FALLS'","NS","Canada",44.56,-64.35,369
"CANOPEX","'02FA004'","'SAUBLE RIVER AT ALLENFORD'","ON","Canada",44.54,-81.18,353
"CANOPEX","'02FC016'","'SAUGEEN RIVER ABOVE DURHAM'","ON","Canada",44.19,-80.79,345
"CANOPEX","'02EC018'","'PEFFERLAW BROOK NEAR UDORA'","ON","Canada",44.27,-79.19,347
"CANOPEX","'02ED101'","'NOTTAWASAGA RIVER NEAR ALLISTON'","ON","Canada",44.11,-79.89,343
"CANOPEX","'01EC001'","'ROSEWAY RIVER AT LOWER OHIO'","NS","Canada",43.84,-65.37,505
"CANOPEX","'02GA017'","'CONESTOGO RIVER AT DRAYTON'","ON","Canada",43.76,-80.67,336
"CANOPEX","'02FE009'","'SOUTH MAITLAND RIVER AT SUMMERHILL'","ON","Canada",43.68,-81.54,387
"CANOPEX","'02FE013'","'MIDDLE MAITLAND RIVER ABOVE ETHEL'","ON","Canada",43.72,-81.12,413
"CANOPEX","'02GA038'","'NITH RIVER ABOVE NITHBURG'","ON","Canada",43.48,-80.83,324
"CANOPEX","'02FF007'","'BAYFIELD RIVER NEAR VARNA'","ON","Canada",43.55,-81.59,562
"CANOPEX","'02GB007'","'FAIRCHILD CREEK NEAR BRANTFORD'","ON","Canada",43.15,-80.15,380
"CANOPEX","'02GD004'","'MIDDLE THAMES RIVER AT THAMESFORD'","ON","Canada",43.06,-80.99,292
"CANOPEX","'02GD006'","'THAMES RIVER NEAR INGERSOLL'","ON","Canada",43.02,-80.93,563
"CANOPEX","'02GC010'","'BIG OTTER CREEK AT TILLSONBURG'","ON","Canada",42.86,-80.72,378
"CANOPEX","'02GC002'","'KETTLE CREEK AT ST. THOMAS'","ON","Canada",42.78,-81.21,313
"HCDN-2009","0001013500","Fish River near Fort Kent, Maine","ME","USA",47.237394,-68.582642,2252.7
"HCDN-2009","0001022500","Narraguagus River at Cherryfield, Maine","ME","USA",44.607972,-67.935242,573.6
"HCDN-2009","0001030500","Mattawamkeag River near Mattawamkeag, Maine","ME","USA",45.500975,-68.305956,3676.2
"HCDN-2009","0001052500","Diamond River near Wentworth Location, NH","NH","USA",44.877394,-71.057494,383.8
"HCDN-2009","0001054200","Wild River at Gilead, Maine","ME","USA",44.390444,-70.979644,181
"HCDN-2009","0001055000","Swift River near Roxbury, Maine","ME","USA",44.642747,-70.588783,250.6
"HCDN-2009","0001057000","Little Androscoggin River near South Paris, Maine","ME","USA",44.303992,-70.539681,190.9
"HCDN-2009","0001073000","OYSTER RIVER NEAR DURHAM, NH","NH","USA",43.148696,-70.96506,31.3
"HCDN-2009","0001078000","SMITH RIVER NEAR BRISTOL, NH","NH","USA",43.566463,-71.747857,222.5
"HCDN-2009","0001117468","BEAVER RIVER NEAR USQUEPAUG, RI","RI","USA",41.4926,-71.628119,25.3
"HCDN-2009","0001118300","PENDLETON HILL BROOK NEAR CLARKS FALLS, CT.","CT","USA",41.474821,-71.834237,10.4
"HCDN-2009","0001121000","MOUNT HOPE RIVER NEAR WARRENVILLE, CT.","CT","USA",41.843709,-72.168966,70.3
"HCDN-2009","0001123000","LITTLE RIVER NEAR HANOVER, CT.","CT","USA",41.671765,-72.052298,77.9
"HCDN-2009","0001134500","MOOSE RIVER AT VICTORY, VT","VT","USA",44.511723,-71.837314,195.1
"HCDN-2009","0001137500","AMMONOOSUC RIVER AT BETHLEHEM JUNCTION, NH","NH","USA",44.268674,-71.630362,228.6
"HCDN-2009","0001139000","WELLS RIVER AT WELLS RIVER, VT","VT","USA",44.150341,-72.065092,246.3
"HCDN-2009","0001139800","EAST ORANGE BRANCH AT EAST ORANGE, VT","VT","USA",44.092842,-72.335653,22.8
"HCDN-2009","0001142500","AYERS BROOK AT RANDOLPH, VT","VT","USA",43.93451,-72.657882,82.2
"HCDN-2009","0001144000","WHITE RIVER AT WEST HARTFORD, VT","VT","USA",43.714236,-72.418149,1790.2
"HCDN-2009","0001150900","OTTAUQUECHEE RIVER NEAR WEST BRIDGEWATER, VT","VT","USA",43.622291,-72.75899,61.2
"HCDN-2009","0001162500","PRIEST BROOK NEAR WINCHENDON, MA","MA","USA",42.682586,-72.115081,49.7
"HCDN-2009","0001169000","NORTH RIVER AT SHATTUCKVILLE, MA","MA","USA",42.638418,-72.725092,230.6
"HCDN-2009","0001170100","GREEN RIVER NEAR COLRAIN, MA","MA","USA",42.703417,-72.670648,107
"HCDN-2009","0001181000","WEST BRANCH WESTFIELD RIVER AT HUNTINGTON, MA","MA","USA",42.237312,-72.895654,243.5
"HCDN-2009","0001187300","HUBBARD RIVER NR. WEST HARTLAND, CT.","MA","USA",42.037316,-72.938991,53.9
"HCDN-2009","0001333000","GREEN RIVER AT WILLIAMSTOWN, MA","MA","USA",42.708969,-73.196773,112.2
"HCDN-2009","0001350080","MANOR KILL AT WEST CONESVILLE NEAR GILBOA NY","NY","USA",42.377026,-74.412924,83.8
"HCDN-2009","0001350140","MINE KILL NEAR NORTH BLENHEIM NY","NY","USA",42.428968,-74.472925,43.8
"HCDN-2009","0001362200","ESOPUS CREEK AT ALLABEN NY","NY","USA",42.117034,-74.380149,169.2
"HCDN-2009","0001365000","RONDOUT CREEK NEAR LOWES CORNERS NY","NY","USA",41.866482,-74.4871,99.6
"HCDN-2009","0001411300","TUCKAHOE RIVER AT HEAD OF RIVER NJ","NJ","USA",39.306944,-74.820556,79.3
"HCDN-2009","0001413500","EAST BR DELAWARE R AT MARGARETVILLE NY","NY","USA",42.14481,-74.653489,424.1
"HCDN-2009","0001414500","MILL BROOK NEAR DUNRAVEN NY","NY","USA",42.106199,-74.730435,64.5
"HCDN-2009","0001415000","TREMPER KILL NEAR ANDES NY","NY","USA",42.120087,-74.818493,85.6
"HCDN-2009","0001434025","BISCUIT BK ABOVE PIGEON BK AT FROST VALLEY NY","NY","USA",41.99537,-74.500987,9.7
"HCDN-2009","0001435000","NEVERSINK RIVER NEAR CLARYVILLE NY","NY","USA",41.890092,-74.589879,172.5
"HCDN-2009","0001439500","Bush Kill at Shoemakers, PA","PA","USA",41.088151,-75.037675,305.9
"HCDN-2009","0001440000","FLAT BROOK NEAR FLATBROOKVILLE NJ","NJ","USA",41.106667,-74.952222,167.7
"HCDN-2009","0001440400","Brodhead Creek near Analomink, PA","PA","USA",41.084815,-75.214625,175.2
"HCDN-2009","0001451800","Jordan Creek near Schnecksville, PA","PA","USA",40.661762,-75.626854,135.8
"HCDN-2009","0001466500","MCDONALDS BRANCH IN LEBANON STATE FOREST NJ","NJ","USA",39.885,-74.505278,5.4
"HCDN-2009","0001484100","BEAVERDAM BRANCH AT HOUSTON, DE","DE","USA",38.905778,-75.51275,9
"HCDN-2009","0001485500","NASSAWANGO CREEK NEAR SNOW HILL, MD","MD","USA",38.228917,-75.471444,141.5
"HCDN-2009","0001486000","MANOKIN BRANCH NEAR PRINCESS ANNE, MD","MD","USA",38.213889,-75.671389,11.2
"HCDN-2009","0001487000","NANTICOKE RIVER NEAR BRIDGEVILLE, DE","DE","USA",38.728333,-75.561861,187.4
"HCDN-2009","0001491000","CHOPTANK RIVER NEAR GREENSBORO, MD","MD","USA",38.997194,-75.785806,292
"HCDN-2009","0001510000","OTSELIC RIVER AT CINCINNATUS NY","NY","USA",42.541181,-75.899643,383
"HCDN-2009","0001516500","Corey Creek near Mainesburg, PA","PA","USA",41.790907,-77.014688,31.5
"HCDN-2009","0001518862","Cowanesque River at Westfield, PA","PA","USA",41.923126,-77.53193,233.9
"HCDN-2009","0001532000","Towanda Creek near Monroeton, PA","PA","USA",41.70702,-76.484665,553.9
"HCDN-2009","0001539000","Fishing Creek near Bloomsburg, PA","PA","USA",41.078141,-76.431056,701.8
"HCDN-2009","0001542810","Waldy Run near Emporium, PA","PA","USA",41.578952,-78.292512,13.6
"HCDN-2009","0001543000","Driftwood Br Sinnemahoning Cr at Sterling Run, PA","PA","USA",41.413396,-78.196952,705.5
"HCDN-2009","0001543500","Sinnemahoning Creek at Sinnemahoning, PA","PA","USA",41.317285,-78.10306,1778.3
"HCDN-2009","0001544500","Kettle Creek at Cross Fork, PA","PA","USA",41.475899,-77.825825,355.1
"HCDN-2009","0001545600","Young Womans Creek near Renovo, PA","PA","USA",41.389512,-77.690819,120
"HCDN-2009","0001547700","Marsh Creek at Blanchard, PA","PA","USA",41.059509,-77.605826,113.5
"HCDN-2009","0001548500","Pine Creek at Cedar Run, PA","PA","USA",41.521736,-77.44748,1557
"HCDN-2009","0001549500","Blockhouse Creek near English Center, PA","PA","USA",41.473683,-77.230809,97.5
"HCDN-2009","0001550000","Lycoming Creek near Trout Run, PA","PA","USA",41.41841,-77.032746,452.7
"HCDN-2009","0001552000","Loyalsock Creek at Loyalsockville, PA","PA","USA",41.325078,-76.912464,1129.5
"HCDN-2009","0001552500","Muncy Creek near Sonestown, PA","PA","USA",41.357024,-76.534671,60.6
"HCDN-2009","0001557500","Bald Eagle Creek at Tyrone, PA","PA","USA",40.683673,-78.233624,115.3
"HCDN-2009","0001564500","Aughwick Creek near Three Springs, PA","PA","USA",40.212581,-77.925276,445.6
"HCDN-2009","0001567500","Bixler Run near Loysville, PA","PA","USA",40.370916,-77.402209,38.8
"HCDN-2009","0001568000","Sherman Creek at Shermans Dale, PA","PA","USA",40.323419,-77.16887,534.4
"HCDN-2009","0001580000","DEER CREEK AT ROCKS, MD","MD","USA",39.629972,-76.403306,244.4
"HCDN-2009","0001583500","WESTERN RUN AT WESTERN RUN, MD","MD","USA",39.510778,-76.6765,155.8
"HCDN-2009","0001586610","MORGAN RUN NEAR LOUISVILLE, MD","MD","USA",39.451889,-76.955306,72.7
"HCDN-2009","0001591400","CATTAIL CREEK NEAR GLENWOOD, MD","MD","USA",39.255972,-77.051056,59.1
"HCDN-2009","0001594950","MCMILLAN F NEAR FORT PENDLETON, MD","MD","USA",39.27669,-79.39031,6.1
"HCDN-2009","0001596500","SAVAGE RIVER NEAR BARTON, MD","MD","USA",39.570056,-79.101944,124.7
"HCDN-2009","0001605500","SOUTH BRANCH POTOMAC RIVER AT FRANKLIN, WV","WV","USA",38.635672,-79.33782,463.8
"HCDN-2009","0001606500","SO. BRANCH POTOMAC RIVER NR PETERSBURG, WV","WV","USA",38.991221,-79.175871,1684.5
"HCDN-2009","0001613050","Tonoloway Creek near Needmore, PA","PA","USA",39.898421,-78.132229,27.9
"HCDN-2009","0001620500","NORTH RIVER NEAR STOKESVILLE, VA","VA","USA",38.337626,-79.240036,44.7
"HCDN-2009","0001632000","N F SHENANDOAH RIVER AT COOTES STORE, VA","VA","USA",38.637063,-78.852803,543.4
"HCDN-2009","0001632900","SMITH CREEK NEAR NEW MARKET, VA","VA","USA",38.69345,-78.642794,245
"HCDN-2009","0001634500","CEDAR CREEK NEAR WINCHESTER, VA","VA","USA",39.081218,-78.329449,264
"HCDN-2009","0001638480","CATOCTIN CREEK AT TAYLORSTOWN, VA","VA","USA",39.254547,-77.576378,232
"HCDN-2009","0001639500","BIG PIPE CREEK AT BRUCEVILLE, MD","MD","USA",39.612361,-77.237444,267.2
"HCDN-2009","0001644000","GOOSE CREEK NEAR LEESBURG, VA","VA","USA",39.019553,-77.577492,859.2
"HCDN-2009","0001658500","S F QUANTICO CREEK NEAR INDEPENDENT HILL, VA","VA","USA",38.587343,-77.428596,19.3
"HCDN-2009","0001664000","RAPPAHANNOCK RIVER AT REMINGTON, VA","VA","USA",38.53068,-77.813605,1605.1
"HCDN-2009","0001666500","ROBINSON RIVER NEAR LOCUST DALE, VA","VA","USA",38.32513,-78.095556,463.1
"HCDN-2009","0001667500","RAPIDAN RIVER NEAR CULPEPER, VA","VA","USA",38.350408,-77.974997,1209.7
"HCDN-2009","0001669000","PISCATAWAY CREEK NEAR TAPPAHANNOCK, VA","VA","USA",37.877082,-76.900521,71.8
"HCDN-2009","0001669520","DRAGON SWAMP AT MASCOT, VA","VA","USA",37.633753,-76.696347,277.4
"HCDN-2009","0002011400","JACKSON RIVER NEAR BACOVA, VA","VA","USA",38.042347,-79.881444,407.7
"HCDN-2009","0002011460","BACK CREEK NEAR SUNRISE, VA","VA","USA",38.245401,-79.768663,156.3
"HCDN-2009","0002013000","DUNLAP CREEK NEAR COVINGTON, VA","VA","USA",37.802902,-80.047004,424.8
"HCDN-2009","0002014000","POTTS CREEK NEAR COVINGTON, VA","VA","USA",37.729014,-80.04228,396.8
"HCDN-2009","0002015700","BULLPASTURE RIVER AT WILLIAMSVILLE, VA","VA","USA",38.195403,-79.570323,285.4
"HCDN-2009","0002016000","COWPASTURE RIVER NEAR CLIFTON FORGE, VA","VA","USA",37.791796,-79.759492,1194.6
"HCDN-2009","0002017500","JOHNS CREEK AT NEW CASTLE, VA","VA","USA",37.50624,-80.106715,276.1
"HCDN-2009","0002018000","CRAIG CREEK AT PARR, VA","VA","USA",37.665962,-79.911439,852.3
"HCDN-2009","0002027000","TYE RIVER NEAR LOVINGSTON, VA","VA","USA",37.715419,-78.981691,240.8
"HCDN-2009","0002027500","PINEY RIVER AT PINEY RIVER, VA","VA","USA",37.702363,-79.027525,123.3
"HCDN-2009","0002028500","ROCKFISH RIVER NEAR GREENFIELD, VA","VA","USA",37.869585,-78.823354,245.5
"HCDN-2009","0002038850","HOLIDAY CREEK NEAR ANDERSONVILLE, VA","VA","USA",37.415424,-78.635839,22
"HCDN-2009","0002046000","STONY CREEK NEAR DINWIDDIE, VA","VA","USA",37.067094,-77.602489,288.5
"HCDN-2009","0002051000","NORTH MEHERRIN RIVER NEAR LUNENBURG, VA","VA","USA",36.997374,-78.349718,144.8
"HCDN-2009","0002051500","MEHERRIN RIVER NEAR LAWRENCEVILLE, VA","VA","USA",36.716814,-77.831658,1428.7
"HCDN-2009","0002053200","POTECASI CREEK NEAR UNION, NC","NC","USA",36.370833,-77.025556,583.7
"HCDN-2009","0002053800","S F ROANOKE RIVER NEAR SHAWSVILLE, VA","VA","USA",37.140132,-80.266433,280.7
"HCDN-2009","0002055100","TINKER CREEK NEAR DALEVILLE, VA","VA","USA",37.417633,-79.935319,30.5
"HCDN-2009","0002056900","BLACKWATER RIVER NEAR ROCKY MOUNT, VA","VA","USA",37.045141,-79.844199,298.1
"HCDN-2009","0002059500","GOOSE CREEK NEAR HUDDLESTON, VA","VA","USA",37.1732,-79.520308,485.4
"HCDN-2009","0002064000","FALLING RIVER NEAR NARUNA, VA","VA","USA",37.12681,-78.959737,427.8
"HCDN-2009","0002065500","CUB CREEK AT PHENIX, VA","VA","USA",37.079311,-78.763618,252.6
"HCDN-2009","0002069700","SOUTH MAYO RIVER NEAR NETTLERIDGE, VA","VA","USA",36.570971,-80.129493,221.1
"HCDN-2009","0002070000","NORTH MAYO RIVER NEAR SPENCER, VA","VA","USA",36.568194,-79.987265,270.6
"HCDN-2009","0002074500","SANDY RIVER NEAR DANVILLE, VA","VA","USA",36.619583,-79.504193,288.5
"HCDN-2009","0002077200","HYCO CREEK NEAR LEASBURG, NC","NC","USA",36.397778,-79.196667,121.7
"HCDN-2009","0208111310","CASHIE RIVER AT SR1257 NEAR WINDSOR, NC","NC","USA",36.047778,-76.984167,288.5
"HCDN-2009","0002081500","TAR RIVER NEAR TAR RIVER, NC","NC","USA",36.194167,-78.583056,428.4
"HCDN-2009","0002082950","LITTLE FISHING CREEK NEAR WHITE OAK, NC","NC","USA",36.183333,-77.876111,460.9
"HCDN-2009","0002084557","VAN SWAMP NEAR HOKE, NC","NC","USA",35.730833,-76.746111,56.1
"HCDN-2009","0002092500","TRENT RIVER NEAR TRENTON, NC","NC","USA",35.064167,-77.461389,447.6
"HCDN-2009","0002096846","CANE CREEK NEAR ORANGE GROVE, NC","NC","USA",35.987222,-79.206111,19.6
"HCDN-2009","0002102908","FLAT CREEK NEAR INVERNESS, NC","NC","USA",35.182778,-79.1775,19.7
"HCDN-2009","0002108000","NORTHEAST CAPE FEAR RIVER NEAR CHINQUAPIN, NC","NC","USA",34.828889,-77.832222,1569.5
"HCDN-2009","0002110500","WACCAMAW RIVER NEAR LONGS, SC","SC","USA",33.912672,-78.715017,2908.3
"HCDN-2009","0002111180","ELK CREEK AT ELKVILLE, NC","NC","USA",36.071389,-81.403056,131.5
"HCDN-2009","0002111500","REDDIES RIVER AT NORTH WILKESBORO, NC","NC","USA",36.175,-81.168889,233.7
"HCDN-2009","0002112120","ROARING RIVER NEAR ROARING RIVER, NC","NC","USA",36.250278,-81.044444,322.3
"HCDN-2009","0002112360","MITCHELL RIVER NEAR STATE ROAD, NC","NC","USA",36.311389,-80.807222,205.3
"HCDN-2009","0002118500","HUNTING CREEK NEAR HARMONY, NC","NC","USA",36.000556,-80.745556,400.5
"HCDN-2009","0002125000","BIG BEAR CR NR RICHFIELD, NC","NC","USA",35.334722,-80.335556,144.5
"HCDN-2009","0002128000","LITTLE RIVER NEAR STAR, NC","NC","USA",35.387222,-79.831389,273.5
"HCDN-2009","0002137727","CATAWBA R NR PLEASANT GARDENS, NC","NC","USA",35.685833,-82.060278,329.5
"HCDN-2009","0002140991","JOHNS RIVER AT ARNEYS STORE, NC","NC","USA",35.833611,-81.711944,522
"HCDN-2009","0002143000","HENRY FORK NEAR HENRY RIVER, NC","NC","USA",35.684444,-81.403333,216.7
"HCDN-2009","0002143040","JACOB FORK AT RAMSEY, NC","NC","USA",35.590686,-81.567037,66.5
"HCDN-2009","0002149000","COVE CREEK NEAR LAKE LURE, NC","NC","USA",35.423454,-82.111498,203.9
"HCDN-2009","0002152100","FIRST BROAD RIVER NEAR CASAR, NC","NC","USA",35.493056,-81.682222,155
"HCDN-2009","0002177000","CHATTOOGA RIVER NEAR CLAYTON, GA","GA","USA",34.813981,-83.305993,526.8
"HCDN-2009","0002178400","TALLULAH RIVER NEAR CLAYTON, GA","GA","USA",34.890371,-83.530441,151.3
"HCDN-2009","0002193340","KETTLE CREEK NEAR WASHINGTON, GA","GA","USA",33.682628,-82.857923,87.9
"HCDN-2009","0002196000","STEVENS CREEK NEAR MODOC, SC","SC","USA",33.729297,-82.181787,1408.4
"HCDN-2009","0002198100","BEAVERDAM CREEK NEAR SARDIS, GA","GA","USA",32.937658,-81.815392,79.5
"HCDN-2009","0002202600","BLACK CREEK NEAR BLITCHTON, GA","GA","USA",32.16798,-81.488167,590.5
"HCDN-2009","0002212600","FALLING CREEK NEAR JULIETTE, GA","GA","USA",33.099854,-83.72351,188
"HCDN-2009","0002215100","TUCSAWHATCHEE CREEK NEAR HAWKINSVILLE, GA","GA","USA",32.239444,-83.501667,420.3
"HCDN-2009","0002216180","TURNPIKE CREEK NEAR MCRAE, GA","GA","USA",31.991389,-82.921944,129.1
"HCDN-2009","0002221525","MURDER CREEK BELOW EATONTON, GA","GA","USA",33.252355,-83.481276,490.8
"HCDN-2009","0002231000","ST. MARYS RIVER NR MACCLENNY, FLA.","FL","USA",30.358847,-82.081501,1748.4
"HCDN-2009","0002231342","FT DRUM CREEK AT SUNSHINE ST PKY NEAR FT DRUM, FL","FL","USA",27.568647,-80.796171,111.6
"HCDN-2009","0002235200","BLACKWATER CREEK NEAR CASSIA, FL","FL","USA",28.874531,-81.489383,297.7
"HCDN-2009","0002236500","BIG CREEK NEAR CLERMONT, FL","FL","USA",28.447782,-81.740076,146.9
"HCDN-2009","0002245500","SOUTH FORK BLACK CREEK NR PENNEY FARMS, FLA.","FL","USA",29.979408,-81.852043,348.4
"HCDN-2009","0002246000","NORTH FORK BLACK CREEK NR MIDDLEBURG, FLA.","FL","USA",30.113295,-81.906492,451.1
"HCDN-2009","0002296500","CHARLIE CREEK NEAR GARDNER FL","FL","USA",27.375043,-81.796471,886.4
"HCDN-2009","0002297155","HORSE CREEK NEAR MYAKKA HEAD FL","FL","USA",27.487261,-82.02342,93.6
"HCDN-2009","0002297310","HORSE CREEK NEAR ARCADIA FL","FL","USA",27.199495,-81.988419,528.4
"HCDN-2009","0002298123","PRAIRIE CREEK NEAR FORT OGDEN FL","FL","USA",27.052,-81.784527,540.7
"HCDN-2009","0002298608","MYAKKA RIVER AT MYAKKA CITY FL","FL","USA",27.343656,-82.156756,312.3
"HCDN-2009","0002299950","MANATEE RIVER NEAR MYAKKA HEAD FL","FL","USA",27.473651,-82.211201,174.3
"HCDN-2009","0002300700","BULLFROG CREEK NEAR WIMAUMA FL","FL","USA",27.791972,-82.352037,73.8
"HCDN-2009","0002310947","WITHLACOOCHEE RIVER NEAR CUMPRESSCO, FLA.","FL","USA",28.311952,-82.055915,649.6
"HCDN-2009","0002312200","LITTLE WITHLACOOCHEE RIVER AT RERDELL, FLA.","FL","USA",28.572773,-82.155363,413.5
"HCDN-2009","0002314500","SUWANNEE RIVER AT US 441, AT FARGO, GA","GA","USA",30.680556,-82.560556,3322.2
"HCDN-2009","0002324000","STEINHATCHEE RIVER NEAR CROSS CITY, FLA.","FL","USA",29.786613,-83.321526,791
"HCDN-2009","0002324400","FENHOLLOWAY RIVER NEAR FOLEY, FLA.","FL","USA",30.098271,-83.471811,176.3
"HCDN-2009","0002327100","SOPCHOPPY RIVER NR SOPCHOPPY, FLA.","FL","USA",30.129369,-84.494348,271.1
"HCDN-2009","0002342933","SOUTH FORK COWIKEE CREEK NEAR BATESVILLE AL","AL","USA",32.017657,-85.29577,290.1
"HCDN-2009","0002349900","TURKEY CREEK AT BYROMVILLE, GA","GA","USA",32.195556,-83.902222,122.9
"HCDN-2009","0002350900","KINCHAFOONEE CREEK NEAR DAWSON, GA","GA","USA",31.764444,-84.253333,1365.1
"HCDN-2009","0002361000","CHOCTAWHATCHEE RIVER NEAR NEWTON, AL.","AL","USA",31.342949,-85.610491,1781.6
"HCDN-2009","0002363000","PEA RIVER NEAR ARITON AL","AL","USA",31.594887,-85.782998,1292.5
"HCDN-2009","0002369800","BLACKWATER RIVER NEAR BRADLEY AL","AL","USA",31.02768,-86.709957,227.5
"HCDN-2009","0002371500","CONECUH RIVER AT BRANTLEY AL","AL","USA",31.573495,-86.251623,1292.8
"HCDN-2009","0002372250","PATSALIGA CREEK NEAR BRANTLEY AL","AL","USA",31.596272,-86.405518,1145.2
"HCDN-2009","0002374500","MURDER CREEK NEAR EVERGREEN AL","AL","USA",31.4185,-86.98664,445.7
"HCDN-2009","0002381600","FAUSETT CREEK NEAR TALKING ROCK, GA","GA","USA",34.570366,-84.468816,10.3
"HCDN-2009","0002384540","MILL CREEK NEAR CRANDALL, GA","GA","USA",34.872024,-84.721326,21.4
"HCDN-2009","0002395120","TWO RUN CREEK NEAR KINGSTON, GA","GA","USA",34.242778,-84.889722,84
"HCDN-2009","0002408540","HATCHET CREEK BELOW ROCKFORD AL","AL","USA",32.91679,-86.270251,682.4
"HCDN-2009","0002415000","HILLABEE CREEK NEAR HACKNEYVILLE AL","AL","USA",33.066787,-85.87913,491.4
"HCDN-2009","0002422500","MULBERRY CREEK AT JONES AL","AL","USA",32.58291,-86.903599,527.5
"HCDN-2009","0002427250","PINE BARREN CREEK NEAR SNOW HILL, AL.","AL","USA",31.996258,-87.068319,675.2
"HCDN-2009","0002430085","RED BUD CREEK NR MOORES MILL, MS","MS","USA",34.466667,-88.283611,40.6
"HCDN-2009","0002430615","MUD CREEK NR FAIRVIEW, MS","MS","USA",34.3925,-88.355,28.7
"HCDN-2009","0002450250","SIPSEY FORK NEAR GRAYSON AL","AL","USA",34.285378,-87.398908,231.8
"HCDN-2009","0002464000","NORTH RIVER NEAR SAMANTHA AL","AL","USA",33.479281,-87.59723,578.9
"HCDN-2009","0002464146","TURKEY CREEK NEAR TUSCALOOSA","AL","USA",33.413448,-87.51056,15.8
"HCDN-2009","0002464360","BINION CREEK BELOW GIN CREEK NEAR SAMANTHA AL","AL","USA",33.424837,-87.642509,148.6
"HCDN-2009","0002465493","ELLIOTTS CREEK AT MOUNDVILLE AL","AL","USA",32.997346,-87.62223,83.4
"HCDN-2009","0002469800","SATILPA CREEK NEAR COFFEEVILLE AL","AL","USA",31.744325,-88.022507,422.7
"HCDN-2009","0002472000","LEAF RIVER NR COLLINS, MS","MS","USA",31.706944,-89.406944,1927.1
"HCDN-2009","0002472500","BOUIE CREEK NR HATTIESBURG, MS","MS","USA",31.425833,-89.414722,789.9
"HCDN-2009","0002479155","CYPRESS CREEK NR JANICE, MS","MS","USA",31.025278,-89.016667,137.3
"HCDN-2009","0002479300","RED CREEK AT VESTRY, MS","MS","USA",30.736111,-88.781111,1144.2
"HCDN-2009","0002479560","ESCATAWPA RIVER NEAR AGRICOLA MS","MS","USA",30.809077,-88.458627,1454.3
"HCDN-2009","0002481000","BILOXI RIVER AT WORTHAM, MS","MS","USA",30.558611,-89.121944,249.2
"HCDN-2009","0002481510","WOLF RIVER NR LANDON, MS","MS","USA",30.483611,-89.274444,800.7
"HCDN-2009","0003010655","Oswayo Creek at Shinglehouse, PA","PA","USA",41.961732,-78.198066,254.4
"HCDN-2009","0003011800","Kinzua Creek near Guffey, PA","PA","USA",41.766451,-78.71864,100.1
"HCDN-2009","0003015500","Brokenstraw Creek at Youngsville, PA","PA","USA",41.852559,-79.317271,784.9
"HCDN-2009","0003021350","French Creek near Wattsburg, PA","PA","USA",42.015332,-79.782551,239.7
"HCDN-2009","0003026500","Sevenmile Run near Rasselas, PA","PA","USA",41.631173,-78.57669,20.3
"HCDN-2009","0003028000","West Branch Clarion River at Wilcox, PA","PA","USA",41.57534,-78.692249,161.1
"HCDN-2009","0003049000","Buffalo Creek near Freeport, PA","PA","USA",40.715898,-79.699494,357.2
"HCDN-2009","0003049800","Little Pine Creek near Etna, PA","PA","USA",40.520346,-79.938108,14.9
"HCDN-2009","0003050000","TYGART VALLEY RIVER NEAR DAILEY, WV","WV","USA",38.809275,-79.881734,487.3
"HCDN-2009","0003066000","BLACKWATER R AT DAVIS, WV","WV","USA",39.127052,-79.468385,222.8
"HCDN-2009","0003069500","CHEAT RIVER NEAR PARSONS, WV","WV","USA",39.122884,-79.681174,1856.9
"HCDN-2009","0003070500","BIG SANDY CREEK AT ROCKVILLE, WV","WV","USA",39.615638,-79.704774,517.4
"HCDN-2009","0003076600","BEAR CREEK AT FRIENDSVILLE, MD","MD","USA",39.656139,-79.394111,127.4
"HCDN-2009","0003078000","CASSELMAN RIVER AT GRANTSVILLE, MD","MD","USA",39.702194,-79.136389,161.5
"HCDN-2009","0003140000","Mill Creek near Coshocton OH","OH","USA",40.362846,-81.862356,70.3
"HCDN-2009","0003144000","Wakatomika Creek near Frazeysburg OH","OH","USA",40.132568,-82.14792,363.4
"HCDN-2009","0003159540","Shade River near Chester OH","OH","USA",39.063689,-81.881802,400.9
"HCDN-2009","0003161000","SOUTH FORK NEW RIVER NEAR JEFFERSON, NC","NC","USA",36.393333,-81.406944,527.9
"HCDN-2009","0003164000","NEW RIVER NEAR GALAX, VA","VA","USA",36.64735,-80.978969,2952.7
"HCDN-2009","0003165000","CHESTNUT CREEK AT GALAX, VA","VA","USA",36.645961,-80.919244,102
"HCDN-2009","0003170000","LITTLE RIVER AT GRAYSONTOWN, VA","VA","USA",37.037626,-80.556724,794.6
"HCDN-2009","0003173000","WALKER CREEK AT BANE, VA","VA","USA",37.268178,-80.709512,773.3
"HCDN-2009","0003180500","GREENBRIER RIVER AT DURBIN, WV","WV","USA",38.543727,-79.833115,345.1
"HCDN-2009","0003182500","GREENBRIER RIVER AT BUCKEYE, WV","WV","USA",38.185953,-80.130623,1365
"HCDN-2009","0003186500","WILLIAMS RIVER AT DYER, WV","WV","USA",38.378999,-80.483974,329.7
"HCDN-2009","0003187500","CRANBERRY RIVER NEAR RICHWOOD, WV","WV","USA",38.29539,-80.526475,207.4
"HCDN-2009","0003213700","TUG FORK AT WILLIAMSON, WV","KY","USA",37.673157,-82.280141,2425.1
"HCDN-2009","0003237280","Upper Twin Creek at McGaw OH","OH","USA",38.643687,-83.215736,33
"HCDN-2009","0003237500","Ohio Brush Creek near West Union OH","OH","USA",38.803684,-83.421023,1003.2
"HCDN-2009","0003238500","White Oak Creek near Georgetown OH","OH","USA",38.858125,-83.928539,568.5
"HCDN-2009","0003241500","Massies Creek at Wilberforce OH","OH","USA",39.722838,-83.882707,170.9
"HCDN-2009","0003280700","CUTSHIN CREEK AT WOOTON, KY","KY","USA",37.165093,-83.307956,158.2
"HCDN-2009","0003281100","GOOSE CREEK AT MANCHESTER, KY","KY","USA",37.152034,-83.760197,422.7
"HCDN-2009","0003281500","SOUTH FORK KENTUCKY RIVER AT BOONEVILLE, KY","KY","USA",37.47981,-83.675192,1838.2
"HCDN-2009","0003285000","DIX RIVER NEAR DANVILLE, KY","KY","USA",37.642023,-84.660777,822.3
"HCDN-2009","0003291780","INDIAN-KENTUCK CREEK NR CANAAN, IND.","IN","USA",38.878114,-85.257179,71.4
"HCDN-2009","0003300400","BEECH FORK AT MAUD, KY","KY","USA",37.83284,-85.296069,1128.6
"HCDN-2009","0003338780","NORTH FORK VERMILION RIVER NEAR BISMARCK, IL","IL","USA",40.265314,-87.642799,691.6
"HCDN-2009","0003340800","BIG RACCOON CREEK NEAR FINCASTLE IND","IN","USA",39.812545,-86.953899,357.7
"HCDN-2009","0003346000","NORTH FORK EMBARRAS RIVER NEAR OBLONG, IL","IL","USA",39.010042,-87.945588,814.7
"HCDN-2009","0003357350","PLUM CREEK NEAR BAINBRIDGE, IND.","IN","USA",39.761713,-86.72945,7.8
"HCDN-2009","0003364500","CLIFTY CREEK AT HARTSVILLE, IN","IN","USA",39.274773,-85.701647,237.1
"HCDN-2009","0003366500","MUSCATATUCK RIVER NEAR DEPUTY, IN","IN","USA",38.804223,-85.673855,755.2
"HCDN-2009","0003368000","BRUSH CREEK NEAR NEBRASKA, IN","IN","USA",39.070331,-85.486077,29.7
"HCDN-2009","0003384450","LUSK CREEK NEAR EDDYVILLE, IL","IL","USA",37.472273,-88.547269,111.1
"HCDN-2009","0003439000","FRENCH BROAD RIVER AT ROSMAN, NC","NC","USA",35.143333,-82.824722,178.7
"HCDN-2009","0344894205","NORTH FORK SWANNANOA RIVER NEAR WALKERTOWN, NC","NC","USA",35.683333,-82.333056,38.6
"HCDN-2009","0003450000","BEETREE CREEK NEAR SWANNANOA, NC","NC","USA",35.653056,-82.405278,14.1
"HCDN-2009","0003455500","W F PIGEON R ABOVE LAKE LOGAN NR HAZELWOOD, NC","NC","USA",35.396111,-82.9375,73
"HCDN-2009","0003456500","EAST FORK PIGEON RIVER NEAR CANTON, NC","NC","USA",35.461667,-82.869722,133.4
"HCDN-2009","0003460000","CATALOOCHEE CREEK NEAR CATALOOCHEE, NC","NC","USA",35.6675,-83.073611,127
"HCDN-2009","0003463300","SOUTH TOE RIVER NEAR CELO, NC","NC","USA",35.831507,-82.184287,112.2
"HCDN-2009","0003471500","S F HOLSTON RIVER AT RIVERSIDE NR CHILHOWIE, VA","VA","USA",36.760393,-81.631229,198.2
"HCDN-2009","0003473000","S F HOLSTON RIVER NEAR DAMASCUS, VA","VA","USA",36.651781,-81.84401,784.8
"HCDN-2009","0003479000","WATAUGA RIVER NEAR SUGAR GROVE, NC","NC","USA",36.239167,-81.822222,235.6
"HCDN-2009","0003488000","N F HOLSTON RIVER NEAR SALTVILLE, VA","VA","USA",36.896781,-81.746229,578.2
"HCDN-2009","0003498500","LITTLE RIVER NEAR MARYVILLE, TN","TN","USA",35.785621,-83.884604,696.8
"HCDN-2009","0003500000","LITTLE TENNESSEE RIVER NEAR PRENTISS, NC","NC","USA",35.15,-83.379722,361.1
"HCDN-2009","0003500240","CARTOOGECHAYE CREEK NEAR FRANKLIN, NC","NC","USA",35.158889,-83.394167,145.9
"HCDN-2009","0003504000","NANTAHALA RIVER NEAR RAINBOW SPRINGS, NC","NC","USA",35.1275,-83.618611,134.5
"HCDN-2009","0003574500","PAINT ROCK RIVER NEAR WOODVILLE AL","AL","USA",34.624255,-86.306374,813.8
"HCDN-2009","0003592718","LITTLE YELLOW CREEK EAST NR BURNSVILLE, MS","MS","USA",34.835556,-88.288056,67
"HCDN-2009","0003597590","WARTRACE CREEK BELOW COUNTY ROAD AT WARTRACE, TN","TN","USA",35.527295,-86.340271,92.9
"HCDN-2009","0003604000","BUFFALO RIVER NEAR FLAT WOODS, TN","TN","USA",35.495906,-87.832804,1163
"HCDN-2009","0004015330","KNIFE RIVER NEAR TWO HARBORS, MN","MN","USA",46.94688,-91.792401,224.4
"HCDN-2009","0004024430","NEMADJI RIVER NEAR SOUTH SUPERIOR, WI","WI","USA",46.633274,-92.09408,1091.3
"HCDN-2009","0004027000","BAD RIVER NEAR ODANAH, WI","WI","USA",46.486614,-90.696297,1619.8
"HCDN-2009","0004040500","STURGEON RIVER NEAR SIDNAW, MI","MI","USA",46.584106,-88.57597,419.8
"HCDN-2009","0004043050","TRAP ROCK RIVER NEAR LAKE LINDEN, MI","MI","USA",47.228536,-88.385393,76.6
"HCDN-2009","0004045500","TAHQUAMENON RIVER NEAR PARADISE, MI","MI","USA",46.575015,-85.269555,1909.6
"HCDN-2009","0004056500","MANISTIQUE RIVER NEAR MANISTIQUE, MI","MI","USA",46.030529,-86.161249,2945.9
"HCDN-2009","0004057510","STURGEON RIVER NEAR NAHMA JUNCTION, MI","MI","USA",45.943024,-86.7057,473.6
"HCDN-2009","0004057800","MIDDLE BRANCH ESCANABA RIVER AT HUMBOLDT, MI","MI","USA",46.499103,-87.886524,115.9
"HCDN-2009","0004059500","FORD RIVER NEAR HYDE, MI","MI","USA",45.755523,-87.201524,1184.4
"HCDN-2009","0004063700","POPPLE RIVER NEAR FENCE, WI","WI","USA",45.76357,-88.463179,362.6
"HCDN-2009","0004074950","WOLF RIVER AT LANGLADE, WI","WI","USA",45.18997,-88.73344,1205.5
"HCDN-2009","0004105700","AUGUSTA CREEK NEAR AUGUSTA, MI","MI","USA",42.353373,-85.353889,98
"HCDN-2009","0004115265","FISH CREEK NEAR CRYSTAL, MI","MI","USA",43.249755,-84.981125,95.8
"HCDN-2009","0004122200","WHITE RIVER NEAR WHITEHALL, MI","MI","USA",43.464179,-86.232567,1048.3
"HCDN-2009","0004122500","PERE MARQUETTE RIVER AT SCOTTVILLE, MI","MI","USA",43.945006,-86.27869,1769.2
"HCDN-2009","0004124000","MANISTEE RIVER NEAR SHERMAN, MI","MI","USA",44.436392,-85.698679,2243.6
"HCDN-2009","0004127918","PINE RIVER NEAR RUDYARD, MI","MI","USA",46.185851,-84.597826,548.3
"HCDN-2009","0004127997","STURGEON RIVER AT WOLVERINE, MI","MI","USA",45.274457,-84.600031,487.2
"HCDN-2009","0004161580","STONY CREEK NEAR ROMEO, MI","MI","USA",42.800864,-83.090212,64.3
"HCDN-2009","0004185000","Tiffin River at Stryker OH","OH","USA",41.504496,-84.429672,1064
"HCDN-2009","0004196800","Tymochtee Creek at Crawford OH","OH","USA",40.922833,-83.348812,608.1
"HCDN-2009","0004197100","Honey Creek at Melmore OH","OH","USA",41.022278,-83.109638,388.2
"HCDN-2009","0004197170","Rock Creek at Tiffin OH","OH","USA",41.113666,-83.168252,95.2
"HCDN-2009","0004213000","Conneaut Creek at Conneaut OH","OH","USA",41.926999,-80.603966,455.3
"HCDN-2009","0004213075","Brandy Run near Girard, PA","PA","USA",41.992,-80.291174,11.7
"HCDN-2009","0004216418","TONAWANDA CREEK AT ATTICA NY","NY","USA",42.863949,-78.283628,196.5
"HCDN-2009","0004221000","GENESEE RIVER AT WELLSVILLE NY","NY","USA",42.12229,-77.957225,750.9
"HCDN-2009","0004224775","CANASERAGA CREEK ABOVE DANSVILLE NY","NY","USA",42.535623,-77.704161,231.8
"HCDN-2009","0004233000","CAYUGA INLET NEAR ITHACA NY","NY","USA",42.393129,-76.544943,91.9
"HCDN-2009","0004256000","INDEPENDENCE RIVER AT DONNATTSBURG NY","NY","USA",43.747291,-75.334347,232.4
"HCDN-2009","0004296000","BLACK RIVER AT COVENTRY, VT","VT","USA",44.868936,-72.270104,302.2
"HCDN-2009","0005056000","SHEYENNE RIVER NR WARWICK, ND","ND","USA",47.805553,-98.716217,4862
"HCDN-2009","0005057200","BALDHILL CREEK NR DAZEY, ND","ND","USA",47.229156,-98.124819,1897.3
"HCDN-2009","0005062500","WILD RICE RIVER AT TWIN VALLEY, MN","MN","USA",47.266629,-96.24478,2407
"HCDN-2009","0005087500","MIDDLE RIVER AT ARGYLE, MN","MN","USA",48.341089,-96.818117,600.8
"HCDN-2009","0005120500","WINTERING RIVER NR KARLSRUHE, ND","ND","USA",48.138337,-100.539862,1509.8
"HCDN-2009","0005123400","WILLOW CREEK NR WILLOW CITY, ND","ND","USA",48.588888,-100.442079,3206.1
"HCDN-2009","0005129115","VERMILION RIVER NR CRANE LAKE, MN","MN","USA",48.264628,-92.565994,2357.6
"HCDN-2009","0005131500","LITTLE FORK RIVER AT LITTLEFORK, MN","MN","USA",48.395776,-93.549327,4383.5
"HCDN-2009","0005291000","WHETSTONE RIVER NEAR BIG STONE CITY, SD","SD","USA",45.291632,-96.487557,1046.8
"HCDN-2009","0005362000","JUMP RIVER AT SHELDON, WI","WI","USA",45.308026,-90.956525,1477.3
"HCDN-2009","0005393500","SPIRIT RIVER AT SPIRIT FALLS, WI","WI","USA",45.449132,-89.979311,220.4
"HCDN-2009","0005399500","BIG EAU PLEINE RIVER AT STRATFORD, WI","WI","USA",44.82191,-90.079575,576.3
"HCDN-2009","0005408000","KICKAPOO RIVER AT LA FARGE, WI","WI","USA",43.57414,-90.643186,689.3
"HCDN-2009","0005412500","Turkey River at Garber, IA","IA","USA",42.739988,-91.261799,3858.2
"HCDN-2009","0005413500","GRANT RIVER AT BURTON, WI","WI","USA",42.720271,-90.819294,695.3
"HCDN-2009","0005414000","PLATTE RIVER NEAR ROCKVILLE, WI","WI","USA",42.731104,-90.640405,370.8
"HCDN-2009","0005444000","ELKHORN CREEK NEAR PENROSE, IL","IL","USA",41.902807,-89.696223,376.4
"HCDN-2009","0005454000","Rapid Creek near Iowa City, IA","IA","USA",41.700017,-91.487668,65.4
"HCDN-2009","0005458000","Little Cedar River near Ionia, IA","IA","USA",43.03328,-92.503544,776.8
"HCDN-2009","0005466500","EDWARDS RIVER NEAR NEW BOSTON, IL","IL","USA",41.186977,-90.967366,1151.6
"HCDN-2009","0005487980","White Breast Creek near Dallas, IA","IA","USA",41.246885,-93.26607,882.7
"HCDN-2009","0005488200","English Creek near Knoxville, IA","IA","USA",41.300553,-93.045481,234.2
"HCDN-2009","0005489000","Cedar Creek near Bussey, IA","IA","USA",41.219002,-92.908533,964.8
"HCDN-2009","0005495000","Fox River at Wayland, MO","MO","USA",40.392408,-91.597875,1027.6
"HCDN-2009","0005495500","BEAR CREEK NEAR MARCELLINE, IL","IL","USA",40.142824,-91.33737,905.6
"HCDN-2009","0005501000","North River at Palmyra, MO","MO","USA",39.817992,-91.5177,922.8
"HCDN-2009","0005503800","Crooked Creek near Paris, MO","MO","USA",39.584828,-91.993489,212.6
"HCDN-2009","0005507600","Lick Creek at Perry, MO","MO","USA",39.43143,-91.676271,275.4
"HCDN-2009","0005508805","Spencer Cr. bl Plum Cr. nr Frankford, MO","MO","USA",39.520464,-91.34275,536.4
"HCDN-2009","0005514500","CUIVRE RIVER NEAR TROY, MO","MO","USA",39.008803,-90.977536,2407.4
"HCDN-2009","0005525500","SUGAR CREEK AT MILFORD, IL","IL","USA",40.630036,-87.723918,1158.8
"HCDN-2009","0005556500","BIG BUREAU CREEK AT PRINCETON, IL","IL","USA",41.36587,-89.498427,505.1
"HCDN-2009","0005584500","LA MOINE RIVER AT COLMAR, IL","IL","USA",40.330322,-90.896245,1695.7
"HCDN-2009","0005585000","LA MOINE RIVER AT RIPLEY, IL","IL","USA",40.02477,-90.631795,3354.6
"HCDN-2009","0005591550","WHITLEY CREEK NEAR ALLENVILLE, IL","IL","USA",39.5067,-88.527555,96.2
"HCDN-2009","0005592050","ROBINSON CREEK NEAR SHELBYVILLE, IL","IL","USA",39.405873,-88.896463,254.1
"HCDN-2009","0005592575","HICKORY CREEK NEAR BROWNSTOWN, IL","IL","USA",38.93699,-88.952838,115.3
"HCDN-2009","0005593575","LITTLE CROOKED CREEK NEAR NEW MINDEN, IL","IL","USA",38.441716,-89.416751,217.7
"HCDN-2009","0005593900","EAST FORK SHOAL CREEK NEAR COFFEEN, IL","IL","USA",39.148935,-89.352305,145.4
"HCDN-2009","0005595730","RAYSE CREEK NEAR WALTONVILLE, IL","IL","USA",38.253939,-89.039793,236.8
"HCDN-2009","0006037500","Madison River near West Yellowstone MT","MT","USA",44.656872,-111.068274,1126.2
"HCDN-2009","0006043500","Gallatin River near Gallatin Gateway MT","MT","USA",45.497429,-111.270511,2120.4
"HCDN-2009","0006154410","Little Peoples Creek near Hays MT","MT","USA",47.966104,-108.66071,33.4
"HCDN-2009","0006188000","LAMAR RIVER NR TOWER FALLS RANGER STATION, YNP","WY","USA",44.927716,-110.39381,1730.3
"HCDN-2009","0006191000","Gardner River near Mammoth YNP","MT","USA",44.992436,-110.691321,513.9
"HCDN-2009","0006221400","DINWOODY CREEK ABOVE LAKES, NEAR BURRIS, WYO.","WY","USA",43.345511,-109.410143,227.9
"HCDN-2009","0006224000","BULL LAKE CREEK ABOVE BULL LAKE, WY","WY","USA",43.176901,-109.202911,484.9
"HCDN-2009","0006278300","SHELL CREEK ABOVE SHELL CREEK RESERVOIR, WY","WY","USA",44.50802,-107.403689,58.9
"HCDN-2009","0006289000","Little Bighorn River at State Line nr Wyola MT","MT","USA",45.00691,-107.615095,471.3
"HCDN-2009","0006291500","Lodge Grass Cr ab Willow C Div nr Wyola MT","MT","USA",45.126445,-107.600545,218
"HCDN-2009","0006309200","MIDDLE FORK POWDER RIVER NEAR BARNUM, WY","WY","USA",43.57774,-107.1384,117.5
"HCDN-2009","0006311000","NORTH FORK POWDER RIVER NEAR HAZELTON, WY","WY","USA",44.027742,-107.080895,61.2
"HCDN-2009","0006332515","BEAR DEN CREEK NR MANDAREE, ND","ND","USA",47.787237,-102.768526,191.5
"HCDN-2009","0006339100","KNIFE RIVER AT MANNING, ND","ND","USA",47.236126,-102.769907,529.1
"HCDN-2009","0006339500","KNIFE RIVER NR GOLDEN VALLEY, ND","ND","USA",47.154453,-102.059892,3171.5
"HCDN-2009","0006344600","GREEN RIVER NR NEW HRADEC, ND","ND","USA",47.027792,-103.053236,402.5
"HCDN-2009","0006350000","CANNONBALL RIVER AT REGENT, ND","ND","USA",46.426671,-102.55183,1501
"HCDN-2009","0006352000","CEDAR CREEK NR HAYNES, ND","ND","USA",46.15417,-102.474047,1441.8
"HCDN-2009","0006353000","CEDAR CREEK NR RALEIGH, ND","ND","USA",46.09167,-101.333742,4526.5
"HCDN-2009","0006404000","BATTLE CR NEAR KEYSTONE SD","SD","USA",43.872489,-103.336578,151.8
"HCDN-2009","0006406000","BATTLE CR AT HERMOSA SD","SD","USA",43.828046,-103.196021,436.3
"HCDN-2009","0006408700","RHOADS FORK NEAR ROCHFORD SD","SD","USA",44.136649,-103.858536,20.8
"HCDN-2009","0006409000","CASTLE CR ABOVE DEERFIELD RES NEAR HILL CITY SD","SD","USA",44.013592,-103.830478,205.3
"HCDN-2009","0006422500","BOXELDER CR NEAR NEMO SD","SD","USA",44.143876,-103.454911,243.9
"HCDN-2009","0006431500","SPEARFISH CR AT SPEARFISH SD","SD","USA",44.482484,-103.861592,427.1
"HCDN-2009","0006440200","SOUTH FORK BAD R NEAR COTTONWOOD,SD","SD","USA",43.968879,-101.76709,649.2
"HCDN-2009","0006447500","LITTLE WHITE R NEAR MARTIN SD","SD","USA",43.166666,-101.630149,826.6
"HCDN-2009","0006450500","LITTLE WHITE R BELOW WHITE RIVER SD","SD","USA",43.601385,-100.749861,4111.3
"HCDN-2009","0006453600","PONCA CREEK AT VERDEL, NEBR.","NE","USA",42.810994,-98.175858,2101.4
"HCDN-2009","0006464500","KEYA PAHA R AT WEWELA SD","SD","USA",43.028893,-99.780671,2914
"HCDN-2009","0006468170","JAMES RIVER NR GRACE CITY, ND","ND","USA",47.558053,-98.862885,2809.1
"HCDN-2009","0006468250","JAMES RIVER ABOVE ARROWWOOD LAKE NR KENSAL, ND","ND","USA",47.399719,-98.797606,3242.6
"HCDN-2009","0006470800","BEAR CREEK NR OAKES, ND","ND","USA",46.225244,-98.071768,1071.1
"HCDN-2009","0006477500","FIRESTEEL CR NEAR MOUNT VERNON SD","SD","USA",43.7764,-98.245672,1512.4
"HCDN-2009","0006479215","BIG SIOUX RIVER NR FLORENCE SD","SD","USA",45.180795,-97.18619,175.3
"HCDN-2009","0006479438","BIG SIOUX R NEAR WATERTOWN SD","SD","USA",45.006075,-97.165076,951.9
"HCDN-2009","0006601000","OMAHA CR AT HOMER, NEBR","NE","USA",42.321581,-96.487683,450.2
"HCDN-2009","0006614800","MICHIGAN RIVER NEAR CAMERON PASS, CO.","CO","USA",40.496094,-105.865012,4
"HCDN-2009","0006622700","NORTH BRUSH CREEK NEAR SARATOGA, WY","WY","USA",41.370245,-106.520581,98.7
"HCDN-2009","0006623800","ENCAMPMENT RIVER AB HOG PARK CR, NR ENCAMPMENT, WY","WY","USA",41.023579,-106.824766,187.7
"HCDN-2009","0006746095","JOE WRIGHT CREEK ABOVE JOE WRIGHT RESERVOIR, CO.","CO","USA",40.539982,-105.88279,8.9
"HCDN-2009","0006803510","LITTLE SALT CREEK NEAR LINCOLN, NEBR.","NE","USA",40.893114,-96.681553,113.3
"HCDN-2009","0006803530","ROCK CREEK NEAR CERESCO, NEBR.","NE","USA",41.015697,-96.544283,309.7
"HCDN-2009","0006814000","TURKEY C NR SENECA, KS","KS","USA",39.947777,-96.108615,713.8
"HCDN-2009","0006846500","BEAVER C AT CEDAR BLUFFS, KS","KS","USA",39.985006,-100.560148,4357.8
"HCDN-2009","0006847900","PRAIRIE DOG C AB KEITH SEBELIUS LAKE, KS","KS","USA",39.769849,-100.100779,1536.2
"HCDN-2009","0006853800","WHITE ROCK C NR BURR OAK, KS","KS","USA",39.899249,-98.250425,589.4
"HCDN-2009","0006876700","SALT C NR ADA, KS","KS","USA",39.139069,-97.83696,1056.4
"HCDN-2009","0006878000","CHAPMAN C NR CHAPMAN, KS","KS","USA",39.031109,-97.040292,776.4
"HCDN-2009","0006879650","KINGS C NR MANHATTAN, KS","KS","USA",39.101948,-96.595214,11.5
"HCDN-2009","0006885500","BLACK VERMILLION R NR FRANKFORT, KS","KS","USA",39.681924,-96.442894,1062.9
"HCDN-2009","0006888500","MILL C NR PAXICO, KS","KS","USA",39.062655,-96.150252,842.3
"HCDN-2009","0006889200","SOLDIER C NR DELIA, KS","KS","USA",39.23833,-95.888599,385.7
"HCDN-2009","0006889500","SOLDIER C NR TOPEKA, KS","KS","USA",39.09938,-95.724952,748.6
"HCDN-2009","0006892000","STRANGER C NR TONGANOXIE, KS","KS","USA",39.116327,-95.010881,1092.7
"HCDN-2009","0006903400","Chariton River near Chariton, IA","IA","USA",40.95189,-93.259848,481.4
"HCDN-2009","0006906800","Lamine River near Otterville, MO","MO","USA",38.70225,-92.978833,1414.8
"HCDN-2009","0006910800","MARAIS DES CYGNES R NR READING, KS","KS","USA",38.567005,-95.961632,444.6
"HCDN-2009","0006911900","DRAGOON C NR BURLINGAME, KS","KS","USA",38.71069,-95.836029,293.1
"HCDN-2009","0006917000","L OSAGE R AT FULTON, KS","KS","USA",38.018968,-94.713668,765.8
"HCDN-2009","0006918460","Turnback Creek above Greenfield, MO","MO","USA",37.402369,-93.802028,650.7
"HCDN-2009","0006919500","Cedar Creek near Pleasant View, MO","MO","USA",37.834203,-93.875492,1069.4
"HCDN-2009","0006921070","Pomme de Terre River near Polk, MO","MO","USA",37.682653,-93.370333,712.6
"HCDN-2009","0006921200","Lindley Creek near Polk, MO","MO","USA",37.750467,-93.266183,323.6
"HCDN-2009","0007014500","Meramec River near Sullivan, MO","MO","USA",38.158531,-91.108458,3845.5
"HCDN-2009","0007056000","Buffalo River near St. Joe, AR","AR","USA",35.983175,-92.747553,2149.4
"HCDN-2009","0007057500","North Fork River near Tecumseh, MO","MO","USA",36.623033,-92.248125,1456.4
"HCDN-2009","0007060710","North Sylamore Creek near Fifty Six, AR","AR","USA",35.995351,-92.212655,150
"HCDN-2009","0007066000","Jacks Fork at Eminence, MO","MO","USA",37.154081,-91.358161,1053.5
"HCDN-2009","0007067000","Current River at Van Buren, MO","MO","USA",36.991378,-91.013511,4349
"HCDN-2009","0007071500","Eleven Point River near Bardley, MO","MO","USA",36.648681,-91.200819,2023.8
"HCDN-2009","0007083000","HALFMOON CREEK NEAR MALTA, CO.","CO","USA",39.172213,-106.389193,60.8
"HCDN-2009","0007105945","ROCK CREEK ABOVE FORT CARSON RESERVATION, CO.","CO","USA",38.707493,-104.84664,17.5
"HCDN-2009","0007142300","RATTLESNAKE C NR MACKSVILLE, KS","KS","USA",37.871594,-98.876137,1819.9
"HCDN-2009","0007144780","NF NINNESCAH R AB CHENEY RE, KS","KS","USA",37.862607,-98.013853,2078.9
"HCDN-2009","0007145700","SLATE C AT WELLINGTON, KS","KS","USA",37.24955,-97.403896,399.8
"HCDN-2009","0007148400","Salt Fork Arkansas River nr Alva, OK","OK","USA",36.815031,-98.648139,2544.5
"HCDN-2009","0007149000","MEDICINE LODGE R NR KIOWA, KS","KS","USA",37.039202,-98.470215,2291.2
"HCDN-2009","0007151500","CHIKASKIA R NR CORBIN, KS","KS","USA",37.128912,-97.601439,2109
"HCDN-2009","0007167500","OTTER C AT CLIMAX, KS","KS","USA",37.70821,-96.223602,319.6
"HCDN-2009","0007180500","CEDAR C NR CEDAR POINT, KS","KS","USA",38.196451,-96.824579,275.5
"HCDN-2009","0007184000","LIGHTNING C NR MCCUNE, KS","KS","USA",37.281254,-95.032668,510.8
"HCDN-2009","0007195800","Flint Creek at Springtown, AR","AR","USA",36.255481,-94.433942,38.2
"HCDN-2009","0007196900","Baron Fork at Dutch Mills, AR","AR","USA",35.880082,-94.486606,106.4
"HCDN-2009","0007197000","Baron Fork at Eldon, OK","OK","USA",35.9212,-94.838563,808.4
"HCDN-2009","0007208500","RAYADO CREEK NEAR CIMARRON, NM","NM","USA",36.372258,-104.970003,159.2
"HCDN-2009","0007261000","Cadron Creek near Guy, AR","AR","USA",35.2988,-92.403931,445.8
"HCDN-2009","0007263295","Maumelle River at Williams Junction, AR","AR","USA",34.876201,-92.774612,119
"HCDN-2009","0007290650","BAYOU PIERRE NR WILLOWS, MS","MS","USA",32.017778,-90.876944,1688.7
"HCDN-2009","0007291000","HOMOCHITTO RIVER AT EDDICETON, MS","MS","USA",31.503056,-90.7775,479.3
"HCDN-2009","0007292500","HOMOCHITTO RIVER AT ROSETTA, MS","MS","USA",31.324722,-91.109444,2073.1
"HCDN-2009","0007295000","BUFFALO RIVER NR WOODVILLE, MS","MS","USA",31.226944,-91.295556,466.6
"HCDN-2009","0007299670","Groesbeck Ck at SH 6 nr Quanah, TX","TX","USA",34.35452,-99.740372,828.4
"HCDN-2009","0007301410","Sweetwater Ck nr Kelton, TX","TX","USA",35.473104,-100.12095,769.7
"HCDN-2009","0007315200","E Fk Little Wichita Rv nr Henrietta, TX","TX","USA",33.812878,-98.085041,501.6
"HCDN-2009","0007315700","Mud Creek near Courtney, OK","OK","USA",34.004265,-97.566968,1488.7
"HCDN-2009","0007335700","Kiamichi River near Big Cedar, OK","OK","USA",34.638437,-94.612724,102.6
"HCDN-2009","0007340300","Cossatot River near Vandervoort, AR","AR","USA",34.379554,-94.235763,230.4
"HCDN-2009","0007346045","Black Cypress Bayou at Jefferson, TX","TX","USA",32.777917,-94.357415,959.9
"HCDN-2009","0007359610","Caddo River near Caddo Gap, AR","AR","USA",34.38278,-93.60611,342.2
"HCDN-2009","0007362100","SMACKOVER CREEK NEAR SMACKOVER, ARK.","AR","USA",33.375956,-92.777106,996.1
"HCDN-2009","0007362587","Alum Fork Saline River near Reform, AR","AR","USA",34.797591,-92.933507,69.8
"HCDN-2009","0007373000","Big Creek at Pollock, LA","LA","USA",31.536287,-92.408471,131.2
"HCDN-2009","0007375000","Tchefuncta River near Folsom, LA","LA","USA",30.616022,-90.248695,249.3
"HCDN-2009","0007376000","Tickfaw River at Holden, LA","LA","USA",30.503802,-90.677316,651.6
"HCDN-2009","0007377000","Amite River near Darlington, LA","LA","USA",30.889069,-90.844545,1525.3
"HCDN-2009","0008013000","CALCASIEU RIVER NR GLENMORA, LA","LA","USA",30.996023,-92.673755,1293.7
"HCDN-2009","0008014500","Whiskey Chitto Creek Near Oberlin, LA","LA","USA",30.69875,-92.893194,1305.1
"HCDN-2009","0008023080","Bayou Grand Cane near Stanley, LA","LA","USA",31.979333,-93.934077,187.6
"HCDN-2009","0008025500","Bayou Toro near Toro, LA","LA","USA",31.307127,-93.515729,383
"HCDN-2009","0008029500","Big Cow Ck nr Newton, TX","TX","USA",30.818889,-93.785556,333.4
"HCDN-2009","0008050800","Timber Ck nr Collinsville, TX","TX","USA",33.554554,-96.947227,100.9
"HCDN-2009","0008066200","Long King Ck at Livingston, TX","TX","USA",30.716306,-94.958824,364.1
"HCDN-2009","0008066300","Menard Ck nr Rye, TX","TX","USA",30.481389,-94.779722,383.6
"HCDN-2009","0008070000","E Fk San Jacinto Rv nr Cleveland, TX","TX","USA",30.336598,-95.1041,841.1
"HCDN-2009","0008070200","E Fk San Jacinto Rv nr New Caney, TX","TX","USA",30.145493,-95.124376,989.4
"HCDN-2009","0008079600","DMF Brazos Rv at Justiceburg, TX","TX","USA",33.038432,-101.19763,3348.9
"HCDN-2009","0008082700","Millers Ck nr Munday, TX","TX","USA",33.329266,-99.465083,276
"HCDN-2009","0008086212","Hubbard Ck bl Albany, TX","TX","USA",32.732897,-99.14063,1584.8
"HCDN-2009","0008086290","Big Sandy Ck abv Breckenridge, TX","TX","USA",32.648456,-99.004515,733
"HCDN-2009","0008101000","Cowhouse Ck at Pidcoke, TX","TX","USA",31.28489,-97.885024,1177.1
"HCDN-2009","0008103900","S Fk Rocky Ck nr Briggs, TX","TX","USA",30.911568,-98.036968,86
"HCDN-2009","0008104900","S Fk San Gabriel Rv at Georgetown, TX","TX","USA",30.62575,-97.69112,342.6
"HCDN-2009","0008109700","Middle Yegua Ck nr Dime Box, TX","TX","USA",30.339378,-96.904704,610.1
"HCDN-2009","0008150800","Beaver Ck nr Mason, TX","TX","USA",30.643515,-99.095885,557.5
"HCDN-2009","0008155200","Barton Ck at SH 71 nr Oak Hill, TX","TX","USA",30.296316,-97.925565,232.7
"HCDN-2009","0008158700","Onion Ck nr Driftwood, TX","TX","USA",30.082989,-98.007786,320.3
"HCDN-2009","0008158810","Bear Ck bl FM 1826 nr Driftwood, TX","TX","USA",30.155487,-97.940008,31.8
"HCDN-2009","0008164000","Lavaca Rv nr Edna, TX","TX","USA",28.959984,-96.686367,2124
"HCDN-2009","0008164300","Navidad Rv nr Hallettsville, TX","TX","USA",29.466908,-96.812756,861.5
"HCDN-2009","0008164600","Garcitas Ck nr Inez, TX","TX","USA",28.891376,-96.819149,253.9
"HCDN-2009","0008165300","N Fk Guadalupe Rv nr Hunt, TX","TX","USA",30.064097,-99.386992,436
"HCDN-2009","0008171300","Blanco Rv nr Kyle, TX","TX","USA",29.979383,-97.910005,1067.5
"HCDN-2009","0008175000","Sandies Ck nr Westhoff, TX","TX","USA",29.215248,-97.449435,1421.7
"HCDN-2009","0008176900","Coleto Ck at Arnold Rd nr Schroeder, TX","TX","USA",28.861653,-97.226379,925.4
"HCDN-2009","0008178880","Medina Rv at Bandera, TX","TX","USA",29.723835,-99.070035,850.6
"HCDN-2009","0008189500","Mission Rv at Refugio, TX","TX","USA",28.291951,-97.279159,1808.3
"HCDN-2009","0008190000","Nueces Rv at Laguna, TX","TX","USA",29.428567,-99.997287,1961.4
"HCDN-2009","0008190500","W Nueces Rv nr Brackettville, TX","TX","USA",29.472731,-100.236463,1799.1
"HCDN-2009","0008194200","San Casimiro Ck nr Freer, TX","TX","USA",27.965013,-98.966968,1220.6
"HCDN-2009","0008195000","Frio Rv at Concan, TX","TX","USA",29.488565,-99.704776,1028.3
"HCDN-2009","0008196000","Dry Frio Rv nr Reagan Wells, TX","TX","USA",29.504676,-99.781445,327
"HCDN-2009","0008198500","Sabinal Rv at Sabinal, TX","TX","USA",29.314306,-99.480472,624.3
"HCDN-2009","0008200000","Hondo Ck nr Tarpley, TX","TX","USA",29.569673,-99.246706,249.1
"HCDN-2009","0008202700","Seco Ck at Rowe Ranch nr D'Hanis, TX","TX","USA",29.370789,-99.287819,434.7
"HCDN-2009","0008267500","RIO HONDO NEAR VALDEZ, NM","NM","USA",36.541693,-105.556398,96.3
"HCDN-2009","0008269000","RIO PUEBLO DE TAOS NEAR TAOS, NM","NM","USA",36.439472,-105.50362,163.3
"HCDN-2009","0008271000","RIO LUCERO NEAR ARROYO SECO, NM","NM","USA",36.508361,-105.530842,43.8
"HCDN-2009","0008324000","JEMEZ RIVER NEAR JEMEZ, NM","NM","USA",35.661694,-106.743369,1207.9
"HCDN-2009","0008377900","RIO MORA NEAR TERRERO, NM","NM","USA",35.777254,-105.658073,139
"HCDN-2009","0008378500","PECOS RIVER NEAR PECOS, NM","NM","USA",35.708366,-105.682517,445
"HCDN-2009","0008380500","GALLINAS CREEK NEAR MONTEZUMA, NM","NM","USA",35.651986,-105.3189,198.1
"HCDN-2009","0009034900","BOBTAIL CREEK NEAR JONES PASS, CO.","CO","USA",39.760264,-105.906401,15.6
"HCDN-2009","0009035800","DARLING CREEK NEAR LEAL, CO.","CO","USA",39.800542,-106.026407,22.9
"HCDN-2009","0009035900","SOUTH FORK OF WILLIAMS FORK NEAR LEAL, CO.","CO","USA",39.79582,-106.030573,72.8
"HCDN-2009","0009047700","KEYSTONE GULCH NEAR DILLON, CO.","CO","USA",39.594431,-105.972516,23.6
"HCDN-2009","0009065500","GORE CREEK AT UPPER STATION, NEAR MINTURN, CO.","CO","USA",39.625819,-106.278082,37.8
"HCDN-2009","0009066000","BLACK GORE CREEK NEAR MINTURN, CO.","CO","USA",39.596375,-106.265026,32.4
"HCDN-2009","0009066200","BOOTH CREEK NEAR MINTURN, CO.","CO","USA",39.648319,-106.323083,16.1
"HCDN-2009","0009066300","MIDDLE CREEK NEAR MINTURN, CO.","CO","USA",39.645819,-106.382251,15.5
"HCDN-2009","0009081600","CRYSTAL RIVER AB AVALANCHE C, NEAR REDSTONE, CO.","CO","USA",39.232207,-107.227273,432.9
"HCDN-2009","0009107000","TAYLOR RIVER AT TAYLOR PARK, CO.","CO","USA",38.860271,-106.566697,331.6
"HCDN-2009","0009183500","MILL CREEK AT SHELEY TUNNEL, NEAR MOAB, UT.","UT","USA",38.48304,-109.404004,74.3
"HCDN-2009","0009223000","HAMS FORK BELOW POLE CREEK, NEAR FRONTIER, WY","WY","USA",42.110494,-110.709621,333.2
"HCDN-2009","0009306242","CORRAL GULCH NEAR RANGELY, CO.","CO","USA",39.92025,-108.472872,82
"HCDN-2009","0009312600","WHITE RIVER BL TABBYUNE C NEAR SOLDIER SUMMIT, UT","UT","USA",39.875793,-111.037388,195.3
"HCDN-2009","0009352900","VALLECITO CREEK NEAR BAYFIELD, CO.","CO","USA",37.477501,-107.543669,188.2
"HCDN-2009","0009378170","SOUTH CREEK ABOVE RESERVOIR NEAR MONTICELLO, UT","UT","USA",37.846661,-109.369562,21.9
"HCDN-2009","0009378630","RECAPTURE CREEK NEAR BLANDING, UT","UT","USA",37.75555,-109.476511,10.4
"HCDN-2009","0009386900","RIO NUTRIA NEAR RAMAH, NM","NM","USA",35.282529,-108.553411,184.9
"HCDN-2009","0009404450","EAST FORK VIRGIN RIVER NEAR GLENDALE, UT","UT","USA",37.339427,-112.604377,193
"HCDN-2009","0009423350","CARUTHERS C NR IVANPAH CA","CA","USA",35.244989,-115.298876,2.2
"HCDN-2009","0009430500","GILA RIVER NEAR GILA, NM","NM","USA",33.061179,-108.537275,4804.9
"HCDN-2009","0009430600","MOGOLLON CREEK NEAR CLIFF, NM","NM","USA",33.166733,-108.649779,190.5
"HCDN-2009","0009447800","BONITA CREEK NEAR MORENCI, AZ.","AZ","USA",32.955618,-109.531188,782
"HCDN-2009","0009480000","SANTA CRUZ RIVER NEAR LOCHIEL, AZ.","AZ","USA",31.355378,-110.589526,213.4
"HCDN-2009","0009484000","SABINO CREEK NEAR TUCSON, AZ.","AZ","USA",32.316742,-110.810367,103.7
"HCDN-2009","0009484600","PANTANO WASH NEAR VAIL, AZ.","AZ","USA",32.035914,-110.677582,1179.6
"HCDN-2009","0009492400","EAST FORK WHITE RIVER NEAR FORT APACHE, AZ.","AZ","USA",33.822272,-109.814541,129
"HCDN-2009","0009494000","WHITE RIVER NEAR FORT APACHE, AZ.","AZ","USA",33.736441,-110.166767,1628.2
"HCDN-2009","0009497800","CIBECUE CREEK NEAR CHYSOTILE, AZ.","AZ","USA",33.843105,-110.557609,750.9
"HCDN-2009","0009497980","CHERRY CREEK NEAR GLOBE, AZ.","AZ","USA",33.827826,-110.856227,516.8
"HCDN-2009","0009505200","WET BEAVER CREEK NEAR RIMROCK, AZ.","AZ","USA",34.674744,-111.672094,285.7
"HCDN-2009","0009505350","DRY BEAVER CREEK NEAR RIMROCK, AZ.","AZ","USA",34.728631,-111.775708,365.7
"HCDN-2009","0009505800","WEST CLEAR CREEK NEAR CAMP VERDE, AZ.","AZ","USA",34.538636,-111.694036,614.9
"HCDN-2009","0009508300","WET BOTTOM CREEK NEAR CHILDS, AZ.","AZ","USA",34.160868,-111.692924,93
"HCDN-2009","0009510200","SYCAMORE CREEK NEAR FORT MCDOWELL, AZ.","AZ","USA",33.694211,-111.541802,425.3
"HCDN-2009","0009512280","CAVE CREEK BLW COTTONWOOD CR NEAR CAVE CREEK, AZ.","AZ","USA",33.88726,-111.954039,188.7
"HCDN-2009","0009513780","NEW RIVER NEAR ROCK SPRINGS, AZ.","AZ","USA",33.974202,-112.099046,177.5
"HCDN-2009","0009535100","SAN SIMON WASH NEAR PISINIMO, AZ.","AZ","USA",32.044237,-112.370971,1482.9
"HCDN-2009","0010023000","BIG CREEK NEAR RANDOLPH, UT","UT","USA",41.609942,-111.254088,131.5
"HCDN-2009","0010109001","COM F LOGAN R AB ST D AND LO HP AND SM C N LO UT","UT","USA",41.744375,-111.784387,555.6
"HCDN-2009","0010166430","WEST CANYON CREEK NEAR CEDAR FORT, UT","UT","USA",40.405226,-112.100496,70.2
"HCDN-2009","0010172200","RED BUTTE CREEK AT FORT DOUGLAS, NEAR SLC, UT","UT","USA",40.779946,-111.806045,18.7
"HCDN-2009","0010172700","VERNON CREEK NEAR VERNON, UT","UT","USA",39.979391,-112.38023,69.9
"HCDN-2009","0010172800","SOUTH WILLOW CREEK NEAR GRANTSVILLE, UT","UT","USA",40.496331,-112.574403,11.1
"HCDN-2009","0010173450","MAMMOTH CREEK ABV WEST HATCH DITCH, NEAR HATCH, UT","UT","USA",37.622757,-112.516877,268.5
"HCDN-2009","0010205030","SALINA CREEK NEAR EMERY, UT","UT","USA",38.911914,-111.530465,134.6
"HCDN-2009","0010234500","BEAVER RIVER NEAR BEAVER, UT","UT","USA",38.280526,-112.568271,236.4
"HCDN-2009","0010242000","COAL CREEK NEAR CEDAR CITY, UT","UT","USA",37.672199,-113.03467,208.7
"HCDN-2009","0010244950","STEPTOE C NR ELY, NV","NV","USA",39.201539,-114.689161,28.2
"HCDN-2009","0010249300","S TWIN R NR ROUND MOUNTAIN, NV","NV","USA",38.88743,-117.245367,50.2
"HCDN-2009","0010258000","TAHQUITZ C NR PALM SPRINGS CA","CA","USA",33.805019,-116.559182,43.7
"HCDN-2009","0010258500","PALM CYN C NR PALM SPRINGS CA","CA","USA",33.745022,-116.535571,241.5
"HCDN-2009","0010259000","ANDREAS C NR PALM SPRINGS CA","CA","USA",33.760021,-116.550015,22.5
"HCDN-2009","0010259200","DEEP C NR PALM DESERT CA","CA","USA",33.631136,-116.392234,79.1
"HCDN-2009","0010263500","BIG ROCK C NR VALYERMO CA","CA","USA",34.420831,-117.839507,59.5
"HCDN-2009","0010310500","CLEAR CREEK NEAR CARSON CITY, NV","NV","USA",39.113242,-119.798237,39.5
"HCDN-2009","0010316500","LAMOILLE C NR LAMOILLE, NV","NV","USA",40.690761,-115.477003,64.8
"HCDN-2009","0010329500","MARTIN C NR PARADISE VALLEY, NV","NV","USA",41.534618,-117.417905,454.5
"HCDN-2009","0010336645","GENERAL C NR MEEKS BAY CA","CA","USA",39.051852,-120.118521,19.6
"HCDN-2009","0010336660","BLACKWOOD C NR TAHOE CITY CA","CA","USA",39.107407,-120.162135,29.8
"HCDN-2009","0010336676","WARD C AT HWY 89 NR TAHOE PINES CA","CA","USA",39.132129,-120.157691,24.7
"HCDN-2009","0010336740","Logan House Ck nr Glenbrook, NV","NV","USA",39.066575,-119.93546,5.5
"HCDN-2009","0010343500","SAGEHEN C NR TRUCKEE CA","CA","USA",39.431572,-120.237979,27.6
"HCDN-2009","0010348850","GALENA C AT GALENA C STATE PARK","NV","USA",39.354354,-119.858522,19.1
"HCDN-2009","0010396000","DONNER UND BLITZEN RIVER NR FRENCHGLEN OR","OR","USA",42.790833,-118.8675,528.9
"HCDN-2009","0011015000","SWEETWATER R NR DESCANSO CA","CA","USA",32.834774,-116.623075,117.8
"HCDN-2009","0011098000","ARROYO SECO NR PASADENA CA","CA","USA",34.222226,-118.177573,41.6
"HCDN-2009","0011124500","SANTA CRUZ C NR SANTA YNEZ CA","CA","USA",34.596656,-119.908752,191.5
"HCDN-2009","0011141280","LOPEZ C NR ARROYO GRANDE CA","CA","USA",35.23553,-120.472386,54
"HCDN-2009","0011143000","BIG SUR R NR BIG SUR CA","CA","USA",36.245796,-121.773287,120.6
"HCDN-2009","0011148900","NACIMIENTO R BL SAPAQUE C NR BRYSON CA","CA","USA",35.788579,-121.093805,403.5
"HCDN-2009","0011151300","SAN LORENZO C BL BITTERWATER C NR KING CITY CA","CA","USA",36.268021,-121.066303,608.2
"HCDN-2009","0011162500","PESCADERO C NR PESCADERO CA","CA","USA",37.260777,-122.32886,118.9
"HCDN-2009","0011176400","ARROYO VALLE BL LANG CN NR LIVERMORE CA","CA","USA",37.561322,-121.683839,338.6
"HCDN-2009","0011180500","DRY C A UNION CITY CA","CA","USA",37.606045,-122.02385,24.3
"HCDN-2009","0011180960","CULL C AB CULL C RES NR CASTRO VALLEY CA","CA","USA",37.717707,-122.054407,15.1
"HCDN-2009","0011224500","LOS GATOS C AB NUNEZ CYN NR COALINGA CA","CA","USA",36.214677,-120.470712,247.4
"HCDN-2009","0011230500","BEAR C NR LAKE THOMAS A EDISON CA","CA","USA",37.339386,-118.973451,135.5
"HCDN-2009","0011237500","PITMAN C BL TAMARACK C CA","CA","USA",37.198557,-119.213733,59.8
"HCDN-2009","0011253310","CANTUA C NR CANTUA CREEK CA","CA","USA",36.402174,-120.433492,120.4
"HCDN-2009","0011264500","MERCED R A HAPPY ISLES BRIDGE NR YOSEMITE CA","CA","USA",37.731593,-119.558774,468
"HCDN-2009","0011266500","MERCED R A POHONO BRIDGE NR YOSEMITE CA","CA","USA",37.716871,-119.666279,833.1
"HCDN-2009","0011274500","ORESTIMBA C NR NEWMAN CA","CA","USA",37.315492,-121.125208,347.8
"HCDN-2009","0011274630","DEL PUERTO C NR PATTERSON CA","CA","USA",37.486599,-121.209103,187.4
"HCDN-2009","0011284400","BIG C AB WHITES GULCH NR GROVELAND CA","CA","USA",37.841871,-120.18491,41.7
"HCDN-2009","0011299600","BLACK C NR COPPEROPOLIS CA","CA","USA",37.961036,-120.615203,37.3
"HCDN-2009","0011315000","COLE C NR SALT SPRINGS DAM CA","CA","USA",38.519078,-120.212693,54
"HCDN-2009","0011381500","MILL C NR LOS MOLINOS CA","CA","USA",40.054602,-122.024154,337.6
"HCDN-2009","0011383500","DEER C NR VINA CA","CA","USA",40.014047,-121.948318,539.8
"HCDN-2009","0011427700","DUNCAN CYN C NR FRENCH MEADOWS CA","CA","USA",39.135738,-120.478535,25.5
"HCDN-2009","0011451100","NF CACHE C A HOUGH SPRING NR CLEARLAKE OAKS CA","CA","USA",39.165446,-122.619986,155.1
"HCDN-2009","0011468500","NOYO R NR FORT BRAGG CA","CA","USA",39.428224,-123.737792,273.5
"HCDN-2009","0011473900","MF EEL R NR DOS RIOS CA","CA","USA",39.706267,-123.325291,1925
"HCDN-2009","0011475560","ELDER C NR BRANSCOMB CA","CA","USA",39.7296,-123.643907,16.8
"HCDN-2009","0011476600","BULL C NR WEOTT CA","CA","USA",40.35125,-124.003931,71.8
"HCDN-2009","0011478500","VAN DUZEN R NR BRIDGEVILLE CA","CA","USA",40.480416,-123.890876,572.4
"HCDN-2009","0011480390","MAD R AB RUTH RES NR FOREST GLEN CA","CA","USA",40.284313,-123.335303,242.6
"HCDN-2009","0011481200","LITTLE R NR TRINIDAD CA","CA","USA",41.010959,-124.081733,105.4
"HCDN-2009","0011482500","REDWOOD C A ORICK CA","CA","USA",41.29929,-124.051182,718
"HCDN-2009","0011522500","SALMON R A SOMES BAR CA","CA","USA",41.377627,-123.477558,1943.1
"HCDN-2009","0011523200","TRINITY R AB COFFEE C NR TRINITY CTR CA","CA","USA",41.111257,-122.705579,382.9
"HCDN-2009","0011528700","SF TRINITY R BL HYAMPOM CA","CA","USA",40.649863,-123.494205,1980.1
"HCDN-2009","0011532500","SMITH R NR CRESCENT CITY CA","CA","USA",41.791503,-124.076189,1578
"HCDN-2009","0012010000","NASELLE RIVER NEAR NASELLE, WA","WA","USA",46.373994,-123.743482,142.2
"HCDN-2009","0012013500","WILLAPA RIVER NEAR WILLAPA, WA","WA","USA",46.650934,-123.652658,337.7
"HCDN-2009","0012020000","CHEHALIS RIVER NEAR DOTY, WA","WA","USA",46.617324,-123.277644,294.2
"HCDN-2009","0012025000","NEWAUKUM RIVER NEAR CHEHALIS, WA","WA","USA",46.620104,-122.945126,404.9
"HCDN-2009","0012025700","SKOOKUMCHUCK RIVER NEAR VAIL, WA","WA","USA",46.772603,-122.594009,103.3
"HCDN-2009","0012035000","SATSOP RIVER NEAR SATSOP, WA","WA","USA",47.000651,-123.494884,769.9
"HCDN-2009","0012040500","QUEETS RIVER NEAR CLEARWATER, WA","WA","USA",47.537859,-124.315746,1153.4
"HCDN-2009","0012041200","HOH RIVER AT US HIGHWAY 101 NEAR FORKS, WA","WA","USA",47.806747,-124.251033,655.8
"HCDN-2009","0012043000","CALAWAH RIVER NEAR FORKS, WA","WA","USA",47.960077,-124.392987,337.2
"HCDN-2009","0012048000","DUNGENESS RIVER NEAR SEQUIM, WA","WA","USA",48.014258,-123.132677,405
"HCDN-2009","0012054000","DUCKABUSH RIVER NEAR BRINNON, WA","WA","USA",47.683981,-123.011551,171.7
"HCDN-2009","0012056500","NF SKOKOMISH R BL STAIRCASE RPDS NR HOODSPORT, WA","WA","USA",47.514257,-123.329887,147
"HCDN-2009","0012073500","HUGE CREEK NEAR WAUNA, WA","WA","USA",47.389262,-122.699024,15.7
"HCDN-2009","0012082500","NISQUALLY RIVER NEAR NATIONAL, WA","WA","USA",46.752608,-122.083719,350
"HCDN-2009","0012092000","PUYALLUP RIVER NEAR ELECTRON, WA","WA","USA",46.903716,-122.035109,240.9
"HCDN-2009","0012095000","SOUTH PRAIRIE CREEK AT SOUTH PRAIRIE, WA","WA","USA",47.139546,-122.092614,205.8
"HCDN-2009","0012114500","CEDAR RIVER BELOW BEAR CREEK NEAR CEDAR FALLS, WA","WA","USA",47.342054,-121.548986,66.6
"HCDN-2009","0012115000","CEDAR RIVER NEAR CEDAR FALLS, WA","WA","USA",47.370107,-121.625101,102.8
"HCDN-2009","0012115500","REX RIVER NEAR CEDAR FALLS, WA","WA","USA",47.350662,-121.663158,34.7
"HCDN-2009","0012117000","TAYLOR CREEK NEAR SELLECK, WA","WA","USA",47.386491,-121.846222,44.9
"HCDN-2009","0012141300","MIDDLE FORK SNOQUALMIE RIVER NEAR TANNER, WA","WA","USA",47.48594,-121.647881,401.5
"HCDN-2009","0012143600","SF SNOQUALMIE RIVER AT EDGEWICK, WA","WA","USA",47.452604,-121.717885,165
"HCDN-2009","0012144000","SF SNOQUALMIE RIVER AT NORTH BEND, WA","WA","USA",47.49288,-121.790111,210.1
"HCDN-2009","0012145500","RAGING RIVER NEAR FALL CITY, WA","WA","USA",47.539824,-121.909005,79
"HCDN-2009","0012147500","NORTH FORK TOLT RIVER NEAR CARNATION, WA","WA","USA",47.712324,-121.788727,102.9
"HCDN-2009","0012147600","SOUTH FORK TOLT RIVER NEAR INDEX, WA","WA","USA",47.706771,-121.600107,14.1
"HCDN-2009","0012167000","NF STILLAGUAMISH RIVER NEAR ARLINGTON, WA","WA","USA",48.261492,-122.047641,683.8
"HCDN-2009","0012175500","THUNDER CREEK NEAR NEWHALEM, WA","WA","USA",48.672629,-121.072896,273.8
"HCDN-2009","0012178100","NEWHALEM CREEK NEAR NEWHALEM, WA","WA","USA",48.655959,-121.238456,69.7
"HCDN-2009","0012186000","SAUK RIVER AB WHITECHUCK RIVER NEAR DARRINGTON, WA","WA","USA",48.16872,-121.470672,398.4
"HCDN-2009","0012189500","SAUK RIVER NEAR SAUK, WA","WA","USA",48.424559,-121.568463,1855.3
"HCDN-2009","0012358500","Middle Fork Flathead River nr West Glacier MT","MT","USA",48.495244,-114.010119,2939.2
"HCDN-2009","0012374250","Mill Cr ab Bassoo Cr nr Niarada MT","MT","USA",47.829664,-114.69763,50.8
"HCDN-2009","0012375900","South Crow Creek near Ronan MT","MT","USA",47.4916,-114.026774,19.7
"HCDN-2009","0012377150","Mission Cr ab Reservoir nr ST Ignatius MT","MT","USA",47.322987,-113.979548,32.2
"HCDN-2009","0012381400","South Fork Jocko River near Arlee MT","MT","USA",47.195486,-113.850653,150.9
"HCDN-2009","0012383500","Big Knife Creek near Arlee MT","MT","USA",47.147428,-113.974272,17.7
"HCDN-2009","0012388400","Revais Cr bl West Fork nr Dixon MT","MT","USA",47.266317,-114.406786,60.8
"HCDN-2009","0012390700","Prospect Creek at Thompson Falls MT","MT","USA",47.586046,-115.355153,470.2
"HCDN-2009","0012411000","NF COEUR D ALENE R AB SHOSHONE CK NR PRICHARD ID","ID","USA",47.706111,-115.979167,867.5
"HCDN-2009","0012413000","NF COEUR D ALENE RIVER AT ENAVILLE ID","ID","USA",47.568889,-116.253333,2325.2
"HCDN-2009","0012414500","ST JOE RIVER AT CALDER ID","ID","USA",47.27464,-116.189049,2679
"HCDN-2009","0012447390","ANDREWS CREEK NEAR MAZAMA, WA","WA","USA",48.822925,-120.145924,58.1
"HCDN-2009","0012451000","STEHEKIN RIVER AT STEHEKIN, WA","WA","USA",48.32958,-120.691767,830.6
"HCDN-2009","0012488500","AMERICAN RIVER NEAR NILE, WA","WA","USA",46.977616,-121.168696,205.2
"HCDN-2009","0013010065","SNAKE RIVER AB JACKSON LAKE AT FLAGG RANCH WY","WY","USA",44.098889,-110.6675,1222.3
"HCDN-2009","0013011500","PACIFIC CREEK AT MORAN WY","WY","USA",43.850278,-110.517778,404.1
"HCDN-2009","0013011900","BUFFALO FORK AB LAVA CREEK NR MORAN WY","WY","USA",43.838056,-110.441111,851.8
"HCDN-2009","0013018300","CACHE CREEK NEAR JACKSON, WY","WY","USA",43.452153,-110.704091,27.9
"HCDN-2009","0013023000","GREYS RIVER AB RESERVOIR NR ALPINE WY","WY","USA",43.142778,-110.976667,1161.9
"HCDN-2009","0013083000","TRAPPER CREEK NR OAKLEY ID","ID","USA",42.165833,-113.983611,133.2
"HCDN-2009","0013161500","BRUNEAU RIVER AT ROWLAND NV","NV","USA",41.933237,-115.674527,986.1
"HCDN-2009","0013185000","BOISE RIVER NR TWIN SPRINGS ID","ID","USA",43.659444,-115.727222,2154.4
"HCDN-2009","0013235000","SF PAYETTE RIVER AT LOWMAN ID","ID","USA",44.085278,-115.622222,1163.2
"HCDN-2009","0013240000","LAKE FORK PAYETTE RIVER AB JUMBO CR NR MCCALL ID","ID","USA",44.913611,-115.997222,125.6
"HCDN-2009","0013310700","SF SALMON RIVER NR KRASSEL RANGER STATION ID","ID","USA",44.986944,-115.725,853.1
"HCDN-2009","0013313000","JOHNSON CREEK AT YELLOW PINE ID","ID","USA",44.961667,-115.5,561.9
"HCDN-2009","0013331500","MINAM RIVER NEAR MINAM, OR","OR","USA",45.619867,-117.726589,618.9
"HCDN-2009","0013337000","LOCHSA RIVER NR LOWELL ID","ID","USA",46.150833,-115.587222,3053.4
"HCDN-2009","0013338500","SF CLEARWATER RIVER AT STITES ID","ID","USA",46.086389,-115.976667,3027
"HCDN-2009","0013340600","NF CLEARWATER RIVER NR CANYON RANGER STATION ID","ID","USA",46.840466,-115.620703,3354.6
"HCDN-2009","0014020000","UMATILLA RIVER ABOVE MEACHAM CREEK, NR GIBBON, OR","OR","USA",45.719577,-118.323291,341.4
"HCDN-2009","0014092750","SHITIKE CR, AT PETERS PASTURE, NR WARM SPRINGS, OR","OR","USA",44.750395,-121.633397,57.5
"HCDN-2009","0014096850","BEAVER CREEK, BLW QUARTZ CR, NR SIMNASHO, OR.","OR","USA",44.958727,-121.394229,374.6
"HCDN-2009","0014137000","SANDY RIVER NEAR MARMOT, OR","OR","USA",45.399564,-122.137307,674.2
"HCDN-2009","0014138800","BLAZED ALDER CREEK NEAR RHODODENDRON, OREG.","OR","USA",45.452618,-121.891468,21.3
"HCDN-2009","0014138870","FIR CREEK NEAR BRIGHTWOOD, OR","OR","USA",45.480119,-122.025638,14
"HCDN-2009","0014138900","NORTH FORK BULL RUN RIVER NEAR MULTNOMAH FALLS, OR","OR","USA",45.494286,-122.035917,21.7
"HCDN-2009","0014139800","SOUTH FORK BULL RUN RIVER NEAR BULL RUN, OR","OR","USA",45.444564,-122.109529,40.7
"HCDN-2009","0014141500","LITTLE SANDY RIVER NEAR BULL RUN, OREG.","OR","USA",45.415398,-122.171475,59.9
"HCDN-2009","0014154500","ROW RIVER ABOVE PITCHER CREEK NEAR, DORENA, OREG","OR","USA",43.735957,-122.873402,546.8
"HCDN-2009","0014158790","SMITH R AB SMITH R RES NR BELKNAP SPRGS,OREG.","OR","USA",44.334567,-122.047007,40.6
"HCDN-2009","0014166500","LONG TOM RIVER NEAR NOTI, OREG.","OR","USA",44.049845,-123.42621,226.5
"HCDN-2009","0014182500","LITTLE NORTH SANTIAM RIVER NEAR MEHAMA, OR","OR","USA",44.791511,-122.578974,286.8
"HCDN-2009","0014185000","SOUTH SANTIAM RIVER BELOW CASCADIA, OR","OR","USA",44.391792,-122.497582,458.2
"HCDN-2009","0014185900","QUARTZVILLE CREEK NEAR CASCADIA, OREG.","OR","USA",44.540124,-122.435915,258.2
"HCDN-2009","0014187000","WILEY CREEK NEAR FOSTER, OR","OR","USA",44.372348,-122.623138,134.7
"HCDN-2009","0014216500","MUDDY CREEK BELOW CLEAR CREEK NEAR COUGAR, WA","WA","USA",46.075669,-121.998698,349.5
"HCDN-2009","0014222500","EAST FORK LEWIS RIVER NEAR HEISSON, WA","WA","USA",45.836781,-122.466208,323.9
"HCDN-2009","0014236200","TILTON RIVER AB BEAR CANYON CREEK NEAR CINEBAR, WA","WA","USA",46.595384,-122.459556,361
"HCDN-2009","0014301000","NEHALEM RIVER NEAR FOSS, OR","OR","USA",45.703999,-123.755405,1743.5
"HCDN-2009","0014303200","TUCCA CREEK NEAR BLAINE, OR.","OR","USA",45.324276,-123.546501,8.1
"HCDN-2009","0014305500","SILETZ RIVER AT SILETZ, OR","OR","USA",44.715117,-123.887335,526.3
"HCDN-2009","0014306340","EAST FORK LOBSTER CREEK NEAR ALSEA, OR.","OR","USA",44.247899,-123.636494,14.7
"HCDN-2009","0014306500","ALSEA RIVER NEAR TIDEWATER, OR","OR","USA",44.385954,-123.831778,857.2
"HCDN-2009","0014308990","COW CREEK ABV GALESVILLE RES, NR AZALEA, OR.","OR","USA",42.823177,-123.125892,167.8
"HCDN-2009","0014309500","WEST FORK COW CREEK NEAR GLENDALE, OR","OR","USA",42.804004,-123.610907,224.9
"HCDN-2009","0014316700","STEAMBOAT CREEK NEAR GLIDE, OR","OR","USA",43.349842,-122.728942,587.9
"HCDN-2009","0014325000","SOUTH FORK COQUILLE RIVER AT POWERS, OR","OR","USA",42.891499,-124.070652,443.1
"HCDN-2009","0014362250","STAR GULCH NEAR RUCH, OR.","OR","USA",42.154014,-123.075323,41.4
"HCDN-2009","0014400000","CHETCO RIVER NEAR BROOKINGS, OR","OR","USA",42.123443,-124.187311,702.6
"HCDN-2009","0015072000","FISH C NR KETCHIKAN AK","AK","USA",55.391604,-131.195583,91.2
"HCDN-2009","0015085100","OLD TOM C NR KASAAN AK","AK","USA",55.395194,-132.408627,15.3
"HCDN-2009","0015129500","SITUK R NR YAKUTAT AK","AK","USA",59.586366,-139.494188,93.1
"HCDN-2009","0015239050","MF BRADLEY R NR HOMER AK","AK","USA",59.777746,-150.756295,23.7
"HCDN-2009","0015290000","L SUSITNA R NR PALMER AK","AK","USA",61.709743,-149.231938,162.2
"HCDN-2009","0015478040","PHELAN C NR PAXSON AK","AK","USA",63.240422,-145.469735,29.9
"HCDN-2009","0015493000","CHENA R NR TWO RIVERS AK","AK","USA",64.902374,-146.359366,2419
"HCDN-2009","0015511000","L CHENA R NR FAIRBANKS AK","AK","USA",64.88569,-147.249648,886.7
"HCDN-2009","0015908000","SAGAVANIRKTOK R NR PUMP STA 3 AK","AK","USA",69.014648,-148.820034,4821.9
"HCDN-2009","0016010000","Kawaikoi Stream nr Waimea, Kauai, HI","HI","USA",22.132675,-159.61998,9.9
"HCDN-2009","0016019000","Waialae Str at alt 3,820 ft nr Waimea, Kauai, HI","HI","USA",22.085737,-159.568869,5.42
"HCDN-2009","0016068000","EB of NF Wailua River nr Lihue, Kauai, HI","HI","USA",22.068767,-159.415258,16.18
"HCDN-2009","0016071500","Left Branch Opaekaa Str nr Kapaa, Kauai, HI","HI","USA",22.0757,-159.395813,1.94
"HCDN-2009","0016097500","Halaulani Str at alt 400 ft nr Kilauea, Kauai, HI","HI","USA",22.178382,-159.41859,3.12
"HCDN-2009","0016108000","Wainiha River nr Hanalei, Kauai, HI","HI","USA",22.135708,-159.557757,27.07
"HCDN-2009","0016200000","NF Kaukonahua Str abv RB, nr Wahiawa, Oahu, HI","HI","USA",21.516278,-157.945306,3.56
"HCDN-2009","0016229000","Kalihi Str nr Honolulu, Oahu, HI","HI","USA",21.363499,-157.8442,6.64
"HCDN-2009","0016345000","Opaeula Str nr Wahiawa, Oahu, HI","HI","USA",21.562333,-158.00025,7.79
"HCDN-2009","0016400000","Halawa Stream near Halawa, Molokai, HI","HI","USA",21.1555,-156.761972,12.12
"HCDN-2009","0016508000","Hanawi Stream near Nahiku, Maui, HI","HI","USA",20.806861,-156.114222,9.27
"HCDN-2009","0016518000","West Wailuaiki Stream near Keanae, Maui, HI","HI","USA",20.817694,-156.141028,9.41
"HCDN-2009","0016587000","Honopou Stream near Huelo, Maui, HI","HI","USA",20.885679,-156.252743,1.52
"HCDN-2009","0016717000","HONOLII STREAM NR PAPAIKOU","HI","USA",19.763625,-155.151675,31.09
"HCDN-2009","0016720000","Kawainui Stream nr Kamuela, HI","HI","USA",20.085333,-155.681167,3.97
"HCDN-2009","0050025155","RIO SALIENTE AT COABEY NR JAYUYA, PR","PR","USA",18.211345,-66.563228,24
"HCDN-2009","0050034000","RIO BAUTA NR OROCOVIS, PR","PR","USA",18.234122,-66.454616,43.4
"HCDN-2009","0050050900","RIO GRANDE DE LOIZA AT QUEBRADA ARENAS, PR","PR","USA",18.117461,-65.989053,15.6
"HCDN-2009","0050063440","QUEBRADA SONADORA NR EL VERDE, PR","PR","USA",18.321341,-65.817108,2.6
"HCDN-2009","0050063800","RIO ESPIRITU SANTO NR RIO GRANDE, PR","PR","USA",18.358284,-65.813219,22.4
"HCDN-2009","0050065500","RIO MAMEYES NR SABANA, PR","PR","USA",18.327453,-65.750718,17.6
"HCDN-2009","0050092000","RIO GRANDE DE PATILLAS NR PATILLAS, PR","PR","USA",18.032464,-66.032387,47.6
"HCDN-2009","0050100450","RIO MAJADA AT LA PLENA, PR","PR","USA",18.042463,-66.207112,42.5
"HCDN-2009","0050108000","RIO DESCALABRADO NR LOS LLANOS, PR","PR","USA",18.050241,-66.425726,33.3
"HCDN-2009","0050110900","RIO TOA VACA ABV LAGO TOA VACA, PR","PR","USA",18.12496,-66.456283,36.9
"HCDN-2009","0050113800","RIO CERRILLOS ABV LAGO CERRILLOS NR PONCE, PR","PR","USA",18.114961,-66.60434,30.7
"HCDN-2009","0001031500","Piscataquis River near Dover-Foxcroft, Maine","ME","USA",45.175008,-69.314697,769
"HCDN-2009","0001047000","Carrabassett River near North Anson, Maine","ME","USA",44.8692,-69.955103,909.1
"HCDN-2009","0001195100","INDIAN RIVER NEAR CLINTON, CT.","CT","USA",41.305933,-72.531201,14.8
"HCDN-2009","0001208990","SAUGATUCK RIVER NEAR REDDING, CT.","CT","USA",41.29454,-73.39512,53.8
"HCDN-2009","0001350000","SCHOHARIE CREEK AT PRATTSVILLE NY","NY","USA",42.319528,-74.436537,612.5
"HCDN-2009","0001423000","WEST BRANCH DELAWARE RIVER AT WALTON NY","NY","USA",42.166196,-75.139891,859.7
"HCDN-2009","0006280300","SOUTH FORK SHOSHONE RIVER NEAR VALLEY, WY","WY","USA",44.208282,-109.554888,794
"HCDN-2009","0006632400","ROCK CREEK AB KING CANYON CANAL, NR ARLINGTON, WY","WY","USA",41.585245,-106.222791,163
"HCDN-2009","0009210500","FONTENELLE C NR HERSCHLER RANCH, NR FONTENELLE, WY","WY","USA",42.096053,-110.416556,398.3
"HCDN-2009","0010308200","E F CARSON R BL MARKLEEVILLE C NR MARKLEEVILLECA","CA","USA",38.714627,-119.764898,716.4
"HCDN-2009","0014158500","MCKENZIE RIVER AT OUTLET OF CLEAR LAKE, OR","OR","USA",44.360955,-121.995617,237.1
"NNRW","0001029200","Seboeis River near Shin Pond, Maine","ME","USA",46.143056,-68.633611,444.9492
"NNRW","0001064400","LUCY BROOK NEAR NORTH CONWAY, NH","NH","USA",44.070347,-71.172849,12.1707
"NNRW","0001075800","STEVENS BROOK NEAR WENTWORTH, NH","NH","USA",43.836181,-71.885361,7.6743
"NNRW","0001085800","WEST BRANCH WARNER RIVER NEAR BRADFORD, NH","NH","USA",43.259243,-72.025917,14.7681
"NNRW","0001127880","BIG BROOK NEAR PITTSBURG, NH","NH","USA",45.135046,-71.205908,16.9623
"NNRW","0001174565","WEST BRANCH SWIFT RIVER NEAR SHUTESBURY, MA","MA","USA",42.455089,-72.381752,32.994
"NNRW","0001174600","CADWELL CREEK NEAR PELHAM, MA","MA","USA",42.354535,-72.387862,1.6209
"NNRW","0001174900","CADWELL CREEK NEAR BELCHERTOWN, MA","MA","USA",42.335646,-72.369528,7.1064
"NNRW","0001180000","SYKES BROOK AT KNIGHTVILLE, MA","MA","USA",42.290922,-72.870375,3.6072
"NNRW","0001319000","EAST BRANCH SACANDAGA RIVER AT GRIFFIN NY","NY","USA",43.473678,-74.223192,292.707
"NNRW","0001349711","WEST KILL BELOW HUNTER BROOK NEAR SPRUCETON NY","NY","USA",42.185088,-74.276812,12.6972
"NNRW","0001349840","BATAVIA KILL NEAR MAPLECREST NY","NY","USA",42.28953,-74.115971,5.2092
"NNRW","0001363382","BUSH KILL BLW MALTBY HOLLOW BK AT WEST SHOKAN NY","NY","USA",41.965648,-74.292926,44.2872
"NNRW","0001364959","RONDOUT CR ABOVE RED BROOK AT PEEKAMOOSE NY","NY","USA",41.937037,-74.374596,14.0391
"NNRW","0001422389","COULTER BROOK NEAR BOVINA CENTER NY","NY","USA",42.2387,-74.73599,3.2004
"NNRW","0143400680","E BR NEVERSINK R NORTHEAST OF DENNING NY","NY","USA",41.967037,-74.447931,23.4315
"NNRW","0001434017","EAST BR NEVERSINK RIVER NR CLARYVILLE NY","NY","USA",41.92537,-74.540156,59.5485
"NNRW","0001434021","W BR NEVERSINK R AT WINNISOOK L NR FROST VALLEY NY","NY","USA",42.011203,-74.414318,2.1798
"NNRW","0001594936","NORTH FORK SAND RUN NEAR WILSON, MD","MD","USA",39.260306,-79.409778,4.9581
"NNRW","0001614090","Conococheague Creek near Fayetteville, PA","PA","USA",39.930092,-77.439431,12.9258
"NNRW","0001641500","FISHING CREEK NEAR LEWISTOWN, MD","MD","USA",39.527103,-77.467019,18.8532
"NNRW","0001659500","M BRANCH CHOPAWAMSIC CREEK NR GARRISONVILLE, VA","VA","USA",38.557344,-77.425262,11.5515
"NNRW","0002024915","PEDLAR RIVER AT FOREST ROAD NEAR BUENA VISTA, VA","VA","USA",37.6975,-79.278333,71.0469
"NNRW","0208650112","FLAT RIVER TRIB NR WILLARDVILLE, NC","NC","USA",36.131944,-78.833333,3.1302
"NNRW","0002123567","DUTCHMANS CREEK NR UWHARRIE, NC","NC","USA",35.379167,-80.030278,8.9847
"NNRW","0002220550","WHITTEN CREEK NEAR SPARTA, GA.","GA","USA",33.386805,-83.025984,43.4781
"NNRW","0002410000","PATERSON CREEK NEAR CENTRAL AL","AL","USA",32.681797,-86.127745,12.6198
"NNRW","0003201800","Sandy Run near Lake Hope OH","OH","USA",39.333682,-82.332096,13.7889
"NNRW","0003235500","TAR HOLLOW C AT TAR HOLLOW STATE PARK OH","OH","USA",39.389509,-82.750726,3.5604
"NNRW","0003302050","BRIER CREEK AT PENDELTON ROAD NEAR LOUISVILLE, KY","KY","USA",38.047848,-85.857185,10.6821
"NNRW","0003304500","MCGILLS CREEK NEAR MCKINNEY, KY","KY","USA",37.443967,-84.697722,5.5881
"NNRW","0003447894","BENT CR AT BENT CR GAP RD NR GLEN BALD, NC","NC","USA",35.493611,-82.611111,22.6485
"NNRW","0003461200","COSBY CREEK ABOVE COSBY, TN","TN","USA",35.782875,-83.217375,26.6148
"NNRW","0003497300","LITTLE RIVER ABOVE TOWNSEND, TN","TN","USA",35.664533,-83.711282,270.9224
"NNRW","0003518500","TELLICO RIVER AT TELLICO PLAINS, TN","TN","USA",35.362016,-84.279014,305.7507
"NNRW","0003544947","BRIER CREEK NEAR HIAWASSEE, GA","GA","USA",34.834816,-83.709341,4.3668
"NNRW","0004043140","GOMANCHE CREEK AT INDIAN ROAD NEAR L'ANSE, MI","MI","USA",46.751043,-88.361797,12.0789
"NNRW","0004043238","SALMON TROUT RIVER NEAR BIG BAY, MI","MI","USA",46.782148,-87.87763,14.0796
"NNRW","0004043244","EAST BRANCH SALMON TROUT RIVER NEAR DODGE CITY, MI","MI","USA",46.785759,-87.852352,26.6292
"NNRW","0004043275","YELLOW DOG RIVER NEAR BIG BAY, MI","MI","USA",46.713539,-87.840687,84.35609
"NNRW","0004062200","PESHEKEE RIVER NEAR CHAMPION, MI","MI","USA",46.556879,-88.002634,345.1167
"NNRW","0004268800","W BR ST. REGIS R NR PARISHVILLE NY","NY","USA",44.598672,-74.737134,443.9079
"NNRW","0004278300","NORTHWEST BAY BROOK NEAR BOLTON LANDING NY","NY","USA",43.663398,-73.603454,57.7062
"NNRW","0006036805","Firehole River at Old Faithful, YNP","WY","USA",44.45966,-110.82243,103.1144
"NNRW","0006036905","Firehole River near West Yellowstone MT","WY","USA",44.62021,-110.86299,676.8891
"NNRW","0006037100","Gibbon River at Madison Jct, YNP","WY","USA",44.640488,-110.861323,322.7652
"NNRW","0006079000","South Fork Sun River near Augusta MT","MT","USA",47.628833,-112.860602,651.0897
"NNRW","0006102500","Teton River bl South Fork nr Choteau MT","MT","USA",47.883006,-112.611984,286.6581
"NNRW","0006109800","South Fork Judith River near Utica MT","MT","USA",46.753564,-110.323252,129.6774
"NNRW","0006115500","North Fork Musselshell River nr Delpine MT","MT","USA",46.609952,-110.575757,97.5114
"NNRW","0006137400","Big Sandy Cr at Res Bndry nr Rocky Boy MT","MT","USA",48.172485,-109.826034,63.5409
"NNRW","0006187915","Soda Butte Cr at Park Bndry at Silver Gate","MT","USA",45.002995,-110.001851,73.07706
"NNRW","0006187950","Soda Butte Cr nr Lamar Ranger Station YNP","WY","USA",44.868273,-110.165469,261.2187
"NNRW","0006190540","Boiling River at Mammoth,YNP","WY","USA",44.985213,-110.689099,511.5537
"NNRW","0006206500","SUNLIGHT CREEK NEAR PAINTER, WYO.","WY","USA",44.749947,-109.506277,354.3687
"NNRW","0006209500","Rock Creek near Red Lodge MT","MT","USA",45.086092,-109.329901,272.6757
"NNRW","0006222700","CROW C NR TIPPERARY WYO","WY","USA",43.576667,-109.262222,78.4809
"NNRW","0006228350","SF L WIND RIV AB WASHAKIE RES, NR FT WASHAKIE, WY","WY","USA",42.968289,-109.037628,230.9103
"NNRW","0006260000","SOUTH FORK OWL CREEK NEAR ANCHOR, WY","WY","USA",43.666667,-108.855,224.0901
"NNRW","0006265337","COTTONWOOD C AT HIGH ISLAND RNCH NR HAMILTON DOME","WY","USA",43.762733,-108.676784,211.0725
"NNRW","0006265800","GOOSEBERRY CREEK AT DICKIE, WYO.","WY","USA",43.999954,-108.757623,248.562
"NNRW","0006267400","EAST FORK NOWATER CREEK NEAR COLTER, WYO.","WY","USA",43.915234,-107.930093,395.3223
"NNRW","0006297000","SOUTH FORK TONGUE RIVER NEAR DAYTON, WY","WY","USA",44.783853,-107.470085,214.3278
"NNRW","0006299500","WOLF CREEK AT WOLF,WYO.","WY","USA",44.772469,-107.234243,97.4853
"NNRW","0006300500","EAST FORK BIG GOOSE CREEK NEAR BIG HORN, WY","WY","USA",44.538301,-107.226459,50.8527
"NNRW","0006301480","CONEY CREEK ABOVE TWIN LAKES, NEAR BIG HORN, WY","WY","USA",44.601355,-107.317576,9.1224
"NNRW","0006315500","MIDDLE FORK CRAZY WOMAN CREEK NEAR GREUB, WYO","WY","USA",44.058027,-106.802551,211.9185
"NNRW","0006321500","NORTH PINEY CREEK NEAR STORY, WY","WY","USA",44.580527,-106.932561,91.0548
"NNRW","0006392900","BEAVER CREEK AT MALLO CAMP, NEAR FOUR CORNERS, WY","WY","USA",44.084981,-104.060489,26.3601
"NNRW","0006424000","ELK CR NEAR ROUBAIX,SD","SD","USA",44.294707,-103.596859,56.5164
"NNRW","0006429500","COLD SPRINGS CREEK AT BUCKHORN, WY","WY","USA",44.153871,-104.07799,57.8043
"NNRW","0006430850","LITTLE SPEARFISH CREEK NEAR LEAD, SD","SD","USA",44.34943,-103.93604,71.829
"NNRW","0006637750","ROCK CREEK ABOVE ROCK CREEK RESERVOIR, WYO.","WY","USA",42.549722,-108.775278,23.4756
"NNRW","0006696980","TARRYALL CREEK AT UPPER STATION NEAR COMO, CO","CO","USA",39.339433,-105.911681,61.9065
"NNRW","0006700500","GOOSE CREEK ABOVE CHEESMAN LAKE, CO.","CO","USA",39.208879,-105.303607,239.175
"NNRW","0006717400","CHICAGO CREEK BLW DEVILS CANYON NR IDAHO SPRGS, CO","CO","USA",39.716377,-105.571388,113.6151
"NNRW","0007055646","Buffalo River near Boxley, AR","AR","USA",35.938889,-93.405,152.9993
"NNRW","0007055875","Richland Creek near Witts Spring, AR","AR","USA",35.797222,-92.928889,174.6261
"NNRW","0007061270","East Fork Black River near Lesterville, MO","MO","USA",37.552556,-90.842444,135.3564
"NNRW","0007249500","COVE CREEK NEAR LEE CREEK, ARK.","AR","USA",35.722306,-94.407992,90.3744
"NNRW","0007252000","MULBERRY RIVER NEAR MULBERRY, ARK.","AR","USA",35.577307,-94.015757,968.9895
"NNRW","0072632962","Bringle Creek at Martindale, AR","AR","USA",34.88111,-92.68111,23.2722
"NNRW","0072632971","Yount Creek near Martindale, AR","AR","USA",34.88972,-92.64667,6.5178
"NNRW","0072632982","Reece Creek at Little Italy, AR","AR","USA",34.93,-92.59306,14.6583
"NNRW","0007311630","Middle Wichita Rv nr Guthrie, TX","TX","USA",33.795917,-100.075103,158.1984
"NNRW","0007362656","Brushy Creek near Jessieville, AR","AR","USA",34.71926,-92.99296,47.0619
"NNRW","0008028700","HOOSIER CK NR MERRYVILLE, LA","LA","USA",30.725756,-93.560173,35.271
"NNRW","0008131400","Pecan Ck nr San Angelo, TX","TX","USA",31.309054,-100.445925,209.6154
"NNRW","0008133900","Chalk Ck nr Water Valley, TX","TX","USA",31.646541,-100.690658,67.54951
"NNRW","0008201500","Seco Ck at Miller Ranch nr Utopia, TX","TX","USA",29.573284,-99.4031,116.8353
"NNRW","0008227500","NORTH CRESTONE CREEK NEAR CRESTONE, CO.","CO","USA",38.01361,-105.692788,33.3342
"NNRW","0008236000","ALAMOSA RIVER ABOVE TERRACE RESERVOIR, CO.","CO","USA",37.374728,-106.334756,275.1822
"NNRW","0008240500","TRINCHERA C AB TURNERS RANCH, NR FT GARLAND, CO.","CO","USA",37.374733,-105.29501,136.9035
"NNRW","0008253500","SANTISTEVAN CREEK NEAR COSTILLA, NM","NM","USA",36.884167,-105.281111,6.633
"NNRW","0008263000","LATIR CREEK NEAR CERRO, NM","NM","USA",36.829192,-105.547785,28.5768
"NNRW","0008275600","RIO CHIQUITO NEAR TALPA, NM","NM","USA",36.331971,-105.578901,98.4915
"NNRW","0008277470","RIO PUEBLO NR PENASCO, NM","NM","USA",36.168467,-105.602789,258.0012
"NNRW","0008294195","RIO NAMBE ABOVE NAMBE FALLS DAM NEAR NAMBE, NM","NM","USA",35.850056,-105.894444,78.6006
"NNRW","0008302500","TESUQUE CREEK ABOVE DIVERSIONS NEAR SANTA FE, NM","NM","USA",35.74,-105.898333,29.6964
"NNRW","0008315480","SANTA FE R ABV MCCLURE RES (8 FT), NR SANTA FE, NM","NM","USA",35.688694,-105.824083,35.091
"NNRW","0008321500","JEMEZ R BL EAST FORK NR JEMEZ SPRINGS, NM","NM","USA",35.827523,-106.648091,449.2485
"NNRW","0008340500","ARROYO CHICO NR GUADALUPE, NM","NM","USA",35.592528,-107.189211,3546.742
"NNRW","0008382730","LOS ESTEROS CREEK ABOVE SANTA ROSA LAKE, NM","NM","USA",35.095055,-104.664155,175.4019
"NNRW","0008386505","RIO RUIDOSO AT RUIDOSO, NM","NM","USA",33.336531,-105.726308,48.9735
"NNRW","0008431700","Limpia Ck abv Ft Davis, TX","TX","USA",30.613486,-104.001573,137.6046
"NNRW","0009040000","EAST FORK TROUBLESOME C NEAR TROUBLESOME, CO.","CO","USA",40.157485,-106.283362,196.7283
"NNRW","0009058700","FREEMAN CREEK NEAR MINTURN, CO.","CO","USA",39.698319,-106.445586,7.6068
"NNRW","0009058800","EAST MEADOW CREEK NEAR MINTURN CO.","CO","USA",39.731653,-106.426697,9.2187
"NNRW","0009060500","ROCK CREEK NEAR TOPONAS, CO.","CO","USA",40.041098,-106.655872,124.1172
"NNRW","0009063200","WEARYMAN CREEK NEAR RED CLIFF, CO.","CO","USA",39.522208,-106.323638,24.9021
"NNRW","0009063400","TURKEY CREEK NEAR RED CLIFF, CO.","CO","USA",39.522764,-106.336139,61.7526
"NNRW","0009066400","RED SANDSTONE CREEK NEAR MINTURN, CO.","CO","USA",39.682764,-106.401418,18.9792
"NNRW","0009068000","BRUSH CREEK NEAR EAGLE, CO.","CO","USA",39.557207,-106.763093,185.2065
"NNRW","0009132940","HUBBARD CREEK ABOVE IRON POINT GULCH NR BOWIE, CO","CO","USA",38.98249,-107.53172,125.9649
"NNRW","0009182000","CASTLE CREEK ABOVE DIVERSIONS, NEAR MOAB, UTAH","UT","USA",38.592764,-109.265671,22.5675
"NNRW","0009196500","PINE CREEK ABOVE FREMONT LAKE, WY","WY","USA",43.030502,-109.770153,194.8815
"NNRW","0009203000","EAST FORK RIVER NEAR BIG SANDY, WYO.","WY","USA",42.6725,-109.421667,216.3465
"NNRW","0009204000","SILVER CREEK NEAR BIG SANDY, WY","WY","USA",42.743611,-109.510833,115.992
"NNRW","0009208000","LA BARGE CR NR LA BARGE MEADOWS RANGER STA, WY","WY","USA",42.506944,-110.674722,17.0919
"NNRW","0009217900","BLACKS FORK NEAR ROBERTSON, WY","UT","USA",40.959113,-110.580166,326.817
"NNRW","0009220500","WEST FORK OF SMITH FORK NEAR ROBERTSON, WY","WY","USA",41.022169,-110.479329,98.6751
"NNRW","0009226500","MIDDLE FORK BEAVER CREEK NEAR LONETREE, WYO.","UT","USA",40.944393,-110.179321,73.9377
"NNRW","0009235600","POT CREEK ABOVE DIVERSIONS, NEAR VERNAL, UTAH","UT","USA",40.768015,-109.319022,64.0143
"NNRW","0009245000","ELKHEAD CREEK NEAR ELKHEAD, CO.","CO","USA",40.669694,-107.285059,173.7738
"NNRW","0009268500","NORTH FORK OF DRY FORK NEAR DRY FORK, UTAH","UT","USA",40.642733,-109.810982,22.8114
"NNRW","0009268900","BROWNIE CANYON ABOVE SINKS, NR DRY FORK, UTAH","UT","USA",40.659401,-109.750981,19.3833
"NNRW","0009276000","WOLF CREEK ABOVE RHOADES CANYON NEAR HANNA, UT","UT","USA",40.471056,-110.918775,27.7299
"NNRW","0009278500","ROCK CREEK NEAR HANNA, UTAH","UT","USA",40.545501,-110.656274,313.7247
"NNRW","0009280400","HOBBLE CREEK AT DANIELS SUMMIT NEAR WALLSBURG UT","UT","USA",40.298289,-111.265173,7.7418
"NNRW","0009288150","W F AVINTAQUIN CREEK NR FRUITLAND, UTAH","UT","USA",39.993014,-110.81488,145.4679
"NNRW","0009288900","SOWERS CREEK NEAR DUCHESNE, UTAH","UT","USA",39.989406,-110.459876,105.1299
"NNRW","0009298000","FARM CREEK NEAR WHITEROCKS, UTAH","UT","USA",40.567454,-109.961541,38.2626
"NNRW","0009302450","LOST CREEK NEAR BUFORD, CO.","CO","USA",40.050256,-107.468948,56.1321
"NNRW","0009303300","SOUTH FORK WHITE RIVER AT BUDGES RESORT, CO.","CO","USA",39.843315,-107.334778,136.7937
"NNRW","0009303500","SOUTH FORK WHITE RIVER NEAR BUFORD, CO.","CO","USA",39.921646,-107.551727,398.6208
"NNRW","0009306007","PICEANCE CREEK BELOW RIO BLANCO, CO.","CO","USA",39.826085,-108.183138,459.6948
"NNRW","0009307500","WILLOW CREEK ABOVE DIVERSIONS NEAR OURAY, UTAH","UT","USA",39.566354,-109.587353,774.9621
"NNRW","0009308500","MINNIE MAUD CREEK NR MYTON, UTAH","UT","USA",39.798574,-110.565991,82.3788
"NNRW","0009312800","WILLOW CREEK NEAR CASTLE GATE, UTAH","UT","USA",39.776907,-110.792381,162.5472
"NNRW","0009329050","SEVEN MILE CREEK NEAR FISH LAKE, UT","UT","USA",38.627752,-111.647965,63.414
"NNRW","0009338000","EAST FORK BOULDER CREEK NEAR BOULDER, UTAH","UT","USA",38.041929,-111.450174,52.9083
"NNRW","0009339900","EF SAN JUAN R AB SAND CREEK, NR PAGOSA SPGS, CO.","CO","USA",37.38973,-106.841151,169.8507
"NNRW","0009340000","EAST FORK SAN JUAN RIVER NR PAGOSA SPRINGS, CO.","CO","USA",37.369451,-106.892262,236.286
"NNRW","0009372400","NORTH CREEK NEAR MONTICELLO, UT","UT","USA",37.87666,-109.44595,7.1802
"NNRW","0009404208","DIAMOND CREEK NEAR PEACH SPRINGS, AZ","AZ","USA",35.764988,-113.368266,779.0482
"NNRW","0009404222","SPENCER CREEK NEAR PEACH SPRINGS, AZ","AZ","USA",35.800822,-113.658832,665.2512
"NNRW","0009406300","KANARRA CREEK AT KANARRAVILLE, UTAH","UT","USA",37.538034,-113.168561,25.8057
"NNRW","0009415460","WHITE RV NR RED MTN NR PRESTON, NV","NV","USA",38.935216,-115.298358,73.20689
"NNRW","0009415515","WATER CYN CK NR PRESTON, NV","NV","USA",38.98772,-114.95835,27.3762
"NNRW","0009442692","TULAROSA RIVER ABOVE ARAGON, NM","NM","USA",33.891441,-108.515617,247.8303
"NNRW","0009444200","BLUE RIVER NEAR CLIFTON, AZ.","AZ","USA",33.290895,-109.196183,1307.769
"NNRW","0009460150","FRYE CREEK NEAR THATCHER, AZ.","AZ","USA",32.743957,-109.838136,10.4598
"NNRW","0009470750","RAMSEY CANYON NR SIERRA VISTA, AZ.","AZ","USA",31.446667,-110.305833,10.809
"NNRW","0009470800","GARDEN CANYON NEAR FORT HUACHUCA, AZ.","AZ","USA",31.472875,-110.347859,22.1517
"NNRW","0009471310","HUACHUCA CANYON NEAR FORT HUACHUCA, AZ.","AZ","USA",31.518056,-110.387222,10.7154
"NNRW","0009484580","BARREL CANYON NEAR SONOITA, AZ","AZ","USA",31.861751,-110.691193,37.2771
"NNRW","0009489100","BLACK RIVER NEAR MAVERICK, ARIZ.","AZ","USA",33.707552,-109.447307,813.5154
"NNRW","0009489700","BIG BONITO C NR FORT APACHE, ARIZ.","AZ","USA",33.667274,-109.846761,296.0604
"NNRW","0009497700","CIBECUE CREEK NEAR OVERGAARD, AZ","AZ","USA",34.15722,-110.51111,79.353
"NNRW","0009498503","SOUTH FORK PARKER CREEK NEAR ROOSEVELT, AZ","AZ","USA",33.79727,-110.960395,2.8674
"NNRW","0009505250","RED TANK DRAW NEAR RIMROCK, AZ","AZ","USA",34.695299,-111.714317,132.3432
"NNRW","0009510100","EAST FORK SYCAMORE CREEK NEAR SUNFLOWER, ARIZ.","AZ","USA",33.949485,-111.461525,11.7234
"NNRW","0009512200","SALT RIVER TRIB. IN S. MNT. PARK, PHOENIX, ARIZ.","AZ","USA",33.34699,-112.08487,4.5639
"NNRW","0009515500","HASSAYAMPA RIVER AT BOX DAMSITE NR WICKENBURG AZ","AZ","USA",34.045029,-112.7099,1078.804
"NNRW","0010041000","THOMAS FORK NEAR WYOMING-IDAHO STATE LINE","WY","USA",42.402708,-111.025749,293.1057
"NNRW","0010058600","BLOOMINGTON CREEK AT BLOOMINGTON, ID","ID","USA",42.18465,-111.425763,62.9541
"NNRW","0010093000","CUB RIVER NEAR PRESTON, ID","ID","USA",42.141037,-111.689388,77.4909
"NNRW","0010143500","CENTERVILLE CREEK ABV. DIV NEAR CENTERVILLE, UT","UT","USA",40.916334,-111.862993,8.1378
"NNRW","0010148200","TIE FORK NEAR SOLDIER SUMMIT, UT","UT","USA",39.949958,-111.216839,50.6979
"NNRW","0010172860","WARM CREEK NEAR GANDY, UT","UT","USA",39.459528,-114.023722,74.5506
"NNRW","0010172870","TROUT CREEK NEAR CALLAO, UT","UT","USA",39.744108,-113.889994,21.3039
"NNRW","0010172875","GRANITE CREEK NEAR CALLAO, UT","UT","USA",39.777719,-113.861661,22.4874
"NNRW","0010183900","EAST FORK SEVIER RIVER NEAR RUBYS INN, UT","UT","USA",37.575816,-112.265754,185.1894
"NNRW","0010208500","OAK CREEK NR. FAIRVIEW, UTAH","UT","USA",39.673851,-111.409075,30.8601
"NNRW","0010219200","CHICKEN CREEK NEAR LEVAN, UT","UT","USA",39.55218,-111.829928,72.36449
"NNRW","0010224100","OAK CREEK ABOVE LITTLE CREEK, NEAR OAK CITY, UT","UT","USA",39.356346,-112.232717,14.5872
"NNRW","0010241470","CENTER CREEK ABV PAROWAN CREEK, NEAR PAROWAN, UTAH","UT","USA",37.793032,-112.816054,34.1991
"NNRW","0010241600","SUMMIT CREEK NEAR SUMMIT, UTAH","UT","USA",37.786921,-112.916335,62.6931
"NNRW","0010243260","LEHMAN CK NR BAKER, NV","NV","USA",39.011613,-114.214439,28.3527
"NNRW","0010243700","CLEVE C NR ELY, NV","NV","USA",39.216578,-114.529639,83.4552
"NNRW","0010245445","ILLIPAH CK NR HAMILTON, NV","NV","USA",39.317764,-115.395058,79.25671
"NNRW","0010245900","PINE CREEK NR BELMONT, NV","NV","USA",38.794376,-116.854524,31.4424
"NNRW","0010245910","MOSQUITO CREEK NR BELMONT,NV","NV","USA",38.806043,-116.67952,38.8161
"NNRW","0010246846","L CURRANT C NR CURRANT, NV","NV","USA",38.847159,-115.367526,33.9714
"NNRW","0010249900","Chiatovich C nr Dyer, NV","NV","USA",37.831975,-118.200461,94.9608
"NNRW","0010255810","BORREGO PALM C NR BORREGO SPRINGS CA","CA","USA",33.278926,-116.430014,56.4768
"NNRW","0010257600","MISSION C NR DESERT HOT SPRINGS CA","CA","USA",34.011123,-116.628069,92.9295
"NNRW","0010264000","LITTLE ROCK C AB LTTLE ROCK RES NR LITTLEROCK CA","CA","USA",34.463884,-118.018958,127.5021
"NNRW","0010264750","PINE TREE C NR MOJAVE CA","CA","USA",35.230519,-118.086185,88.5051
"NNRW","0010291500","Buckeye C nr Bridgeport, CA","CA","USA",38.238808,-119.325992,113.6448
"NNRW","0010295500","L WALKER R NR BRIDGEPORT, CA","CA","USA",38.360748,-119.444887,162.8955
"NNRW","0010308783","LEVIATHAN C AB MINE NR MARKLEEVILLE CA","CA","USA",38.7013,-119.65656,10.8198
"NNRW","0103087891","ASPEN C ABV LEVIATHAN MINE NR MARKLEEVILLE CA","CA","USA",38.70861,-119.64861,1.5048
"NNRW","0010313400","MARYS RV BLW ORANGE BRG NR CHARLESTON, NV","NV","USA",41.549913,-115.306729,184.1985
"NNRW","0010321590","SUSIE CK AT CARLIN, NV","NV","USA",40.72603,-116.07785,476.6175
"NNRW","0010336580","UPPER TRUCKEE RV AT S UPPER TRUCKEE RD NR MEYERS","CA","USA",38.7963,-120.01907,36.8802
"NNRW","0010336674","WARD C BL CONFLUENCE NR TAHOE CITY CA","CA","USA",39.14074,-120.212138,12.9024
"NNRW","0103366993","INCLINE CK ABV TYROL VILLAGE NR INCLINE VILLAGE NV","NV","USA",39.2588,-119.92324,8.7813
"NNRW","0103367592","EAGLE ROCK CK NR STATELINE, NV","NV","USA",38.95657,-119.92768,1.6227
"NNRW","0010336770","TROUT CK AT USFS RD 12N01 NR MEYERS, CA","CA","USA",38.863241,-119.958237,19.0818
"NNRW","0010353000","E F QUINN R NR MC DERMITT, NV","NV","USA",41.974836,-117.586067,357.3468
"NNRW","0010353600","KINGS R NR OROVADA, NV","NV","USA",41.905742,-118.309125,52.2225
"NNRW","0010353750","MAHOGANY CREEK NEAR SUMMIT LAKE, NEVADA","NV","USA",41.543067,-119.006747,34.4169
"NNRW","0010353770","S WILLOW C NR GERLACH, NV","NV","USA",41.017398,-119.35241,81.86671
"NNRW","0010359300","PINE C NR SUSANVILLE CA","CA","USA",40.664894,-120.791346,614.448
"NNRW","0010360900","BIDWELL C BL MILL C NR FORT BIDWELL CA","CA","USA",41.88239,-120.174951,58.6062
"NNRW","0010370000","CAMAS CREEK NEAR LAKEVIEW,OREG.","OR","USA",42.216274,-120.102452,149.3874
"NNRW","0010384000","CHEWAUCAN RIVER NEAR PAISLEY,OREG.","OR","USA",42.684597,-120.569972,691.7643
"NNRW","0011031500","AGUA CALIENTE C NR WARNER SPRINGS CA","CA","USA",33.288648,-116.653908,49.5648
"NNRW","0011046300","SAN MATEO C NR SAN CLEMENTE CA","CA","USA",33.47086,-117.473099,209.6343
"NNRW","0011073470","CUCAMONGA C NR UPLAND CA","CA","USA",34.179452,-117.628943,26.19075
"NNRW","0011084500","FISH C NR DUARTE CA","CA","USA",34.16584,-117.92423,15.4098
"NNRW","0011086500","LITTLE DALTON C NR GLENDORA CA","CA","USA",34.167507,-117.838394,7.1622
"NNRW","0011094000","TUJUNGA C BL MILL C NR COLBY RANCH CA","CA","USA",34.309167,-118.14535,167.958
"NNRW","0011111500","SESPE CREEK NEAR WHEELER SPRINGS CA","CA","USA",34.577766,-119.25789,128.5272
"NNRW","0011114495","MATILIJA C NR RES NR MATILIJA HOT SPRINGS CA","CA","USA",34.502769,-119.357339,124.3179
"NNRW","0011114500","MATILIJA C AB RES NR MATILIJA HOT SPRINGS CA","CA","USA",34.494714,-119.330949,131.2119
"NNRW","0011116000","NF MATILIJA C A MATILIJA HOT SPRINGS CA","CA","USA",34.492492,-119.306503,41.0652
"NNRW","0011117600","COYOTE CREEK NEAR OAK VIEW CA","CA","USA",34.416662,-119.370672,33.9183
"NNRW","0011151870","ARROYO SECO NR GREENFIELD CA","CA","USA",36.237462,-121.481603,284.5467
"NNRW","0011153470","LLAGAS C AB CHESBRO RES NR MORGAN HILL CA","CA","USA",37.14828,-121.76828,24.9642
"NNRW","0011153900","UVAS C AB UVAS RES NR MORGAN HILL CA","CA","USA",37.092725,-121.718282,54.4005
"NNRW","0011160020","SAN LORENZO R NR BOULDER C CA","CA","USA",37.206611,-122.144964,15.7743
"NNRW","0011160300","ZAYANTE C A ZAYANTE CA","CA","USA",37.086059,-122.046907,28.7127
"NNRW","0011195500","SAN EMIGDIO C A SAN EMIGDIO RANCHHOUSE CA","CA","USA",34.981637,-119.18511,127.143
"NNRW","0011196400","CALIENTE C AB TEHACHAPI C NR CALIENTE CA","CA","USA",35.311348,-118.570367,424.9485
"NNRW","0011199500","WHITE R NR DUCOR CA","CA","USA",35.814675,-118.929263,239.8815
"NNRW","0011203580","SF TULE R NR CHOLOLLO CAMPGROUND NR PORTERVILLE CA","CA","USA",36.048281,-118.654256,51.9264
"NNRW","0011220500","SYCAMORE C AB PINE FLAT RES NR TRIMMER CA","CA","USA",36.920226,-119.309846,145.467
"NNRW","0011226500","SAN JOAQUIN R A MILLER CROSSING CA","CA","USA",37.510497,-119.197348,650.1708
"NNRW","0011257100","MIAMI C NR OAKHURST CA","CA","USA",37.393553,-119.654318,27.324
"NNRW","0011269300","MAXWELL C A COULTERVILLE CA","CA","USA",37.716041,-120.18991,44.2674
"NNRW","0011281000","SF TUOLUMNE R NR OAKLAND RECREATION CAMP CA","CA","USA",37.821593,-120.012962,225.216
"NNRW","0011282000","M TUOLUMNE R A OAKLAND RECREATION CAMP CA","CA","USA",37.828259,-120.011573,187.3494
"NNRW","0011283500","CLAVEY R NR BUCK MEADOWS CA","CA","USA",37.90048,-120.071852,375.6798
"NNRW","0011292500","CLARK FORK STANISLAUS R NR DARDANELLE CA","CA","USA",38.363801,-119.871292,174.7566
"NNRW","0011355500","HAT C NR HAT CREEK CA","CA","USA",40.68655,-121.424699,312.8085
"NNRW","0011371000","CLEAR C A FRENCH GULCH CA","CA","USA",40.69487,-122.636684,298.3635
"NNRW","0011379000","ANTELOPE C NR RED BLUFF CA","CA","USA",40.203767,-122.118327,318.9681
"NNRW","0011384000","BIG CHICO C NR CHICO CA","CA","USA",39.776273,-121.753866,187.8192
"NNRW","0011390672","STONE CORRAL C NR SITES CA","CA","USA",39.288221,-122.301091,99.54449
"NNRW","0011409300","OREGON C A CAMPTONVILLE CA","CA","USA",39.446003,-121.046343,59.7024
"NNRW","0011413320","DEADWOOD C NR STRAWBERRY VALLEY CA","CA","USA",39.54989,-121.0944,8.2017
"NNRW","0011413323","OWL GULCH NR STRAWBERRY VALLEY CA","CA","USA",39.54545,-121.09523,5.3928
"NNRW","0011426150","ONION C NR SODA SPRINGS CA","CA","USA",39.267127,-120.364923,9.3366
"NNRW","0011431800","PILOT C AB STUMPY MEADOWS RES CA","CA","USA",38.894626,-120.568259,30.006
"NNRW","0011433260","NF OF MF AMERICAN R NR FORESTHILL CA","CA","USA",39.024067,-120.71854,229.7169
"NNRW","0011449500","KELSEY C NR KELSEYVILLE CA","CA","USA",38.9274,-122.843605,95.3343
"NNRW","0011464500","DRY C NR CLOVERDALE CA","CA","USA",38.749632,-123.092225,227.6307
"NNRW","0011467200","AUSTIN C NR CAZADERO CA","CA","USA",38.50658,-123.069724,162.6129
"NNRW","0011467500","SF GUALALA R NR ANNAPOLIS CA","CA","USA",38.704912,-123.423064,417.5505
"NNRW","0011467600","GARCIA R NR POINT ARENA CA","CA","USA",38.926296,-123.630293,254.0412
"NNRW","0011468900","MATTOLE R NR ETTERSBURG CA","CA","USA",40.139309,-123.991423,183.6774
"NNRW","0011472160","WILLITS C AB LK EMILY NR WILLITS CA","CA","USA",39.449329,-123.398067,9.5778
"NNRW","0011472900","BLACK BUTTE R NR COVELO CA","CA","USA",39.82071,-123.080564,418.7772
"NNRW","0011474500","NF EEL R NR MINA CA","CA","USA",39.937374,-123.346963,649.5777
"NNRW","0011481500","REDWOOD C NR BLUE LAKE CA","CA","USA",40.905965,-123.815335,175.1499
"NNRW","0011489500","ANTELOPE C NR TENNANT CA","CA","USA",41.546544,-121.918337,40.329
"NNRW","0011516900","LITTLE SHASTA R NR MONTAGUE CA","CA","USA",41.752924,-122.300572,121.3533
"NNRW","0011525530","RUSH C NR LEWISTON CA","CA","USA",40.72459,-122.834746,58.2327
"NNRW","0011525670","INDIAN C NR DOUGLAS CITY CA","CA","USA",40.651812,-122.914469,86.8896
"NNRW","0011526500","NF TRINITY R A HELENA CA","CA","USA",40.781809,-123.128365,391.9338
"NNRW","0012039300","NORTH FORK QUINAULT RIVER NEAR AMANDA PARK, WA","WA","USA",47.595921,-123.624344,190.1187
"NNRW","0012044900","ELWHA RIVER ABOVE LAKE MILLS NR PORT ANGELES, WA","WA","USA",47.970089,-123.590745,513.396
"NNRW","0012050500","SNOW CREEK NEAR MAYNARD, WA","WA","USA",47.94009,-122.88739,29.2554
"NNRW","0012065500","GOLD CREEK NEAR BREMERTON, WA","WA","USA",47.555371,-122.810981,4.0059
"NNRW","0012097500","GREENWATER RIVER AT GREENWATER, WA","WA","USA",47.153441,-121.635654,190.1907
"NNRW","0012104000","FRIDAY CREEK NEAR LESTER, WA","WA","USA",47.221223,-121.457316,12.3138
"NNRW","0012105000","SMAY CREEK NEAR LESTER, WA","WA","USA",47.261776,-121.565653,25.5906
"NNRW","0012114000","SOUTH FORK CEDAR RIVER NEAR LESTER, WA","WA","USA",47.308166,-121.517873,17.0379
"NNRW","0012147000","GRIFFIN CREEK NEAR CARNATION, WA","WA","USA",47.615934,-121.905395,44.5446
"NNRW","0012177500","STETATTLE CREEK NEAR NEWHALEM, WA","WA","USA",48.722073,-121.150678,58.3785
"NNRW","0012196000","ALDER CREEK NEAR HAMILTON, WA","WA","USA",48.528167,-121.950702,28.6668
"NNRW","0012202300","OLSEN CREEK NEAR BELLINGHAM, WA","WA","USA",48.751222,-122.353498,10.1133
"NNRW","0012202310","CARPENTER CREEK NEAR BELLINGHAM, WA","WA","USA",48.754,-122.35405,3.2922
"NNRW","0012206900","RACEHORSE CREEK AT NORTH FORK ROAD NR KENDALL, WA","WA","USA",48.88484,-122.13321,27.2214
"NNRW","0012207750","WARM CREEK NEAR WELCOME, WA","WA","USA",48.76734,-121.964595,11.3157
"NNRW","0012303100","Flower Creek near Libby MT","MT","USA",48.344674,-115.606553,29.1384
"NNRW","0012305500","BOULDER CREEK NR LEONIA ID","ID","USA",48.598273,-116.092686,143.7462
"NNRW","0012323710","Willow Creek nr Anaconda, MT","MT","USA",46.064648,-112.893651,35.5581
"NNRW","0012347500","Blodgett Creek near Corvallis MT","MT","USA",46.269366,-114.237041,67.52609
"NNRW","0012359800","S F Flathead R ab Twin C nr Hungry Horse MT","MT","USA",47.979115,-113.560923,2999.681
"NNRW","0012361000","Sullivan Creek near Hungry Horse MT","MT","USA",48.029118,-113.703705,183.8952
"NNRW","0012369200","Swan River near Condon MT","MT","USA",47.422436,-113.670921,197.0991
"NNRW","0012387450","Valley Creek near Arlee MT","MT","USA",47.1702,-114.23067,41.8257
"NNRW","0012413360","EF PINE CREEK ABV GILBERT CR NEAR PINEHURST ID","ID","USA",47.440278,-116.175278,8.9712
"NNRW","0012413875","ST. JOE RIVER AT RED IVES RANGER STATION ID","ID","USA",47.056029,-115.3532,275.0648
"NNRW","0012416000","HAYDEN CREEK BL NORTH FORK NR HAYDEN LAKE ID","ID","USA",47.822525,-116.654597,55.7487
"NNRW","0012433542","BLUE CR AB MIDNITE MINE DRAINAGE NR WELLPINIT, WA","WA","USA",47.924328,-118.08942,15.6591
"NNRW","0012454000","WHITE RIVER NEAR PLAIN, WASH.","WA","USA",47.874008,-120.870375,386.0433
"NNRW","0013016305","GRANITE C AB GRANITE C SUPPLEMENTAL, NR MOOSE, WY","WY","USA",43.603818,-110.805489,39.5442
"NNRW","0013046680","BOUNDARY CREEK NR BECHLER RANGER STATION Y.N.P. WY","WY","USA",44.185278,-111.007778,220.1688
"NNRW","0013046995","FALLS RIVER AB YELLOWSTONE CANAL NR SQUIRREL ID","ID","USA",44.061944,-111.151944,835.1658
"NNRW","0013077700","GEORGE CREEK NEAR YOST, UTAH","UT","USA",41.918529,-113.481669,20.1726
"NNRW","0013092000","ROCK CREEK NR ROCK CREEK ID","ID","USA",42.356303,-114.304196,211.221
"NNRW","0013162225","JARBIDGE RV BLW JARBIDGE, NV","NV","USA",41.890461,-115.428682,76.1346
"NNRW","0013169500","BIG JACKS CREEK NR BRUNEAU ID","ID","USA",42.784895,-115.984259,631.6308
"NNRW","0013196500","BANNOCK CREEK NR IDAHO CITY ID","ID","USA",43.807283,-115.775103,12.2436
"NNRW","0013200500","ROBIE CREEK NR ARROWROCK DAM ID","ID","USA",43.629917,-115.999706,41.6601
"NNRW","0013237920","MIDDLE FORK PAYETTE RIVER NR CROUCH ID","ID","USA",44.108611,-115.982222,874.8054
"NNRW","0013250600","BIG WILLOW CREEK NR EMMETT ID","ID","USA",44.074703,-116.485536,126.7146
"NNRW","0013288200","EAGLE CREEK ABV SKULL CREEK, NR NEW BRIDGE, OR","OR","USA",44.880438,-117.253792,403.7085
"NNRW","0013308500","MF SALMON RIVER NR CAPEHORN ID","ID","USA",44.409072,-115.183711,358.0902
"NNRW","0013309220","MF SALMON RIVER AT MF LODGE NR YELLOW PINE ID","ID","USA",44.721667,-115.016389,2696.614
"NNRW","0013340500","NF CLEARWATER RIVER AT BUNGALOW RANGER STATION ID","ID","USA",46.631302,-115.508751,2586.016
"NNRW","0014036860","JOHN DAY R AT BLUE MTN HOT SPGS NR PRAIRIE CITY,OR","OR","USA",44.35794,-118.57605,104.3073
"NNRW","0014037500","STRAWBERRY CR AB SLIDE CR NR PRAIRIE CITY,OREG.","OR","USA",44.341548,-118.65661,18.2376
"NNRW","0014046890","PINE CREEK NEAR CLARNO, OR","OR","USA",44.910407,-120.440863,168.5637
"NNRW","0014053000","CHARLTON CR AB CRANE PRAIRIE RES NR LA PINE,OREG","OR","USA",43.780674,-121.836141,39.9933
"NNRW","0014092885","SHITIKE CR BL WOLFORD CANYON NR WARM SPRGS,OREG.","OR","USA",44.772063,-121.305331,194.3604
"NNRW","0014139700","CEDAR CREEK NEAR BRIGHTWOOD, OREG.","OR","USA",45.458175,-122.031749,20.1186
"NNRW","0014144800","MIDDLE FORK WILLAMETTE RIVER NR OAKRIDGE OREG","OR","USA",43.597066,-122.456714,669.3398
"NNRW","0014144900","HILLS CR AB HILLS CR RES, NR OAKRIDGE,OREG.","OR","USA",43.680401,-122.3706,136.7514
"NNRW","0014146500","SALMON CREEK NEAR OAKRIDGE,OREG.","OR","USA",43.762346,-122.372823,302.6502
"NNRW","0014150300","FALL CR. NEAR LOWELL, OREG.","OR","USA",43.970682,-122.638674,304.9047
"NNRW","0014159200","SO FK MCKENZIE RIVER ABV COUGAR LAKE NR RAINBOW OR","OR","USA",44.047067,-122.217825,414.2997
"NNRW","0014161100","BLUE RIVER BELOW TIDBITS CREEK, NR BLUE RIVER, OR","OR","USA",44.217904,-122.265068,118.3653
"NNRW","0014161500","LOOKOUT CREEK NEAR BLUE RIVER, OR","OR","USA",44.209571,-122.256733,62.4241
"NNRW","0014163000","GATE CREEK AT VIDA,OREG.","OR","USA",44.145683,-122.572015,124.4484
"NNRW","0014179000","BREITENBUSH R ABV FRENCH CR NR DETROIT, OR.","OR","USA",44.752622,-122.128965,272.5416
"NNRW","0014180300","BLOWOUT CREEK NEAR DETROIT, OR","OR","USA",44.6529,-122.130908,66.6477
"NNRW","0014181750","ROCK CREEK NEAR MILL CITY, OR","OR","USA",44.71207,-122.42758,35.2233
"NNRW","0014181900","LITTLE N SANTIAM RIVER ABV EVANS CR, AT ELKHORN,OR","OR","USA",44.835678,-122.354803,137.1402
"NNRW","0014189500","LUCKIAMUTE RIVER NEAR HOSKINS, OREG.","OR","USA",44.71623,-123.503994,89.9118
"NNRW","0014194300","NORTH YAMHILL RIVER NEAR FAIRDALE, OREG.","OR","USA",45.365112,-123.378999,25.0803
"NNRW","0014198400","BULL CREEK NEAR WILHOIT, OR","OR","USA",44.961511,-122.384249,1.827
"NNRW","0014198500","MOLALLA R AB PC NR WILHOIT, OREG.","OR","USA",45.009567,-122.480362,252.1674
"NNRW","0014208000","CLACKAMAS RIVER AT BIG BOTTOM, OREG.","OR","USA",45.01651,-121.920634,359.4249
"NNRW","0014235500","WEST FORK TILTON RIVER NEAR MORTON, WA","WA","USA",46.610942,-122.24455,43.0938
"NNRW","0014250500","WEST FORK GRAYS RIVER NEAR GRAYS RIVER, WA","WA","USA",46.385106,-123.559589,40.284
"NNRW","0014306400","FIVE RIVERS NR FISHER, OREG.","OR","USA",44.337343,-123.827611,295.983
"NNRW","0014307700","JACKSON CREEK NR TILLER, OR","OR","USA",42.95401,-122.828939,398.9943
"NNRW","0014316495","BOULDER CREEK NEAR TOKETEE FALLS, OR","OR","USA",43.303454,-122.530324,78.9912
"NNRW","0014319830","SOUTH FORK HINKLE CREEK NEAR NONPAREIL, OR","OR","USA",43.422064,-123.03951,10.7739
"NNRW","0014319835","NORTH FORK HINKLE CREEK NEAR NONPAREIL, OR","OR","USA",43.423453,-123.039232,8.5896
"NNRW","0014320934","LITTLE WOLF CREEK NEAR TYEE, OR","OR","USA",43.431227,-123.586757,23.4855
"NNRW","0014324500","WEST FORK MILLICOMA RIVER NEAR ALLEGANY, OREG.","OR","USA",43.476225,-124.056773,119.7234
"NNRW","0014333500","RED BLANKET CREEK NEAR PROSPECT, OREG.","OR","USA",42.777628,-122.427534,116.2476
"NNRW","0014337800","ELK CREEK NEAR CASCADE GORGE,OREG.","OR","USA",42.773459,-122.671986,204.6447
"NNRW","0014337870","WEST BRANCH ELK CREEK NEAR TRAIL,OREG.","OR","USA",42.710958,-122.749765,39.8889
"NNRW","0014353000","WEST FORK ASHLAND CREEK NEAR ASHLAND, OR","OR","USA",42.148743,-122.716699,25.4637
"NNRW","0014353500","EAST FORK ASHLAND CREEK NEAR ASHLAND, OR","OR","USA",42.152632,-122.709476,20.8728
"NNRW","0014371500","GRAVE CREEK AT PEASE BRIDGE,NEAR PLACER,OREG.","OR","USA",42.64151,-123.212281,63.2232
"NNRW","0010245800","NEWARK VALLEY TR NR HAMILTON, NV","NV","USA",39.416598,-115.631987,378.4527
"NNRW","0006218500","WIND RIVER NEAR DUBOIS, WY","WY","USA",43.578564,-109.759884,596.8782
